postcode,place_name,state_name,state_code,latitude,longitude,accuracy
7000,Mount Stuart,Tasmania,TAS,-42.8716,147.3016,4.0
7000,North Hobart,Tasmania,TAS,-42.8741,147.316,4.0
7000,Queens Domain,Tasmania,TAS,-42.877,147.3288,3.0
7000,West Hobart,Tasmania,TAS,-42.8766,147.3069,4.0
7000,Glebe,Tasmania,TAS,-42.8747,147.3281,4.0
7000,Hobart,Tasmania,TAS,-42.8794,147.3294,4.0
7001,Hobart,Tasmania,TAS,-42.8794,147.3294,4.0
7002,North Hobart,Tasmania,TAS,-42.8741,147.316,4.0
7004,South Hobart,Tasmania,TAS,-42.8946,147.3092,4.0
7004,Battery Point,Tasmania,TAS,-42.8899,147.3332,4.0
7005,Sandy Bay,Tasmania,TAS,-42.8945,147.3244,4.0
7005,Dynnyrne,Tasmania,TAS,-42.9054,147.3158,4.0
7005,Lower Sandy Bay,Tasmania,TAS,-42.913,147.3532,3.0
7005,University Of Tasmania,Tasmania,TAS,-42.9107,147.3357,3.0
7006,Sandy Bay,Tasmania,TAS,-42.8945,147.3244,4.0
7007,Tolmans Hill,Tasmania,TAS,-42.914,147.3071,4.0
7007,Mount Nelson,Tasmania,TAS,-42.9207,147.3207,4.0
7008,New Town,Tasmania,TAS,-42.8576,147.3087,4.0
7008,Lenah Valley,Tasmania,TAS,-42.8715,147.2751,4.0
7009,West Moonah,Tasmania,TAS,-42.85,147.2818,4.0
7009,Moonah,Tasmania,TAS,-42.8462,147.3023,4.0
7009,Derwent Park,Tasmania,TAS,-42.8351,147.2949,4.0
7009,Lutana,Tasmania,TAS,-42.8347,147.3115,4.0
7010,Rosetta,Tasmania,TAS,-42.821,147.2526,4.0
7010,Montrose,Tasmania,TAS,-42.829,147.2473,4.0
7010,Dowsing Point,Tasmania,TAS,-42.8208,147.3022,4.0
7010,Goodwood,Tasmania,TAS,-42.8282,147.293,4.0
7010,Elwick,Tasmania,TAS,-42.8355,147.2646,3.0
7010,Glenorchy,Tasmania,TAS,-42.8334,147.2759,4.0
7011,Berriedale,Tasmania,TAS,-42.8167,147.25,4.0
7011,Chigwell,Tasmania,TAS,-42.8091,147.2448,4.0
7011,Claremont,Tasmania,TAS,-42.7833,147.25,4.0
7011,Austins Ferry,Tasmania,TAS,-42.7667,147.25,4.0
7012,Collinsvale,Tasmania,TAS,-42.8417,147.1961,4.0
7012,Glenlusk,Tasmania,TAS,-42.8167,147.2,4.0
7015,Geilston Bay,Tasmania,TAS,-42.8296,147.3463,4.0
7015,Lindisfarne,Tasmania,TAS,-42.8484,147.3619,4.0
7015,Rose Bay,Tasmania,TAS,-42.832,147.3227,3.0
7016,Risdon Vale,Tasmania,TAS,-42.8124,147.3565,4.0
7017,Honeywood,Tasmania,TAS,-42.7261,147.2802,4.0
7017,Grasstree Hill,Tasmania,TAS,-42.782,147.3613,3.0
7017,Risdon,Tasmania,TAS,-42.8,147.3333,4.0
7017,Old Beach,Tasmania,TAS,-42.7776,147.2666,4.0
7017,Otago,Tasmania,TAS,-42.8088,147.2984,4.0
7017,Tea Tree,Tasmania,TAS,-42.6833,147.3167,4.0
7018,Rosny,Tasmania,TAS,-42.8707,147.357,4.0
7018,Bellerive,Tasmania,TAS,-42.8755,147.3703,4.0
7018,Montagu Bay,Tasmania,TAS,-42.8626,147.3533,4.0
7018,Rosny Park,Tasmania,TAS,-42.8661,147.3677,4.0
7018,Tranmere,Tasmania,TAS,-42.9218,147.417,4.0
7018,Warrane,Tasmania,TAS,-42.8555,147.383,4.0
7018,Mornington,Tasmania,TAS,-42.8627,147.3982,4.0
7018,Howrah,Tasmania,TAS,-42.8873,147.4055,4.0
7019,Oakdowns,Tasmania,TAS,-42.9018,147.4559,4.0
7019,Clarendon Vale,Tasmania,TAS,-42.8899,147.4437,4.0
7019,Rokeby,Tasmania,TAS,-42.8987,147.4492,4.0
7020,Sandford,Tasmania,TAS,-42.9333,147.5,4.0
7020,Clifton Beach,Tasmania,TAS,-42.9853,147.5211,4.0
7021,Lauderdale,Tasmania,TAS,-42.9136,147.4875,4.0
7022,South Arm,Tasmania,TAS,-43.0247,147.4149,4.0
7023,Opossum Bay,Tasmania,TAS,-42.9954,147.4038,4.0
7024,Cremorne,Tasmania,TAS,-42.9578,147.5315,4.0
7025,Richmond,Tasmania,TAS,-42.7355,147.4383,4.0
7025,Dulcot,Tasmania,TAS,-42.7883,147.4014,4.0
7026,Campania,Tasmania,TAS,-42.6648,147.4232,4.0
7027,Colebrook,Tasmania,TAS,-42.5333,147.3667,4.0
7030,Steppes,Tasmania,TAS,-42.1104,146.8924,4.0
7030,Flintstone,Tasmania,TAS,-42.5042,147.1203,3.0
7030,Bothwell,Tasmania,TAS,-42.3848,147.0083,4.0
7030,Pontville,Tasmania,TAS,-42.687,147.2686,4.0
7030,Hermitage,Tasmania,TAS,-42.25,146.8833,4.0
7030,Tods Corner,Tasmania,TAS,-42.5042,147.1203,3.0
7030,Apsley,Tasmania,TAS,-42.4365,147.1466,4.0
7030,Broadmarsh,Tasmania,TAS,-42.65,147.1167,4.0
7030,Miena,Tasmania,TAS,-41.9817,146.7232,4.0
7030,Morass Bay,Tasmania,TAS,-42.5042,147.1203,3.0
7030,Kempton,Tasmania,TAS,-42.5359,147.2052,4.0
7030,Pelham,Tasmania,TAS,-42.5833,147.0,4.0
7030,Gagebrook,Tasmania,TAS,-42.7477,147.2698,4.0
7030,Lower Marshes,Tasmania,TAS,-42.238,147.01,3.0
7030,Waddamana,Tasmania,TAS,-42.1271,146.7476,4.0
7030,Elderslie,Tasmania,TAS,-42.6,147.0667,4.0
7030,Shannon,Tasmania,TAS,-42.238,147.01,3.0
7030,Bagdad,Tasmania,TAS,-42.6297,147.2234,4.0
7030,Jericho,Tasmania,TAS,-42.3833,147.2833,4.0
7030,Interlaken,Tasmania,TAS,-42.15,147.1833,4.0
7030,Melton Mowbray,Tasmania,TAS,-42.4667,147.1833,4.0
7030,Bagdad North,Tasmania,TAS,-42.5042,147.1203,3.0
7030,Herdsmans Cove,Tasmania,TAS,-42.7507,147.2648,4.0
7030,Dysart,Tasmania,TAS,-42.5667,147.2,4.0
7030,Granton,Tasmania,TAS,-42.7515,147.228,4.0
7030,Arthurs Lake,Tasmania,TAS,-42.5042,147.1203,3.0
7030,Brighton,Tasmania,TAS,-42.6981,147.2449,4.0
7030,Mangalore,Tasmania,TAS,-42.65,147.2333,4.0
7030,Millers Bluff,Tasmania,TAS,-42.5042,147.1203,3.0
7030,Bridgewater,Tasmania,TAS,-42.7372,147.2278,4.0
7030,Lake Sorell,Tasmania,TAS,-42.5042,147.1203,3.0
7030,Dromedary,Tasmania,TAS,-42.7333,147.1667,4.0
7030,Cramps Bay,Tasmania,TAS,-42.5042,147.1203,3.0
7030,Wilburville,Tasmania,TAS,-42.5042,147.1203,3.0
7030,Liawenee,Tasmania,TAS,-42.5042,147.1203,3.0
7050,Kingston Beach,Tasmania,TAS,-42.9802,147.3194,4.0
7050,Kingston,Tasmania,TAS,-42.9764,147.3035,4.0
7051,Kingston,Tasmania,TAS,-42.9764,147.3035,4.0
7052,Blackmans Bay,Tasmania,TAS,-43.0031,147.3169,4.0
7053,Bonnet Hill,Tasmania,TAS,-42.968,147.3319,4.0
7053,Taroona,Tasmania,TAS,-42.9452,147.3484,4.0
7054,Coningham,Tasmania,TAS,-43.0767,147.2756,4.0
7054,Wellington Park,Tasmania,TAS,-43.0081,147.2655,3.0
7054,Margate,Tasmania,TAS,-43.0281,147.2626,4.0
7054,Tinderbox,Tasmania,TAS,-43.0362,147.3203,4.0
7054,Neika,Tasmania,TAS,-42.95,147.2333,4.0
7054,Lower Snug,Tasmania,TAS,-43.0081,147.2655,3.0
7054,Electrona,Tasmania,TAS,-43.0577,147.2607,4.0
7054,Barretta,Tasmania,TAS,-43.0339,147.2463,3.0
7054,Snug,Tasmania,TAS,-43.0667,147.2547,4.0
7054,Fern Tree,Tasmania,TAS,-42.921,147.2633,4.0
7054,Ridgeway,Tasmania,TAS,-42.928,147.289,4.0
7054,Leslie Vale,Tasmania,TAS,-42.9743,147.2295,4.0
7054,Howden,Tasmania,TAS,-43.0254,147.2937,4.0
7055,Huntingfield,Tasmania,TAS,-43.0016,147.2957,4.0
7109,Wattle Grove,Tasmania,TAS,-43.1673,146.9986,4.0
7109,Huonville,Tasmania,TAS,-43.0312,147.0481,4.0
7109,Raminea,Tasmania,TAS,-43.2109,146.8676,3.0
7109,Glen Huon,Tasmania,TAS,-43.0333,146.9667,4.0
7109,Glendevie,Tasmania,TAS,-43.2392,146.9953,4.0
7109,Hastings,Tasmania,TAS,-43.4089,146.9195,4.0
7109,Southport,Tasmania,TAS,-43.2109,146.8676,3.0
7109,Cradoc,Tasmania,TAS,-43.0991,147.0285,4.0
7109,Grove,Tasmania,TAS,-42.9833,147.1,4.0
7109,Lymington,Tasmania,TAS,-43.1984,147.0727,4.0
7109,Petcheys Bay,Tasmania,TAS,-43.2109,146.8676,3.0
7109,Woodstock,Tasmania,TAS,-43.0736,147.0376,4.0
7109,Glaziers Bay,Tasmania,TAS,-43.1333,147.05,4.0
7109,Judbury,Tasmania,TAS,-42.9924,146.9326,4.0
7109,Lune River,Tasmania,TAS,-43.4295,146.9009,4.0
7109,Ranelagh,Tasmania,TAS,-43.0098,147.0376,4.0
7109,Crabtree,Tasmania,TAS,-42.9329,147.0489,4.0
7109,Lower Longley,Tasmania,TAS,-42.9791,147.1444,4.0
7109,Waterloo,Tasmania,TAS,-43.2109,146.8676,3.0
7109,Lucaston,Tasmania,TAS,-42.9833,147.05,4.0
7109,Strathblane,Tasmania,TAS,-43.3341,146.9705,4.0
7109,Lonnavale,Tasmania,TAS,-42.9754,146.8397,3.0
7109,Ida Bay,Tasmania,TAS,-43.1269,147.0275,3.0
7109,Mountain River,Tasmania,TAS,-42.945,147.1257,3.0
7109,Recherche,Tasmania,TAS,-43.1269,147.0275,3.0
7109,Southport Lagoon,Tasmania,TAS,-43.1269,147.0275,3.0
7109,Lower Wattle Grove,Tasmania,TAS,-43.1269,147.0275,3.0
7109,Catamaran,Tasmania,TAS,-43.5583,146.8911,4.0
7112,Nicholls Rivulet,Tasmania,TAS,-43.1585,147.1447,4.0
7112,Randalls Bay,Tasmania,TAS,-43.2434,147.128,4.0
7112,Deep Bay,Tasmania,TAS,-43.2082,147.134,4.0
7112,Verona Sands,Tasmania,TAS,-43.1696,147.1296,3.0
7112,Garden Island Creek,Tasmania,TAS,-43.25,147.1667,4.0
7112,Eggs And Bacon Bay,Tasmania,TAS,-43.2455,147.1047,3.0
7112,Cygnet,Tasmania,TAS,-43.1533,147.0725,4.0
7112,Charlotte Cove,Tasmania,TAS,-43.189,147.148,3.0
7112,Abels Bay,Tasmania,TAS,-43.1696,147.1296,3.0
7112,Gardners Bay,Tasmania,TAS,-43.1757,147.1323,4.0
7113,Franklin,Tasmania,TAS,-43.0888,147.0091,4.0
7116,Castle Forbes Bay,Tasmania,TAS,-43.1323,146.9763,4.0
7116,Brooks Bay,Tasmania,TAS,-43.1708,146.9784,3.0
7116,Surges Bay,Tasmania,TAS,-43.2188,146.9926,4.0
7116,Cairns Bay,Tasmania,TAS,-43.2775,146.4256,3.0
7116,Police Point,Tasmania,TAS,-43.2406,147.0419,4.0
7116,Surveyors Bay,Tasmania,TAS,-43.1708,146.9784,3.0
7116,Port Huon,Tasmania,TAS,-43.1564,146.9638,4.0
7116,Geeveston,Tasmania,TAS,-43.1634,146.9255,4.0
7117,Dover,Tasmania,TAS,-43.3142,147.0149,4.0
7119,Stonor,Tasmania,TAS,-42.4,147.3833,4.0
7120,Swanston,Tasmania,TAS,-42.3482,147.4726,3.0
7120,Baden,Tasmania,TAS,-42.4333,147.4667,4.0
7120,Levendale,Tasmania,TAS,-42.5333,147.5667,4.0
7120,Lemont,Tasmania,TAS,-42.2974,147.6081,4.0
7120,Tiberias,Tasmania,TAS,-42.3482,147.4726,3.0
7120,Andover,Tasmania,TAS,-42.3333,147.45,4.0
7120,Mount Seymour,Tasmania,TAS,-42.4,147.45,4.0
7120,Parattah,Tasmania,TAS,-42.35,147.4,4.0
7120,Oatlands,Tasmania,TAS,-42.303,147.3672,4.0
7120,Antill Ponds,Tasmania,TAS,-42.2089,147.4018,4.0
7120,Whitefoord,Tasmania,TAS,-42.4243,147.5097,4.0
7120,Woodbury,Tasmania,TAS,-42.1794,147.3889,4.0
7120,York Plains,Tasmania,TAS,-42.2792,147.4456,4.0
7120,Woodsdale,Tasmania,TAS,-42.4849,147.5631,4.0
7120,Tunbridge,Tasmania,TAS,-42.1327,147.4292,4.0
7120,Pawtella,Tasmania,TAS,-42.2905,147.504,4.0
7120,Rhyndaston,Tasmania,TAS,-42.4789,147.3837,4.0
7120,Tunnack,Tasmania,TAS,-42.4519,147.4618,4.0
7120,Stonehenge,Tasmania,TAS,-42.4,147.6333,4.0
7139,Strathgordon,Tasmania,TAS,-42.7665,146.0521,4.0
7140,Macquarie Plains,Tasmania,TAS,-42.7119,146.9131,4.0
7140,Plenty,Tasmania,TAS,-42.7419,146.9554,4.0
7140,Victoria Valley,Tasmania,TAS,-42.3167,146.7333,4.0
7140,Sorell Creek,Tasmania,TAS,-42.8133,147.8342,4.0
7140,Fitzgerald,Tasmania,TAS,-42.7496,146.6424,4.0
7140,Magra,Tasmania,TAS,-42.75,147.0667,4.0
7140,Fentonbury,Tasmania,TAS,-42.65,146.7667,4.0
7140,Karanja,Tasmania,TAS,-42.5434,146.4477,3.0
7140,Hollow Tree,Tasmania,TAS,-42.5333,146.9333,4.0
7140,Maydena,Tasmania,TAS,-42.7548,146.6256,4.0
7140,Bronte Park,Tasmania,TAS,-42.136,146.4932,4.0
7140,Lachlan,Tasmania,TAS,-42.8333,147.05,4.0
7140,Malbina,Tasmania,TAS,-42.8,147.1333,4.0
7140,Ouse,Tasmania,TAS,-42.4862,146.7126,4.0
7140,Gretna,Tasmania,TAS,-42.6809,146.9365,4.0
7140,Glenora,Tasmania,TAS,-42.6833,146.8667,4.0
7140,Bushy Park,Tasmania,TAS,-42.7,146.9,4.0
7140,Hayes,Tasmania,TAS,-42.76,147.0124,4.0
7140,Black Hills,Tasmania,TAS,-42.7167,147.0333,4.0
7140,Hamilton,Tasmania,TAS,-42.5536,146.8453,4.0
7140,Mount Field,Tasmania,TAS,-42.5434,146.4477,3.0
7140,Mount Lloyd,Tasmania,TAS,-42.8167,146.95,4.0
7140,Lawitta,Tasmania,TAS,-42.7682,147.0359,4.0
7140,Osterley,Tasmania,TAS,-42.35,146.75,4.0
7140,Bradys Lake,Tasmania,TAS,-42.5434,146.4477,3.0
7140,Moogara,Tasmania,TAS,-42.7833,146.9167,4.0
7140,Wayatinah,Tasmania,TAS,-42.3769,146.5085,4.0
7140,Butlers Gorge,Tasmania,TAS,-42.279,146.2777,4.0
7140,Lake St Clair,Tasmania,TAS,-42.5434,146.4477,3.0
7140,Westerway,Tasmania,TAS,-42.6833,146.7833,4.0
7140,Ellendale,Tasmania,TAS,-42.6167,146.7167,4.0
7140,National Park,Tasmania,TAS,-42.6805,146.7277,4.0
7140,Molesworth,Tasmania,TAS,-42.5434,146.4477,3.0
7140,Tarraleah,Tasmania,TAS,-42.3015,146.4492,4.0
7140,Strickland,Tasmania,TAS,-42.3667,146.6667,4.0
7140,New Norfolk,Tasmania,TAS,-42.7826,147.0587,4.0
7140,Styx,Tasmania,TAS,-42.618,146.8279,3.0
7140,Uxbridge,Tasmania,TAS,-42.773,146.8686,4.0
7140,Derwent Bridge,Tasmania,TAS,-42.1394,146.2314,4.0
7140,Little Pine Lagoon,Tasmania,TAS,-42.618,146.8279,3.0
7140,Tyenna,Tasmania,TAS,-42.7287,146.6665,4.0
7140,Boyer,Tasmania,TAS,-42.7823,147.1062,4.0
7140,Dee,Tasmania,TAS,-42.2833,146.6167,4.0
7140,Glenfern,Tasmania,TAS,-42.8167,147.0,4.0
7140,Rosegarland,Tasmania,TAS,-42.7,146.9489,4.0
7140,Meadowbank,Tasmania,TAS,-42.618,146.8279,3.0
7140,Florentine,Tasmania,TAS,-42.618,146.8279,3.0
7140,London Lakes,Tasmania,TAS,-42.618,146.8279,3.0
7150,Allens Rivulet,Tasmania,TAS,-43.0151,147.2014,4.0
7150,Upper Woodstock,Tasmania,TAS,-43.2345,147.2537,3.0
7150,South Bruny,Tasmania,TAS,-43.4386,147.2462,4.0
7150,Barnes Bay,Tasmania,TAS,-43.1216,147.368,4.0
7150,Pelverata,Tasmania,TAS,-43.0462,147.1127,4.0
7150,Killora,Tasmania,TAS,-43.2345,147.2537,3.0
7150,Oyster Cove,Tasmania,TAS,-43.1052,147.2436,4.0
7150,Lunawanna,Tasmania,TAS,-43.3666,147.2432,4.0
7150,Simpsons Bay,Tasmania,TAS,-43.278,147.2997,4.0
7150,North Bruny,Tasmania,TAS,-43.1287,147.2464,3.0
7150,Gordon,Tasmania,TAS,-43.262,147.2395,4.0
7150,Apollo Bay,Tasmania,TAS,-43.1287,147.2464,3.0
7150,Dennes Point,Tasmania,TAS,-43.0628,147.3528,4.0
7150,Great Bay,Tasmania,TAS,-43.2345,147.2537,3.0
7150,Adventure Bay,Tasmania,TAS,-43.3602,147.3214,4.0
7150,Alonnah,Tasmania,TAS,-43.315,147.2443,4.0
7150,Longley,Tasmania,TAS,-42.9708,147.1947,4.0
7150,Sandfly,Tasmania,TAS,-42.9833,147.1962,4.0
7150,Kaoota,Tasmania,TAS,-43.0167,147.1833,4.0
7151,Macquarie Island,Tasmania,TAS,-42.7167,146.9167,3.0
7151,Macquarie,Tasmania,TAS,-42.7119,146.9131,4.0
7151,Casey,Tasmania,TAS,-42.7167,146.9167,3.0
7151,Mawson,Tasmania,TAS,-42.7167,146.9167,3.0
7151,Davis,Tasmania,TAS,-42.7167,146.9167,3.0
7151,Heard Island,Tasmania,TAS,-42.7167,146.9167,3.0
7151,Mcdonald Islands,Tasmania,TAS,-42.7167,146.9167,3.0
7155,Kettering,Tasmania,TAS,-43.1262,147.2464,4.0
7162,Birchs Bay,Tasmania,TAS,-43.1755,147.242,4.0
7162,Woodbridge,Tasmania,TAS,-43.1557,147.2389,4.0
7163,Flowerpot,Tasmania,TAS,-43.2336,147.2198,3.0
7163,Middleton,Tasmania,TAS,-43.2316,147.2529,4.0
7170,Seven Mile Beach,Tasmania,TAS,-42.8586,147.5053,4.0
7170,Roches Beach,Tasmania,TAS,-42.8902,147.4953,4.0
7170,Cambridge,Tasmania,TAS,-42.8333,147.45,4.0
7170,Mount Rumney,Tasmania,TAS,-42.8606,147.4476,4.0
7170,Acton Park,Tasmania,TAS,-42.8793,147.4846,4.0
7171,Penna,Tasmania,TAS,-42.7776,147.5228,4.0
7171,Midway Point,Tasmania,TAS,-42.7816,147.5627,4.0
7172,Orielton,Tasmania,TAS,-42.7333,147.5333,4.0
7172,Sorell,Tasmania,TAS,-42.7816,147.5627,4.0
7172,Nugent,Tasmania,TAS,-42.7172,147.7522,4.0
7172,Pawleena,Tasmania,TAS,-42.7333,147.6,4.0
7172,Wattle Hill,Tasmania,TAS,-42.7667,147.65,4.0
7173,Forcett,Tasmania,TAS,-42.8,147.6333,4.0
7173,Carlton River,Tasmania,TAS,-42.8474,147.6451,3.0
7173,Primrose Sands,Tasmania,TAS,-42.8858,147.6695,4.0
7173,Lewisham,Tasmania,TAS,-42.8333,147.6167,4.0
7173,Dodges Ferry,Tasmania,TAS,-42.8531,147.6226,4.0
7173,Connellys Marsh,Tasmania,TAS,-42.8222,147.6703,3.0
7173,Carlton,Tasmania,TAS,-42.874,147.6534,4.0
7174,Copping,Tasmania,TAS,-42.8167,147.8,4.0
7175,Bream Creek,Tasmania,TAS,-42.8133,147.8342,4.0
7175,Marion Bay,Tasmania,TAS,-42.8133,147.8342,3.0
7176,Kellevie,Tasmania,TAS,-42.7785,147.8153,4.0
7177,Boomer Bay,Tasmania,TAS,-42.8865,147.8108,3.0
7177,Dunalley,Tasmania,TAS,-42.8865,147.8108,4.0
7178,Murdunna,Tasmania,TAS,-42.9473,147.8705,4.0
7179,Eaglehawk Neck,Tasmania,TAS,-43.0179,147.9222,4.0
7180,Taranna,Tasmania,TAS,-43.0629,147.863,4.0
7182,Port Arthur,Tasmania,TAS,-43.1458,147.8437,4.0
7182,Cape Pillar,Tasmania,TAS,-43.15,147.85,3.0
7182,Fortescue,Tasmania,TAS,-43.15,147.85,3.0
7183,Highcroft,Tasmania,TAS,-43.1333,147.8,4.0
7184,White Beach,Tasmania,TAS,-43.1249,147.7212,4.0
7184,Nubeena,Tasmania,TAS,-43.0971,147.7433,4.0
7184,Cape Raoul,Tasmania,TAS,-43.111,147.7322,3.0
7184,Stormlea,Tasmania,TAS,-43.1703,147.7718,4.0
7185,Premaydena,Tasmania,TAS,-43.0546,147.7708,4.0
7186,Saltwater River,Tasmania,TAS,-43.0234,147.7183,4.0
7186,Sloping Main,Tasmania,TAS,-43.0167,147.75,3.0
7187,Koonya,Tasmania,TAS,-43.05,147.85,4.0
7190,Swansea,Tasmania,TAS,-42.1228,148.0743,4.0
7190,Little Swanport,Tasmania,TAS,-42.3375,147.9334,4.0
7190,Dolphin Sands,Tasmania,TAS,-42.4221,147.8876,3.0
7190,Runnymede,Tasmania,TAS,-42.6419,147.5605,4.0
7190,Rheban,Tasmania,TAS,-42.63,147.928,4.0
7190,Orford,Tasmania,TAS,-42.5602,147.8718,4.0
7190,Cranbrook,Tasmania,TAS,-42.0062,148.0689,4.0
7190,Triabunna,Tasmania,TAS,-42.508,147.9113,4.0
7190,Spring Beach,Tasmania,TAS,-42.5841,147.9041,4.0
7190,Buckland,Tasmania,TAS,-42.6,147.7167,4.0
7190,Pontypool,Tasmania,TAS,-42.4221,147.8876,3.0
7190,Apslawn,Tasmania,TAS,-41.9738,148.1865,4.0
7190,Maria Island,Tasmania,TAS,-42.3064,147.9158,3.0
7190,Rocky Hills,Tasmania,TAS,-42.4221,147.8876,3.0
7209,Ross,Tasmania,TAS,-42.0308,147.4927,4.0
7209,Tooms Lake,Tasmania,TAS,-42.0308,147.4927,3.0
7210,Campbell Town,Tasmania,TAS,-41.9256,147.4939,4.0
7210,Lake Leake,Tasmania,TAS,-42.0136,147.7954,4.0
7211,Cleveland,Tasmania,TAS,-41.8,147.4,4.0
7211,Conara,Tasmania,TAS,-41.8333,147.4333,4.0
7211,Epping Forest,Tasmania,TAS,-41.7599,147.3498,4.0
7212,Evandale,Tasmania,TAS,-41.5686,147.2527,4.0
7212,Burns Creek,Tasmania,TAS,-41.4147,147.5265,4.0
7212,Blessington,Tasmania,TAS,-41.519,147.4761,4.0
7212,Upper Blessington,Tasmania,TAS,-41.4591,147.5922,4.0
7212,Nile,Tasmania,TAS,-41.6454,147.3301,4.0
7212,Deddington,Tasmania,TAS,-41.6024,147.4272,4.0
7212,Western Junction,Tasmania,TAS,-41.5543,147.2282,4.0
7212,Ben Lomond,Tasmania,TAS,-41.5535,147.3829,3.0
7213,Royal George,Tasmania,TAS,-41.8307,147.8968,4.0
7213,Rossarden,Tasmania,TAS,-41.667,147.745,4.0
7213,Avoca,Tasmania,TAS,-41.7864,147.7209,4.0
7214,Mangana,Tasmania,TAS,-41.6081,147.8854,4.0
7214,Fingal,Tasmania,TAS,-41.6396,147.9695,4.0
7214,Upper Esk,Tasmania,TAS,-41.4308,147.7256,4.0
7214,Mathinna,Tasmania,TAS,-41.4751,147.89,4.0
7215,Seymour,Tasmania,TAS,-41.7438,148.2762,4.0
7215,Scamander,Tasmania,TAS,-41.456,148.261,4.0
7215,Douglas River,Tasmania,TAS,-41.7856,148.2503,4.0
7215,Douglas-Apsley,Tasmania,TAS,-41.6675,148.2438,3.0
7215,Falmouth,Tasmania,TAS,-41.5058,148.2709,4.0
7215,St Marys,Tasmania,TAS,-41.5834,148.1875,4.0
7215,Coles Bay,Tasmania,TAS,-42.1264,148.2887,4.0
7215,Friendly Beaches,Tasmania,TAS,-41.6675,148.2438,3.0
7215,Bicheno,Tasmania,TAS,-41.8743,148.3024,4.0
7215,Cornwall,Tasmania,TAS,-41.559,148.1453,4.0
7215,Four Mile Creek,Tasmania,TAS,-41.723,148.1894,3.0
7215,Beaumaris,Tasmania,TAS,-41.4159,148.2614,4.0
7215,Chain Of Lagoons,Tasmania,TAS,-41.723,148.1894,3.0
7215,Gray,Tasmania,TAS,-41.6287,148.2284,4.0
7215,Upper Scamander,Tasmania,TAS,-41.6675,148.2438,3.0
7215,Freycinet,Tasmania,TAS,-41.6675,148.2438,3.0
7216,The Gardens,Tasmania,TAS,-41.2651,148.1443,3.0
7216,Pyengana,Tasmania,TAS,-41.2918,148.0127,4.0
7216,Goshen,Tasmania,TAS,-41.2721,148.1054,4.0
7216,Ansons Bay,Tasmania,TAS,-41.2687,148.0987,3.0
7216,St Helens,Tasmania,TAS,-41.3203,148.2389,4.0
7216,Lottah,Tasmania,TAS,-41.2258,148.0324,4.0
7216,Stieglitz,Tasmania,TAS,-41.3217,148.3058,4.0
7216,Goulds Country,Tasmania,TAS,-41.2422,148.056,4.0
7216,Akaroa,Tasmania,TAS,-41.3045,148.3167,3.0
7216,Binalong Bay,Tasmania,TAS,-41.2511,148.3117,4.0
7248,Newnham,Tasmania,TAS,-41.3971,147.1313,4.0
7248,Rocherlea,Tasmania,TAS,-41.3808,147.1574,4.0
7248,Mowbray,Tasmania,TAS,-41.4024,147.1506,4.0
7248,Mayfield,Tasmania,TAS,-41.3876,147.1305,4.0
7248,Invermay,Tasmania,TAS,-41.4204,147.1336,4.0
7249,Youngtown,Tasmania,TAS,-41.4833,147.1707,4.0
7249,Kings Meadows,Tasmania,TAS,-41.4704,147.162,4.0
7249,Glen Dhu,Tasmania,TAS,-41.476,147.1577,3.0
7249,Punchbowl,Tasmania,TAS,-41.4576,147.1647,4.0
7249,South Launceston,Tasmania,TAS,-41.4551,147.1456,4.0
7250,Norwood,Tasmania,TAS,-41.4592,147.1808,4.0
7250,Prospect,Tasmania,TAS,-41.481,147.1041,4.0
7250,Prospect Vale,Tasmania,TAS,-41.481,147.1041,4.0
7250,Waverley,Tasmania,TAS,-41.436,147.1859,4.0
7250,Trevallyn,Tasmania,TAS,-41.4425,147.1048,4.0
7250,East Launceston,Tasmania,TAS,-41.4384,147.151,4.0
7250,Newstead,Tasmania,TAS,-41.4333,147.1667,4.0
7250,Travellers Rest,Tasmania,TAS,-41.4971,147.0929,4.0
7250,Launceston,Tasmania,TAS,-41.4388,147.1347,4.0
7250,Blackstone Heights,Tasmania,TAS,-41.4598,147.0841,4.0
7250,Summerhill,Tasmania,TAS,-41.4675,147.128,4.0
7250,West Launceston,Tasmania,TAS,-41.4509,147.1311,4.0
7250,Riverside,Tasmania,TAS,-41.4211,147.0509,4.0
7250,Ravenswood,Tasmania,TAS,-41.4159,147.1825,4.0
7250,St Leonards,Tasmania,TAS,-41.4625,147.2146,4.0
7252,Swan Bay,Tasmania,TAS,-41.1315,147.01,3.0
7252,Dilston,Tasmania,TAS,-41.3296,147.0652,4.0
7252,Pipers River,Tasmania,TAS,-41.0973,147.0809,4.0
7252,Weymouth,Tasmania,TAS,-41.0145,147.1517,4.0
7252,Mount Direction,Tasmania,TAS,-41.2464,147.0132,4.0
7252,Lefroy,Tasmania,TAS,-41.1,146.9833,4.0
7252,Hillwood,Tasmania,TAS,-41.2442,146.9842,4.0
7252,Beechford,Tasmania,TAS,-41.1315,147.01,3.0
7252,Windermere,Tasmania,TAS,-41.3134,147.0058,4.0
7252,Stony Head,Tasmania,TAS,-41.1659,147.0475,3.0
7252,Lulworth,Tasmania,TAS,-41.0,147.07,4.0
7253,George Town,Tasmania,TAS,-41.1056,146.8261,4.0
7253,Long Reach,Tasmania,TAS,-41.0971,146.8325,3.0
7253,Low Head,Tasmania,TAS,-41.08,146.8075,4.0
7253,Bell Bay,Tasmania,TAS,-41.13,146.87,4.0
7254,Golconda,Tasmania,TAS,-41.167,147.3094,4.0
7254,Lebrina,Tasmania,TAS,-41.179,147.2283,4.0
7254,Tunnel,Tasmania,TAS,-41.1952,147.193,4.0
7254,Pipers Brook,Tasmania,TAS,-41.0831,147.1743,4.0
7254,Bellingham,Tasmania,TAS,-41.0164,147.1688,4.0
7254,Retreat,Tasmania,TAS,-41.1505,147.173,4.0
7254,Wyena,Tasmania,TAS,-41.176,147.2668,4.0
7255,Ranga,Tasmania,TAS,-40.1522,148.0673,4.0
7255,Emita,Tasmania,TAS,-40.0008,147.9165,4.0
7255,Blue Rocks,Tasmania,TAS,-40.0571,147.9555,4.0
7255,Loccota,Tasmania,TAS,-40.2181,148.0423,4.0
7255,Leeka,Tasmania,TAS,-39.9005,147.7989,4.0
7255,Lackrana,Tasmania,TAS,-40.1194,148.0978,3.0
7255,Lughrata,Tasmania,TAS,-39.9741,147.9297,4.0
7255,Strzelecki,Tasmania,TAS,-40.0066,147.9897,3.0
7255,Lady Barron,Tasmania,TAS,-40.21,148.24,4.0
7255,Wingaroo,Tasmania,TAS,-40.0066,147.9897,3.0
7255,Palana,Tasmania,TAS,-39.7667,147.8833,4.0
7255,Whitemark,Tasmania,TAS,-40.1222,148.0164,4.0
7255,Killiecrankie,Tasmania,TAS,-39.8391,147.834,4.0
7255,Memana,Tasmania,TAS,-39.9789,148.0914,4.0
7256,Naracoopa,Tasmania,TAS,-39.9208,144.1194,4.0
7256,Yarra Creek,Tasmania,TAS,-39.8478,143.9795,3.0
7256,Yambacoona,Tasmania,TAS,-39.7042,143.9306,4.0
7256,Currie,Tasmania,TAS,-39.9298,143.8538,4.0
7256,Grassy,Tasmania,TAS,-40.0492,144.0561,4.0
7256,Pearshape,Tasmania,TAS,-39.8478,143.9795,3.0
7256,Pegarah,Tasmania,TAS,-39.9417,143.9958,4.0
7256,Loorana,Tasmania,TAS,-39.8389,143.8958,4.0
7256,Sea Elephant,Tasmania,TAS,-39.8286,144.1111,4.0
7256,Surprise Bay,Tasmania,TAS,-39.8478,143.9795,3.0
7256,Reekara,Tasmania,TAS,-39.7553,143.9175,4.0
7256,Nugara,Tasmania,TAS,-39.8478,143.9795,3.0
7256,Bungaree,Tasmania,TAS,-39.8478,143.9795,3.0
7256,Lymwood,Tasmania,TAS,-39.8478,143.9795,3.0
7256,Wickham,Tasmania,TAS,-39.8478,143.9795,3.0
7256,Egg Lagoon,Tasmania,TAS,-39.6611,143.9764,4.0
7257,Cape Barren Island,Tasmania,TAS,-40.3734,148.027,4.0
7258,Relbia,Tasmania,TAS,-41.5058,147.2021,3.0
7258,White Hills,Tasmania,TAS,-41.5055,147.2543,4.0
7258,Breadalbane,Tasmania,TAS,-41.5268,147.1965,4.0
7259,Patersonia,Tasmania,TAS,-41.3403,147.303,4.0
7259,Myrtle Bank,Tasmania,TAS,-41.2941,147.3584,4.0
7259,Targa,Tasmania,TAS,-41.3138,147.367,4.0
7259,Nunamara,Tasmania,TAS,-41.3896,147.3067,4.0
7259,Tayene,Tasmania,TAS,-41.3457,147.4494,4.0
7260,North Scottsdale,Tasmania,TAS,-41.1215,147.5595,4.0
7260,Blumont,Tasmania,TAS,-41.1681,147.4846,3.0
7260,Nabowla,Tasmania,TAS,-41.1712,147.3662,4.0
7260,Jetsonville,Tasmania,TAS,-41.1167,147.4667,4.0
7260,Scottsdale,Tasmania,TAS,-41.1578,147.5173,4.0
7260,Cuckoo,Tasmania,TAS,-41.1674,147.5017,3.0
7260,South Springfield,Tasmania,TAS,-41.2515,147.5081,4.0
7260,Tonganah,Tasmania,TAS,-41.1862,147.5881,4.0
7260,Springfield,Tasmania,TAS,-41.2,147.4833,4.0
7260,Tulendeena,Tasmania,TAS,-41.1681,147.4846,3.0
7260,Kamona,Tasmania,TAS,-41.1542,147.6768,4.0
7260,Lietinna,Tasmania,TAS,-41.15,147.4667,4.0
7260,Forester,Tasmania,TAS,-41.0848,147.6633,4.0
7260,West Scottsdale,Tasmania,TAS,-41.1674,147.5017,3.0
7260,Lisle,Tasmania,TAS,-41.2307,147.3345,4.0
7261,Branxholm,Tasmania,TAS,-41.1662,147.7431,4.0
7261,Warrentinna,Tasmania,TAS,-41.1004,147.7559,4.0
7262,Waterhouse,Tasmania,TAS,-40.9607,147.6967,3.0
7262,Tomahawk,Tasmania,TAS,-40.867,147.756,4.0
7262,Bridport,Tasmania,TAS,-41.0005,147.3918,4.0
7263,Trenah,Tasmania,TAS,-41.3106,147.69,4.0
7263,Talawa,Tasmania,TAS,-41.2521,147.7302,3.0
7263,Legerwood,Tasmania,TAS,-41.213,147.6994,4.0
7263,Ringarooma,Tasmania,TAS,-41.2418,147.7376,4.0
7263,Alberton,Tasmania,TAS,-41.2679,147.8003,4.0
7264,Gladstone,Tasmania,TAS,-40.9593,148.0094,4.0
7264,South Mount Cameron,Tasmania,TAS,-41.0246,147.9639,4.0
7264,Boobyalla,Tasmania,TAS,-41.0696,147.9241,3.0
7264,Mount William,Tasmania,TAS,-40.9221,148.2129,4.0
7264,Cape Portland,Tasmania,TAS,-41.0754,148.0082,3.0
7264,Telita,Tasmania,TAS,-41.1657,147.7408,4.0
7264,Eddystone,Tasmania,TAS,-41.0696,147.9241,3.0
7264,Moorina,Tasmania,TAS,-41.1275,147.8695,4.0
7264,Pioneer,Tasmania,TAS,-41.0754,148.0082,3.0
7264,Ansons Bay,Tasmania,TAS,-41.0696,147.9241,3.0
7264,Derby,Tasmania,TAS,-41.1489,147.8025,4.0
7264,Musselroe Bay,Tasmania,TAS,-40.8803,148.1374,4.0
7264,Weldborough,Tasmania,TAS,-41.1938,147.9067,4.0
7264,Rushy Lagoon,Tasmania,TAS,-41.0696,147.9241,3.0
7264,Herrick,Tasmania,TAS,-41.1002,147.8826,4.0
7265,Winnaleah,Tasmania,TAS,-41.0975,147.8238,4.0
7265,Banca,Tasmania,TAS,-41.0833,147.8167,3.0
7267,Karoola,Tasmania,TAS,-41.2443,147.1534,4.0
7267,Bangor,Tasmania,TAS,-41.2184,147.1411,4.0
7267,Turners Marsh,Tasmania,TAS,-41.2666,147.1311,4.0
7267,Lalla,Tasmania,TAS,-41.2565,147.1783,4.0
7267,Lower Turners Marsh,Tasmania,TAS,-41.2085,147.1126,4.0
7268,Underwood,Tasmania,TAS,-41.288,147.2136,4.0
7268,Lilydale,Tasmania,TAS,-41.2503,147.2176,4.0
7268,North Lilydale,Tasmania,TAS,-41.2257,147.2404,4.0
7270,Rowella,Tasmania,TAS,-41.2,146.9,4.0
7270,York Town,Tasmania,TAS,-41.1725,146.8325,3.0
7270,Sidmouth,Tasmania,TAS,-41.2085,146.8949,4.0
7270,Kelso,Tasmania,TAS,-41.1049,146.7929,4.0
7270,Greens Beach,Tasmania,TAS,-41.0848,146.7504,4.0
7270,Badger Head,Tasmania,TAS,-41.1725,146.8325,3.0
7270,Kayena,Tasmania,TAS,-41.1889,146.895,4.0
7270,Flowery Gully,Tasmania,TAS,-41.2582,146.8159,4.0
7270,Beauty Point,Tasmania,TAS,-41.1622,146.8215,4.0
7270,Beaconsfield,Tasmania,TAS,-41.2023,146.8172,4.0
7270,Clarence Point,Tasmania,TAS,-41.1293,146.7892,4.0
7275,Blackwall,Tasmania,TAS,-41.3021,146.969,4.0
7275,Swan Point,Tasmania,TAS,-41.2613,146.9644,4.0
7275,Notley Hills,Tasmania,TAS,-41.3485,146.9286,4.0
7275,Lanena,Tasmania,TAS,-41.3021,146.969,4.0
7275,Glengarry,Tasmania,TAS,-41.3488,146.8655,4.0
7275,Robigana,Tasmania,TAS,-41.2618,146.9465,4.0
7275,Loira,Tasmania,TAS,-41.276,146.923,4.0
7275,Winkleigh,Tasmania,TAS,-41.2933,146.8358,4.0
7275,Holwell,Tasmania,TAS,-41.2831,146.7813,4.0
7275,Deviot,Tasmania,TAS,-41.2353,146.9298,4.0
7275,Exeter,Tasmania,TAS,-41.2975,146.9505,4.0
7275,Frankford,Tasmania,TAS,-41.3333,146.7758,4.0
7276,Gravelly Beach,Tasmania,TAS,-41.2863,146.9752,4.0
7277,Grindelwald,Tasmania,TAS,-41.3515,147.0052,4.0
7277,Legana,Tasmania,TAS,-41.3657,147.0458,4.0
7277,Rosevears,Tasmania,TAS,-41.3243,147.0043,4.0
7277,Bridgenorth,Tasmania,TAS,-41.3839,146.9757,4.0
7290,Hadspen,Tasmania,TAS,-41.5006,147.0736,4.0
7291,Carrick,Tasmania,TAS,-41.5324,147.0103,4.0
7292,Quamby Bend,Tasmania,TAS,-41.4667,146.9111,3.0
7292,Selbourne,Tasmania,TAS,-41.4496,146.8896,4.0
7292,Westwood,Tasmania,TAS,-41.4859,146.9817,4.0
7292,Hagley,Tasmania,TAS,-41.526,146.9026,4.0
7292,Rosevale,Tasmania,TAS,-41.4167,146.9333,4.0
7300,Perth,Tasmania,TAS,-41.5723,147.171,4.0
7300,Devon Hills,Tasmania,TAS,-41.5591,147.1951,3.0
7300,Powranna,Tasmania,TAS,-41.687,147.2892,4.0
7301,Blackwood Creek,Tasmania,TAS,-41.7366,146.8979,4.0
7301,Longford,Tasmania,TAS,-41.6051,147.1189,4.0
7301,Bishopsbourne,Tasmania,TAS,-41.617,146.9979,4.0
7301,Liffey,Tasmania,TAS,-41.6842,146.8542,4.0
7301,Toiberry,Tasmania,TAS,-41.6096,147.0412,4.0
7302,Cressy,Tasmania,TAS,-41.6856,147.0779,4.0
7302,Poatina,Tasmania,TAS,-41.7957,146.9608,4.0
7302,Bracknell,Tasmania,TAS,-41.65,146.9384,4.0
7303,Osmaston,Tasmania,TAS,-41.5318,146.8687,3.0
7303,Cluan,Tasmania,TAS,-41.605,146.8726,4.0
7303,Birralee,Tasmania,TAS,-41.4096,146.8172,4.0
7303,Westbury,Tasmania,TAS,-41.5291,146.8391,4.0
7303,Exton,Tasmania,TAS,-41.5209,146.7421,4.0
7303,Oaks,Tasmania,TAS,-41.5898,146.9819,4.0
7303,Whitemore,Tasmania,TAS,-41.5833,146.9333,4.0
7304,Weegena,Tasmania,TAS,-41.4881,146.4819,4.0
7304,Dunorlan,Tasmania,TAS,-41.4834,146.5449,4.0
7304,Western Creek,Tasmania,TAS,-41.6889,146.4032,3.0
7304,Quamby Brook,Tasmania,TAS,-41.6014,146.7271,4.0
7304,Dairy Plains,Tasmania,TAS,-41.6889,146.4032,3.0
7304,Montana,Tasmania,TAS,-41.5955,146.5871,4.0
7304,Reedy Marsh,Tasmania,TAS,-41.4477,146.7128,4.0
7304,Liena,Tasmania,TAS,-41.5515,146.233,4.0
7304,Mersey Forest,Tasmania,TAS,-41.6889,146.4032,3.0
7304,Meander,Tasmania,TAS,-41.653,146.6296,4.0
7304,Moltema,Tasmania,TAS,-41.4598,146.5395,4.0
7304,Mayberry,Tasmania,TAS,-41.5836,146.3013,4.0
7304,Brandum,Tasmania,TAS,-41.5465,146.5541,3.0
7304,Walls Of Jerusalem,Tasmania,TAS,-41.5465,146.5541,3.0
7304,Elizabeth Town,Tasmania,TAS,-41.468,146.5637,4.0
7304,Red Hills,Tasmania,TAS,-41.6889,146.4032,3.0
7304,Jackeys Marsh,Tasmania,TAS,-41.6865,146.6787,4.0
7304,Central Plateau,Tasmania,TAS,-41.5465,146.5541,3.0
7304,Reynolds Neck,Tasmania,TAS,-41.5465,146.5541,3.0
7304,Doctors Point,Tasmania,TAS,-41.5465,146.5541,3.0
7304,Golden Valley,Tasmania,TAS,-41.6308,146.7212,4.0
7304,Needles,Tasmania,TAS,-41.5307,146.5944,4.0
7304,Kimberley,Tasmania,TAS,-41.417,146.4923,4.0
7304,Weetah,Tasmania,TAS,-41.4735,146.6446,4.0
7304,Mole Creek,Tasmania,TAS,-41.5782,146.4042,4.0
7304,Deloraine,Tasmania,TAS,-41.5248,146.657,4.0
7304,Parkham,Tasmania,TAS,-41.4072,146.6129,4.0
7304,Chudleigh,Tasmania,TAS,-41.5759,146.4728,4.0
7304,Caveside,Tasmania,TAS,-41.6164,146.4238,4.0
7304,Breona,Tasmania,TAS,-41.7822,146.7043,4.0
7305,Railton,Tasmania,TAS,-41.3457,146.4236,4.0
7305,Merseylea,Tasmania,TAS,-41.3441,146.4206,3.0
7305,Sunnyside,Tasmania,TAS,-41.4001,146.4364,4.0
7306,Staverton,Tasmania,TAS,-41.4594,146.1829,4.0
7306,Middlesex,Tasmania,TAS,-41.4267,146.1847,3.0
7306,West Kentish,Tasmania,TAS,-41.4113,146.2561,4.0
7306,Paradise,Tasmania,TAS,-41.4516,146.3156,4.0
7306,Claude Road,Tasmania,TAS,-41.451,146.2719,4.0
7306,Nowhere Else,Tasmania,TAS,-41.4267,146.1847,3.0
7306,Sheffield,Tasmania,TAS,-41.3995,146.339,4.0
7306,Stoodley,Tasmania,TAS,-41.4139,146.4033,4.0
7306,Lower Beulah,Tasmania,TAS,-41.4808,146.3917,4.0
7306,Acacia Hills,Tasmania,TAS,-41.4185,146.3153,3.0
7306,Promised Land,Tasmania,TAS,-41.4322,146.2088,4.0
7306,Lorinna,Tasmania,TAS,-41.5577,146.1308,4.0
7306,Cradle Mountain,Tasmania,TAS,-41.6416,145.9432,4.0
7306,Lower Barrington,Tasmania,TAS,-41.3084,146.2872,4.0
7306,Roland,Tasmania,TAS,-41.4236,146.2274,4.0
7306,Barrington,Tasmania,TAS,-41.3456,146.2766,4.0
7306,Cethana,Tasmania,TAS,-41.4918,146.1539,4.0
7306,Mount Roland,Tasmania,TAS,-41.4267,146.1847,3.0
7306,Gowrie Park,Tasmania,TAS,-41.4697,146.2128,4.0
7306,Beulah,Tasmania,TAS,-41.4562,146.3781,4.0
7306,Nook,Tasmania,TAS,-41.328,146.3396,4.0
7307,Sassafras,Tasmania,TAS,-41.2983,146.4915,4.0
7307,Bakers Beach,Tasmania,TAS,-41.2006,146.5087,3.0
7307,Harford,Tasmania,TAS,-41.236,146.5481,4.0
7307,Shearwater,Tasmania,TAS,-41.1567,146.5318,4.0
7307,Latrobe,Tasmania,TAS,-41.2464,146.4246,4.0
7307,Hawley Beach,Tasmania,TAS,-41.142,146.5377,4.0
7307,Moriarty,Tasmania,TAS,-41.2351,146.4566,4.0
7307,Wesley Vale,Tasmania,TAS,-41.2086,146.4555,4.0
7307,Northdown,Tasmania,TAS,-41.1829,146.4924,4.0
7307,Thirlstane,Tasmania,TAS,-41.2037,146.5382,4.0
7307,Port Sorell,Tasmania,TAS,-41.1665,146.5528,4.0
7307,Squeaking Point,Tasmania,TAS,-41.1887,146.5567,4.0
7310,Forthside,Tasmania,TAS,-41.2531,146.2766,3.0
7310,West Devonport,Tasmania,TAS,-41.4311,146.0939,3.0
7310,Spreyton,Tasmania,TAS,-41.2352,146.3511,4.0
7310,Stony Rise,Tasmania,TAS,-41.2531,146.2766,3.0
7310,Devonport,Tasmania,TAS,-41.1769,146.3515,4.0
7310,Ambleside,Tasmania,TAS,-41.2032,146.3722,4.0
7310,Erriba,Tasmania,TAS,-41.4643,146.1053,4.0
7310,Eugenana,Tasmania,TAS,-41.2555,146.3476,4.0
7310,Lower Wilmot,Tasmania,TAS,-41.3507,146.1921,4.0
7310,Lillico,Tasmania,TAS,-41.4311,146.0939,3.0
7310,Quoiba,Tasmania,TAS,-41.2085,146.3356,4.0
7310,Paloona,Tasmania,TAS,-41.2726,146.276,4.0
7310,Don,Tasmania,TAS,-41.175,146.3188,4.0
7310,East Devonport,Tasmania,TAS,-41.2531,146.2766,3.0
7310,Aberdeen,Tasmania,TAS,-41.2636,146.324,4.0
7310,Miandetta,Tasmania,TAS,-41.1955,146.3532,4.0
7310,Kindred,Tasmania,TAS,-41.2525,146.2119,4.0
7310,Tugrah,Tasmania,TAS,-41.2531,146.2766,3.0
7310,Melrose,Tasmania,TAS,-41.2546,146.2858,4.0
7310,Wilmot,Tasmania,TAS,-41.3976,146.1754,4.0
7310,Moina,Tasmania,TAS,-41.4979,146.066,4.0
7310,Tarleton,Tasmania,TAS,-41.2531,146.2766,3.0
7310,Forth,Tasmania,TAS,-41.2032,146.2728,4.0
7310,South Spreyton,Tasmania,TAS,-41.2531,146.2766,3.0
7315,Ulverstone,Tasmania,TAS,-41.1603,146.1824,4.0
7315,West Ulverstone,Tasmania,TAS,-41.2427,146.1546,3.0
7315,Nietta,Tasmania,TAS,-41.3811,146.0634,4.0
7315,Loongana,Tasmania,TAS,-41.2427,146.1546,3.0
7315,South Preston,Tasmania,TAS,-41.3384,146.0474,4.0
7315,Castra,Tasmania,TAS,-41.3444,146.1276,4.0
7315,Gunns Plains,Tasmania,TAS,-41.2887,146.0292,4.0
7315,North Motton,Tasmania,TAS,-41.2193,146.1019,4.0
7315,Upper Castra,Tasmania,TAS,-41.3444,146.1276,4.0
7315,South Nietta,Tasmania,TAS,-41.4183,146.0736,4.0
7315,Abbotsham,Tasmania,TAS,-41.2265,146.1732,4.0
7315,Turners Beach,Tasmania,TAS,-41.1606,146.2319,4.0
7315,Leith,Tasmania,TAS,-41.1576,146.2589,4.0
7315,Spalford,Tasmania,TAS,-41.2564,146.1739,4.0
7315,Preston,Tasmania,TAS,-41.3384,146.0474,4.0
7315,Sprent,Tasmania,TAS,-41.2766,146.1591,4.0
7315,Gawler,Tasmania,TAS,-41.1938,146.1569,4.0
7316,West Pine,Tasmania,TAS,-41.1532,145.9994,4.0
7316,Howth,Tasmania,TAS,-41.0968,146.0123,4.0
7316,Sulphur Creek,Tasmania,TAS,-41.0947,146.0235,4.0
7316,Loyetea,Tasmania,TAS,-41.3064,145.9485,4.0
7316,Camena,Tasmania,TAS,-41.1814,145.9571,4.0
7316,Penguin,Tasmania,TAS,-41.1226,146.0732,4.0
7316,Heybridge,Tasmania,TAS,-41.0806,145.9859,4.0
7316,South Riana,Tasmania,TAS,-41.244,145.9823,4.0
7316,Preservation Bay,Tasmania,TAS,-41.2565,145.9734,3.0
7316,Cuprona,Tasmania,TAS,-41.1398,145.97,4.0
7316,Riana,Tasmania,TAS,-41.2159,145.9974,4.0
7320,Camdale,Tasmania,TAS,-41.0499,145.8516,4.0
7320,Acton,Tasmania,TAS,-42.8793,147.4846,4.0
7320,Burnie,Tasmania,TAS,-41.0558,145.9037,4.0
7320,Downlands,Tasmania,TAS,-41.0827,145.8902,4.0
7320,South Burnie,Tasmania,TAS,-41.0598,145.9085,4.0
7320,Shorewell Park,Tasmania,TAS,-41.0699,145.8769,4.0
7320,Upper Burnie,Tasmania,TAS,-41.2444,145.8987,3.0
7320,Brooklyn,Tasmania,TAS,-41.0722,145.9073,4.0
7320,Cooee,Tasmania,TAS,-41.0496,145.8772,4.0
7320,Park Grove,Tasmania,TAS,-41.0548,145.882,4.0
7320,Wivenhoe,Tasmania,TAS,-41.0745,145.9472,4.0
7320,Havenview,Tasmania,TAS,-41.0839,145.9118,4.0
7320,Hillcrest,Tasmania,TAS,-41.0632,145.8944,4.0
7320,Round Hill,Tasmania,TAS,-41.0827,145.9006,3.0
7320,Emu Heights,Tasmania,TAS,-41.076,145.9204,4.0
7320,Ocean Vista,Tasmania,TAS,-41.0827,145.9006,3.0
7320,Romaine,Tasmania,TAS,-41.0901,145.8941,3.0
7320,Parklands,Tasmania,TAS,-41.0827,145.9006,3.0
7320,Montello,Tasmania,TAS,-41.0576,145.8963,4.0
7321,Stowport,Tasmania,TAS,-41.12,145.938,4.0
7321,Edgcumbe Beach,Tasmania,TAS,-41.1418,145.6144,3.0
7321,Rocky Cape,Tasmania,TAS,-40.9252,145.4786,4.0
7321,East Ridgley,Tasmania,TAS,-41.1418,145.6144,3.0
7321,Ridgley,Tasmania,TAS,-41.1556,145.8351,4.0
7321,Crayfish Creek,Tasmania,TAS,-41.1418,145.6144,3.0
7321,Wiltshire,Tasmania,TAS,-40.8347,145.2771,4.0
7321,Parrawe,Tasmania,TAS,-41.3044,145.5872,4.0
7321,Tullah,Tasmania,TAS,-41.7321,145.6225,4.0
7321,Savage River,Tasmania,TAS,-41.3598,145.4991,3.0
7321,Guildford,Tasmania,TAS,-41.4329,145.6887,4.0
7321,Waratah,Tasmania,TAS,-41.4437,145.5329,4.0
7321,Tewkesbury,Tasmania,TAS,-41.2101,145.7291,4.0
7321,Upper Stowport,Tasmania,TAS,-41.1624,145.8969,4.0
7321,Mooreville,Tasmania,TAS,-41.0985,145.8613,4.0
7321,Port Latta,Tasmania,TAS,-40.8333,145.3333,4.0
7321,Luina,Tasmania,TAS,-41.1418,145.6144,3.0
7321,West Mooreville,Tasmania,TAS,-41.1418,145.6144,3.0
7321,Natone,Tasmania,TAS,-41.1712,145.9217,4.0
7321,Boat Harbour Beach,Tasmania,TAS,-41.3598,145.4991,3.0
7321,Corinna,Tasmania,TAS,-41.656,145.0762,4.0
7321,West Ridgley,Tasmania,TAS,-41.1418,145.6144,3.0
7321,Upper Natone,Tasmania,TAS,-41.2444,145.8987,4.0
7321,Hellyer,Tasmania,TAS,-41.1418,145.6144,3.0
7321,Boat Harbour,Tasmania,TAS,-40.9484,145.6303,4.0
7321,Chasm Creek,Tasmania,TAS,-41.1418,145.6144,3.0
7321,Montumana,Tasmania,TAS,-40.9523,145.5131,4.0
7321,Mawbanna,Tasmania,TAS,-40.9569,145.3758,4.0
7321,Detention,Tasmania,TAS,-40.9028,145.486,4.0
7321,Cowrie Point,Tasmania,TAS,-41.1418,145.6144,3.0
7321,Black River,Tasmania,TAS,-40.8536,145.311,4.0
7321,Sisters Beach,Tasmania,TAS,-40.9197,145.5597,4.0
7321,Hampshire,Tasmania,TAS,-41.2709,145.7821,4.0
7321,East Cam,Tasmania,TAS,-41.0594,145.8514,4.0
7321,Highclere,Tasmania,TAS,-41.2006,145.8059,4.0
7322,Somerset,Tasmania,TAS,-41.0406,145.8305,4.0
7325,Takone,Tasmania,TAS,-41.1737,145.6318,4.0
7325,Sisters Creek,Tasmania,TAS,-40.9617,145.569,4.0
7325,Yolla,Tasmania,TAS,-41.1362,145.7088,4.0
7325,West Takone,Tasmania,TAS,-41.1847,145.5273,4.0
7325,Lapoinya,Tasmania,TAS,-41.0011,145.5753,4.0
7325,Henrietta,Tasmania,TAS,-41.1803,145.6649,4.0
7325,Milabena,Tasmania,TAS,-41.0333,145.5156,4.0
7325,Preolenna,Tasmania,TAS,-41.0868,145.5515,4.0
7325,Mount Hicks,Tasmania,TAS,-41.0949,145.6115,3.0
7325,Wynyard,Tasmania,TAS,-40.9897,145.7262,4.0
7325,Oldina,Tasmania,TAS,-41.0833,145.6833,4.0
7325,Oonah,Tasmania,TAS,-41.2373,145.6219,4.0
7325,Seabrook,Tasmania,TAS,-41.0949,145.6115,3.0
7325,Elliott,Tasmania,TAS,-41.1001,145.7828,4.0
7325,Meunna,Tasmania,TAS,-41.1021,145.4883,4.0
7325,Doctors Rocks,Tasmania,TAS,-41.0949,145.6115,3.0
7325,Moorleah,Tasmania,TAS,-40.9846,145.6213,4.0
7325,Table Cape,Tasmania,TAS,-41.0949,145.6115,3.0
7325,Myalla,Tasmania,TAS,-40.9812,145.576,4.0
7325,Calder,Tasmania,TAS,-41.0693,145.63,4.0
7325,Flowerdale,Tasmania,TAS,-40.9643,145.6578,4.0
7330,Trowutta,Tasmania,TAS,-41.0332,145.0834,4.0
7330,South Forest,Tasmania,TAS,-40.9351,145.0327,3.0
7330,Mengha,Tasmania,TAS,-40.8972,145.2387,4.0
7330,Edith Creek,Tasmania,TAS,-40.9653,145.0981,4.0
7330,Temma,Tasmania,TAS,-41.2285,144.6961,4.0
7330,Lileah,Tasmania,TAS,-40.9631,145.156,4.0
7330,Roger River,Tasmania,TAS,-41.0042,145.0613,4.0
7330,Togari,Tasmania,TAS,-40.9258,144.8635,4.0
7330,Alcomie,Tasmania,TAS,-40.9303,145.1896,4.0
7330,Scopus,Tasmania,TAS,-40.9351,145.0327,3.0
7330,Marrawah,Tasmania,TAS,-40.9128,144.705,4.0
7330,Christmas Hills,Tasmania,TAS,-40.901,145.0165,4.0
7330,Mella,Tasmania,TAS,-40.8393,145.0685,4.0
7330,Irishtown,Tasmania,TAS,-41.0924,144.9667,3.0
7330,Redpa,Tasmania,TAS,-40.9198,144.7692,4.0
7330,Forest,Tasmania,TAS,-40.8582,145.2432,4.0
7330,Smithton,Tasmania,TAS,-40.8459,145.125,4.0
7330,Arthur River,Tasmania,TAS,-41.0924,144.9667,3.0
7330,Brittons Swamp,Tasmania,TAS,-40.9319,144.9694,4.0
7330,Nabageena,Tasmania,TAS,-40.9907,145.1252,4.0
7330,Broadmeadows,Tasmania,TAS,-40.9351,145.0327,3.0
7330,Three Hummock Island,Tasmania,TAS,-41.0924,144.9667,3.0
7330,Scotchtown,Tasmania,TAS,-40.9351,145.0327,3.0
7330,Woolnorth,Tasmania,TAS,-41.0924,144.9667,3.0
7330,West Montagu,Tasmania,TAS,-40.9351,145.0327,3.0
7330,Couta Rocks,Tasmania,TAS,-40.9351,145.0327,3.0
7330,Nelson Bay,Tasmania,TAS,-40.9351,145.0327,3.0
7330,Montagu,Tasmania,TAS,-40.7739,144.9605,4.0
7331,Stanley,Tasmania,TAS,-40.7606,145.2955,4.0
7466,Gormanston,Tasmania,TAS,-42.0749,145.5968,4.0
7467,Lake Margaret,Tasmania,TAS,-42.0805,145.5565,3.0
7467,Queenstown,Tasmania,TAS,-42.0805,145.5565,4.0
7468,Macquarie Heads,Tasmania,TAS,-42.1519,145.3273,3.0
7468,Strahan,Tasmania,TAS,-42.1519,145.3273,4.0
7469,Granville Harbour,Tasmania,TAS,-41.8417,145.3764,3.0
7469,Renison Bell,Tasmania,TAS,-41.7943,145.4337,4.0
7469,Trial Harbour,Tasmania,TAS,-41.8417,145.3764,3.0
7469,Zeehan,Tasmania,TAS,-41.8834,145.3362,4.0
7470,Rosebery,Tasmania,TAS,-41.7794,145.5383,4.0
7800,Hobart,Tasmania,TAS,-42.8794,147.3294,4.0
7802,Hobart,Tasmania,TAS,-42.8794,147.3294,4.0
7803,Hobart,Tasmania,TAS,-42.8794,147.3294,4.0
7804,Hobart,Tasmania,TAS,-42.8794,147.3294,4.0
7805,Hobart,Tasmania,TAS,-42.8794,147.3294,4.0
7806,Hobart,Tasmania,TAS,-42.8794,147.3294,4.0
7807,Hobart,Tasmania,TAS,-42.8794,147.3294,4.0
7808,Hobart,Tasmania,TAS,-42.8794,147.3294,4.0
7809,Hobart,Tasmania,TAS,-42.8794,147.3294,4.0
7810,Hobart,Tasmania,TAS,-42.8794,147.3294,4.0
7811,Hobart,Tasmania,TAS,-42.8794,147.3294,4.0
7812,Hobart,Tasmania,TAS,-42.8794,147.3294,4.0
7813,Hobart,Tasmania,TAS,-42.8794,147.3294,4.0
7814,Hobart,Tasmania,TAS,-42.8794,147.3294,4.0
7823,Hobart,Tasmania,TAS,-42.8794,147.3294,4.0
7824,Hobart,Tasmania,TAS,-42.8794,147.3294,4.0
7827,Hobart,Tasmania,TAS,-42.8794,147.3294,4.0
7828,Hobart,Tasmania,TAS,-42.8794,147.3294,4.0
7829,Hobart,Tasmania,TAS,-42.8794,147.3294,4.0
7845,Hobart,Tasmania,TAS,-42.8794,147.3294,4.0
7850,Hobart,Tasmania,TAS,-42.8794,147.3294,4.0
7901,Launceston,Tasmania,TAS,-41.4388,147.1347,4.0
7902,Launceston,Tasmania,TAS,-41.4388,147.1347,4.0
7903,Launceston,Tasmania,TAS,-41.4388,147.1347,4.0
7904,Launceston,Tasmania,TAS,-41.4388,147.1347,4.0
7905,Launceston,Tasmania,TAS,-41.4388,147.1347,4.0
7906,Launceston,Tasmania,TAS,-41.4388,147.1347,4.0
7907,Launceston,Tasmania,TAS,-41.4388,147.1347,4.0
7908,Launceston,Tasmania,TAS,-41.4388,147.1347,4.0
7915,Burnie,Tasmania,TAS,-41.0558,145.9037,4.0
7916,Launceston,Tasmania,TAS,-41.4388,147.1347,4.0
7917,Launceston,Tasmania,TAS,-41.4388,147.1347,4.0
7918,Launceston,Tasmania,TAS,-41.4388,147.1347,4.0
7919,Launceston,Tasmania,TAS,-41.4388,147.1347,4.0
7920,Launceston,Tasmania,TAS,-41.4388,147.1347,4.0
7921,Launceston,Tasmania,TAS,-41.4388,147.1347,4.0
7922,Launceston,Tasmania,TAS,-41.4388,147.1347,4.0
7923,Launceston,Tasmania,TAS,-41.4388,147.1347,4.0
