postcode,place_name,state_name,state_code,latitude,longitude,accuracy
872,Ngaanyatjarra-Giles,Western Australia,WA,-23.3256,133.0557,3.0
872,Gibson Desert North,Western Australia,WA,-23.3256,133.0557,3.0
872,Tjirrkarli,Western Australia,WA,-23.3256,133.0557,3.0
872,Wannan,Western Australia,WA,-23.3256,133.0557,3.0
872,Gibson Desert South,Western Australia,WA,-23.3256,133.0557,3.0
872,Patjarr,Western Australia,WA,-23.3256,133.0557,3.0
872,Wingellina,Western Australia,WA,-23.3256,133.0557,3.0
872,Kiwirrkurra,Western Australia,WA,-23.3256,133.0557,3.0
872,Tjukurla,Western Australia,WA,-23.3256,133.0557,3.0
6000,Perth,Western Australia,WA,-31.9522,115.8614,4.0
6000,Perth GPO,Western Australia,WA,-31.9522,115.8614,3.0
6000,City Delivery Centre,Western Australia,WA,-31.9522,115.8614,3.0
6001,Perth,Western Australia,WA,-31.9522,115.8614,4.0
6003,Northbridge,Western Australia,WA,-31.9478,115.8588,4.0
6003,Highgate,Western Australia,WA,-31.9397,115.8701,4.0
6004,East Perth,Western Australia,WA,-31.9587,115.8711,4.0
6005,West Perth,Western Australia,WA,-31.949,115.842,4.0
6005,Kings Park,Western Australia,WA,-31.955,115.8359,3.0
6006,North Perth,Western Australia,WA,-31.9272,115.8528,4.0
6007,Leederville,Western Australia,WA,-31.9363,115.8419,4.0
6007,West Leederville,Western Australia,WA,-31.9414,115.8312,4.0
6008,Shenton Park,Western Australia,WA,-31.9583,115.7972,4.0
6008,Daglish,Western Australia,WA,-31.9483,115.819,4.0
6008,Subiaco,Western Australia,WA,-31.9485,115.8268,4.0
6008,Subiaco East,Western Australia,WA,-31.9542,115.7986,3.0
6009,Nedlands,Western Australia,WA,-31.9818,115.8073,4.0
6009,Broadway Nedlands,Western Australia,WA,-31.9853,115.8052,3.0
6009,Dalkeith,Western Australia,WA,-31.9952,115.7998,4.0
6009,Nedlands DC,Western Australia,WA,-31.9875,115.8014,3.0
6009,Crawley,Western Australia,WA,-31.9842,115.816,4.0
6010,Karrakatta,Western Australia,WA,-31.9676,115.798,4.0
6010,Claremont,Western Australia,WA,-31.9796,115.7823,4.0
6010,Mount Claremont,Western Australia,WA,-31.97,115.7775,3.0
6010,Swanbourne,Western Australia,WA,-31.9688,115.7673,4.0
6010,Claremont North,Western Australia,WA,-31.97,115.7775,3.0
6011,Peppermint Grove,Western Australia,WA,-31.9988,115.7682,4.0
6011,Cottesloe,Western Australia,WA,-32.0,115.7667,4.0
6012,Mosman Park,Western Australia,WA,-32.0054,115.7638,4.0
6014,Wembley,Western Australia,WA,-31.9333,115.8,4.0
6014,Floreat,Western Australia,WA,-31.9386,115.7921,4.0
6014,Jolimont,Western Australia,WA,-31.9456,115.8095,4.0
6015,City Beach,Western Australia,WA,-31.9344,115.7617,4.0
6016,Mount Hawthorn,Western Australia,WA,-31.92,115.8351,4.0
6016,Glendalough,Western Australia,WA,-31.9199,115.8194,4.0
6017,Herdsman,Western Australia,WA,-31.9106,115.8055,4.0
6017,Osborne Park DC,Western Australia,WA,-31.9007,115.8108,3.0
6017,Osborne Park,Western Australia,WA,-31.9007,115.8108,4.0
6018,Churchlands,Western Australia,WA,-31.9214,115.7932,4.0
6018,Woodlands,Western Australia,WA,-31.8873,115.7865,3.0
6018,Gwelup,Western Australia,WA,-31.8716,115.7948,4.0
6018,Innaloo,Western Australia,WA,-31.8927,115.7951,4.0
6018,Doubleview,Western Australia,WA,-31.8963,115.7816,4.0
6018,Gwelup DC,Western Australia,WA,-31.8909,115.7883,3.0
6018,Karrinyup,Western Australia,WA,-31.8723,115.7768,4.0
6019,Wembley Downs,Western Australia,WA,-31.9117,115.7736,4.0
6019,Scarborough,Western Australia,WA,-31.8958,115.7643,4.0
6020,North Beach,Western Australia,WA,-31.863,115.7562,4.0
6020,Marmion,Western Australia,WA,-31.8416,115.7569,4.0
6020,Watermans Bay,Western Australia,WA,-31.8492,115.7559,4.0
6020,Sorrento,Western Australia,WA,-31.8253,115.7525,4.0
6020,Carine,Western Australia,WA,-31.8523,115.7826,4.0
6021,Stirling,Western Australia,WA,-31.8834,115.8099,4.0
6021,Balcatta,Western Australia,WA,-31.875,115.8284,4.0
6022,Hamersley,Western Australia,WA,-31.849,115.8076,4.0
6023,Duncraig,Western Australia,WA,-31.8329,115.7759,4.0
6024,Warwick,Western Australia,WA,-31.8397,115.8086,4.0
6024,Greenwood,Western Australia,WA,-31.8272,115.8025,4.0
6025,Hillarys,Western Australia,WA,-31.807,115.7405,4.0
6025,Craigie,Western Australia,WA,-31.7873,115.7699,4.0
6025,Kallaroo,Western Australia,WA,-31.791,115.753,4.0
6025,Padbury,Western Australia,WA,-31.8064,115.7688,4.0
6026,Kingsley,Western Australia,WA,-31.8104,115.8008,4.0
6026,Woodvale,Western Australia,WA,-31.7893,115.7968,4.0
6027,Ocean Reef,Western Australia,WA,-31.7587,115.736,4.0
6027,Beldon,Western Australia,WA,-31.7747,115.7627,4.0
6027,Joondalup DC,Western Australia,WA,-31.7619,115.7565,3.0
6027,Connolly,Western Australia,WA,-31.7486,115.7505,4.0
6027,Heathridge,Western Australia,WA,-31.7624,115.7589,4.0
6027,Edgewater,Western Australia,WA,-31.7655,115.7822,4.0
6027,Mullaloo,Western Australia,WA,-31.779,115.7368,4.0
6027,Joondalup,Western Australia,WA,-31.7444,115.7683,4.0
6028,Iluka,Western Australia,WA,-31.7355,115.7306,4.0
6028,Currambine,Western Australia,WA,-31.7331,115.7477,4.0
6028,Kinross,Western Australia,WA,-31.7187,115.7384,4.0
6028,Burns Beach,Western Australia,WA,-31.7206,115.7205,4.0
6029,Trigg,Western Australia,WA,-31.8694,115.7571,4.0
6030,Merriwa,Western Australia,WA,-31.6649,115.7127,4.0
6030,Tamala Park,Western Australia,WA,-31.7061,115.7201,4.0
6030,Clarkson,Western Australia,WA,-31.6828,115.7247,4.0
6030,Quinns Rocks,Western Australia,WA,-31.6738,115.7037,4.0
6030,Ridgewood,Western Australia,WA,-31.6615,115.7226,4.0
6030,Mindarie,Western Australia,WA,-31.6893,115.707,4.0
6031,Neerabup,Western Australia,WA,-31.6734,115.7517,4.0
6031,Banksia Grove,Western Australia,WA,-31.6962,115.805,4.0
6031,Carramar,Western Australia,WA,-31.6902,115.7716,4.0
6032,Nowergup,Western Australia,WA,-31.6371,115.7625,4.0
6033,Carabooda,Western Australia,WA,-31.6058,115.7144,4.0
6034,Eglinton,Western Australia,WA,-31.5868,115.6888,4.0
6035,Yanchep,Western Australia,WA,-31.5468,115.6317,4.0
6036,Butler,Western Australia,WA,-31.643,115.7043,4.0
6036,Jindalee,Western Australia,WA,-31.6494,115.695,4.0
6037,Two Rocks,Western Australia,WA,-31.4998,115.5874,4.0
6038,Alkimos,Western Australia,WA,-31.6304,115.6864,4.0
6041,Wilbinga,Western Australia,WA,-31.3591,115.5608,3.0
6041,Gabbadah,Western Australia,WA,-31.292,115.5059,4.0
6041,Caraban,Western Australia,WA,-31.3591,115.5608,3.0
6041,Woodridge,Western Australia,WA,-31.3338,115.5959,4.0
6041,Guilderton,Western Australia,WA,-31.3451,115.499,4.0
6042,Seabird,Western Australia,WA,-31.2772,115.4439,4.0
6043,Ledge Point,Western Australia,WA,-31.1002,115.3909,4.0
6043,Breton Bay,Western Australia,WA,-31.1025,115.3766,3.0
6044,Lancelin,Western Australia,WA,-31.0225,115.3365,4.0
6044,Wedge Island,Western Australia,WA,-30.8531,115.3072,3.0
6044,Karakin,Western Australia,WA,-30.9704,115.3976,3.0
6044,Nilgen,Western Australia,WA,-30.9704,115.3976,3.0
6050,Menora,Western Australia,WA,-31.9189,115.8621,4.0
6050,Coolbinia,Western Australia,WA,-31.9147,115.8489,4.0
6050,Mount Lawley,Western Australia,WA,-31.9344,115.8716,4.0
6051,Maylands,Western Australia,WA,-31.931,115.8949,4.0
6052,Inglewood,Western Australia,WA,-31.9166,115.8798,4.0
6052,Bedford,Western Australia,WA,-31.9113,115.8892,4.0
6053,Bayswater,Western Australia,WA,-31.9169,115.9178,4.0
6054,Ashfield,Western Australia,WA,-31.9172,115.938,4.0
6054,Bassendean,Western Australia,WA,-31.9091,115.9437,4.0
6054,Eden Hill,Western Australia,WA,-31.8891,115.9467,4.0
6054,Lockridge,Western Australia,WA,-31.8817,115.9503,4.0
6054,Kiara,Western Australia,WA,-31.8816,115.9389,4.0
6055,Hazelmere,Western Australia,WA,-31.9174,116.0118,4.0
6055,Henley Brook,Western Australia,WA,-31.8139,115.9881,4.0
6055,West Swan,Western Australia,WA,-31.8476,115.9799,3.0
6055,Brabham,Western Australia,WA,-31.8273,115.9742,4.0
6055,Caversham,Western Australia,WA,-31.8833,115.9667,4.0
6055,South Guildford,Western Australia,WA,-31.9122,115.9682,4.0
6055,Guildford,Western Australia,WA,-31.9,115.9667,4.0
6055,Dayton,Western Australia,WA,-31.8525,115.9749,4.0
6056,Koongamia,Western Australia,WA,-31.9066,116.0422,4.0
6056,Viveash,Western Australia,WA,-31.8777,115.9975,4.0
6056,Jane Brook,Western Australia,WA,-31.8637,116.0504,4.0
6056,Midvale,Western Australia,WA,-31.8888,116.0329,4.0
6056,Boya,Western Australia,WA,-31.9333,116.05,4.0
6056,Woodbridge,Western Australia,WA,-31.8869,115.992,4.0
6056,Greenmount,Western Australia,WA,-31.9007,116.0495,4.0
6056,Red Hill,Western Australia,WA,-31.849,116.0584,4.0
6056,Helena Valley,Western Australia,WA,-31.9194,116.0398,4.0
6056,Midland,Western Australia,WA,-31.9,116.0,4.0
6056,Baskerville,Western Australia,WA,-31.7978,116.0436,4.0
6056,Bellevue,Western Australia,WA,-31.9,116.0167,4.0
6056,Middle Swan,Western Australia,WA,-31.85,116.0167,4.0
6056,Millendon,Western Australia,WA,-31.8167,116.0333,4.0
6056,Stratton,Western Australia,WA,-31.8683,116.0407,4.0
6056,Swan View,Western Australia,WA,-31.8833,116.05,4.0
6056,Herne Hill,Western Australia,WA,-31.8255,116.0227,4.0
6057,High Wycombe,Western Australia,WA,-31.9444,116.0034,4.0
6057,Maida Vale,Western Australia,WA,-31.9519,116.0276,4.0
6058,Forrestfield,Western Australia,WA,-31.9828,116.0067,4.0
6059,Dianella,Western Australia,WA,-31.8882,115.8719,4.0
6060,Joondanna,Western Australia,WA,-31.9077,115.8423,4.0
6060,Dog Swamp,Western Australia,WA,-31.902,115.8455,3.0
6060,Tuart Hill,Western Australia,WA,-31.8981,115.8349,4.0
6060,Yokine South,Western Australia,WA,-31.8996,115.8441,3.0
6060,Yokine,Western Australia,WA,-31.9011,115.8532,4.0
6061,Westminster,Western Australia,WA,-31.8674,115.8392,4.0
6061,Balga,Western Australia,WA,-31.855,115.8399,4.0
6061,Mirrabooka,Western Australia,WA,-31.8596,115.8659,4.0
6061,Nollamara,Western Australia,WA,-31.8802,115.8454,4.0
6062,Embleton,Western Australia,WA,-31.9035,115.909,4.0
6062,Morley,Western Australia,WA,-31.8877,115.9099,4.0
6062,Noranda,Western Australia,WA,-31.8733,115.899,4.0
6063,Beechboro,Western Australia,WA,-31.8651,115.9366,4.0
6063,Bennett Springs,Western Australia,WA,-31.8651,115.9366,3.0
6064,Girrawheen,Western Australia,WA,-31.841,115.8398,4.0
6064,Alexander Heights,Western Australia,WA,-31.8276,115.865,4.0
6064,Marangaroo,Western Australia,WA,-31.8271,115.8384,4.0
6064,Koondoola,Western Australia,WA,-31.8415,115.8665,4.0
6065,Madeley,Western Australia,WA,-31.8111,115.8281,4.0
6065,Gnangara,Western Australia,WA,-31.7761,115.8662,4.0
6065,Sinagra,Western Australia,WA,-31.7426,115.8063,4.0
6065,Hocking,Western Australia,WA,-31.7701,115.8183,4.0
6065,Darch,Western Australia,WA,-31.8125,115.8458,4.0
6065,Wangara DC,Western Australia,WA,-31.7671,115.8255,3.0
6065,Pearsall,Western Australia,WA,-31.7812,115.8182,4.0
6065,Tapping,Western Australia,WA,-31.7195,115.7956,4.0
6065,Wanneroo,Western Australia,WA,-31.75,115.8,4.0
6065,Kingsway,Western Australia,WA,-31.6923,115.8437,3.0
6065,Wangara,Western Australia,WA,-31.7914,115.8203,4.0
6065,Landsdale,Western Australia,WA,-31.8075,115.866,4.0
6065,Lexia,Western Australia,WA,-31.7934,115.9215,4.0
6065,Mariginiup,Western Australia,WA,-31.7111,115.8432,4.0
6065,Ashby,Western Australia,WA,-31.7325,115.7977,4.0
6065,Jandabup,Western Australia,WA,-31.755,115.8607,4.0
6065,Pinjar,Western Australia,WA,-31.6936,115.8431,4.0
6065,Melaleuca,Western Australia,WA,-31.7745,115.9176,4.0
6066,Ballajura,Western Australia,WA,-31.8406,115.8955,4.0
6067,Cullacabardee,Western Australia,WA,-31.8194,115.9055,4.0
6068,Whiteman,Western Australia,WA,-31.8245,115.9416,4.0
6069,Aveley,Western Australia,WA,-31.7813,115.9896,4.0
6069,Upper Swan,Western Australia,WA,-31.7695,116.0273,4.0
6069,The Vines,Western Australia,WA,-31.7549,116.0024,4.0
6069,Ellenbrook East,Western Australia,WA,-31.7673,116.0259,3.0
6069,Belhus,Western Australia,WA,-31.7816,116.0095,4.0
6069,Ellenbrook,Western Australia,WA,-31.7674,115.9694,4.0
6069,Brigadoon,Western Australia,WA,-31.7726,116.0727,4.0
6070,Darlington,Western Australia,WA,-31.9191,116.0812,4.0
6071,Hovea,Western Australia,WA,-31.8833,116.1,4.0
6071,Glen Forrest,Western Australia,WA,-31.9193,116.1073,4.0
6072,Mahogany Creek,Western Australia,WA,-31.9095,116.1043,4.0
6073,Mundaring DC,Western Australia,WA,-31.9021,116.1676,3.0
6073,Mundaring,Western Australia,WA,-31.9021,116.1676,4.0
6074,Sawyers Valley,Western Australia,WA,-31.9023,116.2007,4.0
6076,Bickley,Western Australia,WA,-32.0,116.0833,4.0
6076,Paulls Valley,Western Australia,WA,-31.9692,116.1094,4.0
6076,Reservoir,Western Australia,WA,-31.9647,116.166,4.0
6076,Carmel,Western Australia,WA,-32.0167,116.1,4.0
6076,Lesmurdie,Western Australia,WA,-32.002,116.0482,4.0
6076,Hacketts Gully,Western Australia,WA,-31.9774,116.0928,4.0
6076,Kalamunda,Western Australia,WA,-31.9868,116.0704,3.0
6076,Piesse Brook,Western Australia,WA,-31.972,116.0779,4.0
6076,Gooseberry Hill,Western Australia,WA,-31.9544,116.0492,4.0
6076,Pickering Brook,Western Australia,WA,-32.0333,116.1,4.0
6076,Walliston,Western Australia,WA,-31.9968,116.0743,4.0
6077,Gnangara,Western Australia,WA,-31.7761,115.8662,4.0
6077,Jandabup,Western Australia,WA,-31.755,115.8607,4.0
6078,Pinjar,Western Australia,WA,-31.6936,115.8431,4.0
6078,Mariginiup,Western Australia,WA,-31.7111,115.8432,4.0
6079,Melaleuca,Western Australia,WA,-31.7745,115.9176,4.0
6079,Lexia,Western Australia,WA,-31.7934,115.9215,4.0
6081,Stoneville,Western Australia,WA,-31.8783,116.1707,4.0
6081,Parkerville,Western Australia,WA,-31.8747,116.138,4.0
6082,Mount Helena,Western Australia,WA,-31.8761,116.2103,4.0
6082,Bailup,Western Australia,WA,-31.7392,116.3102,4.0
6083,Morangup,Western Australia,WA,-31.599,116.3541,3.0
6083,Gidgegannup,Western Australia,WA,-31.7544,116.1875,4.0
6084,Chittering,Western Australia,WA,-31.4677,116.0801,4.0
6084,Lower Chittering,Western Australia,WA,-31.5833,116.1167,4.0
6084,Bullsbrook,Western Australia,WA,-31.669,115.9999,4.0
6084,Walyunga National Park,Western Australia,WA,-31.5924,116.1014,3.0
6084,Avon Valley National Park,Western Australia,WA,-31.6361,116.1887,4.0
6090,Malaga,Western Australia,WA,-31.8526,115.881,4.0
6100,Burswood,Western Australia,WA,-31.9587,115.904,4.0
6100,Lathlain,Western Australia,WA,-31.9676,115.9063,4.0
6100,Victoria Park,Western Australia,WA,-31.9762,115.9052,4.0
6101,Carlisle South,Western Australia,WA,-31.9842,115.911,3.0
6101,Carlisle,Western Australia,WA,-31.9795,115.9181,4.0
6101,East Victoria Park,Western Australia,WA,-31.9889,115.9039,4.0
6101,Carlisle North,Western Australia,WA,-31.9842,115.911,3.0
6102,Bentley,Western Australia,WA,-32.0,115.9167,4.0
6102,St James,Western Australia,WA,-32.0,115.9098,4.0
6102,Bentley DC,Western Australia,WA,-32.0,115.9132,3.0
6102,Bentley South,Western Australia,WA,-32.0,115.9132,3.0
6103,Rivervale,Western Australia,WA,-31.9555,115.9131,4.0
6104,Redcliffe,Western Australia,WA,-31.9384,115.9464,4.0
6104,Belmont,Western Australia,WA,-31.9435,115.9255,4.0
6104,Ascot,Western Australia,WA,-31.9382,115.9226,4.0
6105,Perth Airport,Western Australia,WA,-31.9321,115.9564,4.0
6105,Kewdale,Western Australia,WA,-31.9789,115.9516,4.0
6105,Cloverdale,Western Australia,WA,-31.9628,115.9443,4.0
6106,Welshpool,Western Australia,WA,-31.9944,115.9222,4.0
6107,Wattle Grove,Western Australia,WA,-32.0067,116.0005,4.0
6107,Queens Park,Western Australia,WA,-32.0031,115.9462,4.0
6107,Kenwick,Western Australia,WA,-32.0333,115.9667,4.0
6107,Beckenham,Western Australia,WA,-32.0248,115.9599,4.0
6107,East Cannington,Western Australia,WA,-32.0098,115.955,4.0
6107,Wilson,Western Australia,WA,-32.0206,115.9118,4.0
6107,Cannington,Western Australia,WA,-32.0167,115.95,4.0
6108,Thornlie,Western Australia,WA,-32.06,115.955,4.0
6109,Maddington,Western Australia,WA,-32.05,115.9833,4.0
6109,Orange Grove,Western Australia,WA,-32.0293,116.0057,4.0
6110,Gosnells,Western Australia,WA,-32.081,116.0054,4.0
6110,Huntingdale,Western Australia,WA,-32.0832,115.9661,4.0
6110,Southern River,Western Australia,WA,-32.1066,115.959,4.0
6110,Martin,Western Australia,WA,-32.0755,116.0454,4.0
6111,Champion Lakes,Western Australia,WA,-32.1191,115.9862,4.0
6111,Ashendon,Western Australia,WA,-32.1831,116.1341,4.0
6111,Kelmscott,Western Australia,WA,-32.1243,116.0259,4.0
6111,Camillo,Western Australia,WA,-32.1129,116.0021,4.0
6111,Roleystone,Western Australia,WA,-32.1146,116.0706,4.0
6111,Karragullen,Western Australia,WA,-32.1,116.1333,4.0
6111,Canning Mills,Western Australia,WA,-32.0804,116.1047,4.0
6111,Lesley,Western Australia,WA,-32.185,116.2075,4.0
6111,Kelmscott DC,Western Australia,WA,-32.1286,116.0542,3.0
6111,Westfield,Western Australia,WA,-32.15,115.9667,4.0
6112,Mount Nasura,Western Australia,WA,-32.1378,116.0247,4.0
6112,Piara Waters,Western Australia,WA,-32.1334,115.9163,4.0
6112,Wungong,Western Australia,WA,-32.1802,116.0095,4.0
6112,Forrestdale,Western Australia,WA,-32.1552,115.9342,4.0
6112,Hilbert,Western Australia,WA,-32.1782,115.9849,4.0
6112,Harrisdale,Western Australia,WA,-32.1108,115.9356,4.0
6112,Mount Richon,Western Australia,WA,-32.1735,116.0214,4.0
6112,Brookdale,Western Australia,WA,-32.167,116.0019,4.0
6112,Haynes,Western Australia,WA,-32.162,115.9815,4.0
6112,Bedfordale,Western Australia,WA,-32.1741,116.0504,4.0
6112,Armadale,Western Australia,WA,-32.1461,116.0093,4.0
6112,Seville Grove,Western Australia,WA,-32.1364,115.989,4.0
6121,Oldbury,Western Australia,WA,-32.2657,115.9183,4.0
6121,Oakford,Western Australia,WA,-32.2009,115.9339,4.0
6122,Byford,Western Australia,WA,-32.221,116.009,4.0
6122,Karrakup,Western Australia,WA,-32.2233,116.035,4.0
6122,Cardup,Western Australia,WA,-32.25,116.0,4.0
6122,Darling Downs,Western Australia,WA,-32.1944,115.9919,4.0
6123,Whitby,Western Australia,WA,-32.292,116.0124,4.0
6123,Mundijong,Western Australia,WA,-32.2922,115.9856,4.0
6124,Jarrahdale,Western Australia,WA,-32.3358,116.0595,4.0
6125,Serpentine,Western Australia,WA,-32.3605,115.9772,4.0
6125,Hopeland,Western Australia,WA,-32.3816,115.8873,4.0
6125,Mardella,Western Australia,WA,-32.3333,115.9833,4.0
6126,Keysbrook,Western Australia,WA,-32.4333,115.9667,4.0
6147,Lynwood,Western Australia,WA,-32.0401,115.9289,4.0
6147,Langford,Western Australia,WA,-32.0409,115.9416,4.0
6147,Parkwood,Western Australia,WA,-32.0491,115.9184,4.0
6148,Shelley,Western Australia,WA,-32.0296,115.8866,4.0
6148,Rossmoyne,Western Australia,WA,-32.0397,115.8678,4.0
6148,Ferndale,Western Australia,WA,-32.0349,115.9223,4.0
6148,Riverton,Western Australia,WA,-32.0347,115.8986,4.0
6149,Bull Creek,Western Australia,WA,-32.0563,115.8624,4.0
6149,Leeming,Western Australia,WA,-32.0751,115.8661,4.0
6150,Murdoch,Western Australia,WA,-32.0699,115.8376,4.0
6150,Bateman,Western Australia,WA,-32.0555,115.8474,4.0
6150,Winthrop,Western Australia,WA,-32.0522,115.8297,4.0
6151,South Perth Angelo St,Western Australia,WA,-31.9833,115.8667,3.0
6151,South Perth,Western Australia,WA,-31.9833,115.8667,4.0
6151,Kensington,Western Australia,WA,-31.981,115.8696,3.0
6152,Waterford,Western Australia,WA,-32.0157,115.8866,4.0
6152,Como,Western Australia,WA,-31.9912,115.8634,4.0
6152,Karawara,Western Australia,WA,-32.0086,115.8811,4.0
6152,Manning,Western Australia,WA,-32.0159,115.8671,4.0
6152,Salter Point,Western Australia,WA,-32.0238,115.8658,4.0
6153,Mount Pleasant,Western Australia,WA,-32.0279,115.8489,4.0
6153,Ardross,Western Australia,WA,-32.027,115.8355,4.0
6153,Applecross North,Western Australia,WA,-32.0323,115.8367,3.0
6153,Brentwood,Western Australia,WA,-32.0435,115.8525,4.0
6153,Canning Bridge Applecross,Western Australia,WA,-32.0323,115.8367,3.0
6153,Applecross,Western Australia,WA,-32.0167,115.8333,4.0
6154,Myaree,Western Australia,WA,-32.04,115.8176,4.0
6154,Booragoon,Western Australia,WA,-32.0395,115.8337,4.0
6154,Alfred Cove,Western Australia,WA,-32.0332,115.8126,4.0
6155,Canning Vale East,Western Australia,WA,-32.0552,115.903,3.0
6155,Willetton,Western Australia,WA,-32.0525,115.8878,4.0
6155,Canning Vale DC,Western Australia,WA,-32.0552,115.903,3.0
6155,Canning Vale,Western Australia,WA,-32.058,115.9181,4.0
6155,Canning Vale South,Western Australia,WA,-32.074,115.9095,3.0
6156,Melville,Western Australia,WA,-32.0404,115.8012,4.0
6156,Willagee Central,Western Australia,WA,-32.0373,115.8033,3.0
6156,Attadale,Western Australia,WA,-32.0249,115.802,4.0
6156,Willagee,Western Australia,WA,-32.052,115.8053,4.0
6157,Palmyra,Western Australia,WA,-32.045,115.7859,4.0
6157,Palmyra DC,Western Australia,WA,-32.0364,115.7846,3.0
6157,Bicton,Western Australia,WA,-32.0278,115.7833,4.0
6158,East Fremantle,Western Australia,WA,-32.0382,115.7676,4.0
6159,North Fremantle,Western Australia,WA,-32.0333,115.75,4.0
6160,Fremantle,Western Australia,WA,-32.05,115.7667,4.0
6161,Rottnest Island,Western Australia,WA,-31.9952,115.5404,4.0
6162,White Gum Valley,Western Australia,WA,-32.0603,115.7706,4.0
6162,South Fremantle,Western Australia,WA,-32.0691,115.7545,4.0
6162,Beaconsfield,Western Australia,WA,-32.0675,115.764,4.0
6163,Bibra Lake,Western Australia,WA,-32.0976,115.8192,4.0
6163,Hamilton Hill,Western Australia,WA,-32.0845,115.7795,4.0
6163,Spearwood,Western Australia,WA,-32.1053,115.778,4.0
6163,North Lake,Western Australia,WA,-32.0819,115.8357,4.0
6163,O'Connor,Western Australia,WA,-32.0581,115.7973,4.0
6163,Hilton,Western Australia,WA,-32.0621,115.7805,4.0
6163,Kardinya,Western Australia,WA,-32.0656,115.8148,4.0
6163,Bibra Lake DC,Western Australia,WA,-32.0799,115.8042,3.0
6163,Samson,Western Australia,WA,-32.07,115.7977,4.0
6163,Coolbellup,Western Australia,WA,-32.0812,115.8061,4.0
6163,North Coogee,Western Australia,WA,-32.0799,115.8042,3.0
6164,Atwell,Western Australia,WA,-32.1435,115.8653,4.0
6164,Banjup,Western Australia,WA,-32.1418,115.8867,4.0
6164,Success,Western Australia,WA,-32.1428,115.85,4.0
6164,Beeliar,Western Australia,WA,-32.1334,115.8064,4.0
6164,Hammond Park,Western Australia,WA,-32.1685,115.8504,4.0
6164,Yangebup,Western Australia,WA,-32.1206,115.8162,4.0
6164,Aubin Grove,Western Australia,WA,-32.1671,115.8626,4.0
6164,South Lake,Western Australia,WA,-32.1112,115.8387,4.0
6164,Jandakot,Western Australia,WA,-32.1016,115.8708,4.0
6164,Cockburn Central,Western Australia,WA,-32.1213,115.8478,4.0
6165,Hope Valley,Western Australia,WA,-32.2045,115.81,4.0
6165,Naval Base,Western Australia,WA,-32.191,115.7777,4.0
6166,Wattleup,Western Australia,WA,-32.1696,115.824,4.0
6166,Munster,Western Australia,WA,-32.1365,115.783,4.0
6166,Coogee,Western Australia,WA,-32.1193,115.7665,4.0
6166,Henderson,Western Australia,WA,-32.1764,115.7746,4.0
6167,Wandi,Western Australia,WA,-32.1943,115.8763,4.0
6167,Parmelia,Western Australia,WA,-32.2578,115.8221,4.0
6167,Casuarina,Western Australia,WA,-32.2414,115.8698,4.0
6167,Medina,Western Australia,WA,-32.2333,115.7833,4.0
6167,Anketell,Western Australia,WA,-32.2186,115.8656,4.0
6167,Kwinana Beach,Western Australia,WA,-32.2484,115.7619,4.0
6167,Bertram,Western Australia,WA,-32.2437,115.8457,4.0
6167,Postans,Western Australia,WA,-32.2247,115.8158,4.0
6167,Calista,Western Australia,WA,-32.241,115.7976,4.0
6167,Kwinana Town Centre,Western Australia,WA,-32.2444,115.8161,4.0
6167,Mandogalup,Western Australia,WA,-32.1929,115.8435,4.0
6167,The Spectacles,Western Australia,WA,-32.2202,115.8387,4.0
6167,Orelia,Western Australia,WA,-32.2333,115.8223,4.0
6168,Hillman,Western Australia,WA,-32.2833,115.7636,4.0
6168,Rockingham,Western Australia,WA,-32.2768,115.7298,4.0
6168,Peron,Western Australia,WA,-32.2766,115.7005,4.0
6168,Garden Island,Western Australia,WA,-32.2426,115.695,4.0
6168,Rockingham DC,Western Australia,WA,-32.2879,115.7429,3.0
6168,Cooloongup,Western Australia,WA,-32.3151,115.7777,4.0
6168,Rockingham Beach,Western Australia,WA,-32.2879,115.7429,3.0
6168,East Rockingham,Western Australia,WA,-32.2623,115.7489,4.0
6169,Safety Bay,Western Australia,WA,-32.3046,115.7421,4.0
6169,Shoalwater,Western Australia,WA,-32.2909,115.711,4.0
6169,Waikiki,Western Australia,WA,-32.3161,115.7546,4.0
6169,Warnbro,Western Australia,WA,-32.3402,115.7473,4.0
6170,Leda,Western Australia,WA,-32.2677,115.7993,4.0
6170,Wellard,Western Australia,WA,-32.2667,115.8333,4.0
6171,Baldivis,Western Australia,WA,-32.3289,115.8305,4.0
6172,Port Kennedy,Western Australia,WA,-32.3734,115.7515,4.0
6173,Secret Harbour,Western Australia,WA,-32.4059,115.7585,4.0
6174,Golden Bay,Western Australia,WA,-32.425,115.761,4.0
6175,Singleton,Western Australia,WA,-32.444,115.7572,4.0
6176,Karnup,Western Australia,WA,-32.3667,115.8167,4.0
6180,Parklands,Western Australia,WA,-32.4956,115.773,4.0
6180,Lakelands,Western Australia,WA,-32.4775,115.7557,4.0
6181,Stake Hill,Western Australia,WA,-32.4778,115.7942,4.0
6182,Keralup,Western Australia,WA,-32.4299,115.8314,4.0
6207,Solus,Western Australia,WA,-32.5627,116.1411,3.0
6207,Nambeelup,Western Australia,WA,-32.5318,115.8317,4.0
6207,Whittaker,Western Australia,WA,-32.5627,116.1411,3.0
6207,North Dandalup,Western Australia,WA,-32.5168,115.9719,4.0
6207,Myara,Western Australia,WA,-32.5627,116.1411,3.0
6208,Ravenswood,Western Australia,WA,-32.5824,115.8315,4.0
6208,Pinjarra,Western Australia,WA,-32.6298,115.8735,4.0
6208,Meelon,Western Australia,WA,-32.7,115.9333,4.0
6208,West Pinjarra,Western Australia,WA,-32.6428,115.8124,3.0
6208,North Yunderup,Western Australia,WA,-32.578,115.7943,4.0
6208,Point Grey,Western Australia,WA,-32.6606,115.9613,3.0
6208,South Yunderup,Western Australia,WA,-32.5851,115.7802,4.0
6208,Blythewood,Western Australia,WA,-32.6606,115.9613,3.0
6208,Fairbridge,Western Australia,WA,-32.6606,115.9613,3.0
6208,Nirimba,Western Australia,WA,-32.6606,115.9613,3.0
6208,Oakley,Western Australia,WA,-32.6606,115.9613,3.0
6209,Furnissdale,Western Australia,WA,-32.5585,115.7604,4.0
6209,Barragup,Western Australia,WA,-32.5498,115.7796,4.0
6210,Mandurah,Western Australia,WA,-32.5269,115.7217,4.0
6210,Parklands,Western Australia,WA,-32.4956,115.773,4.0
6210,Bouvard,Western Australia,WA,-32.7189,115.6389,4.0
6210,Greenfields,Western Australia,WA,-32.5243,115.7631,4.0
6210,Wannanup,Western Australia,WA,-32.5995,115.6449,4.0
6210,Mandurah DC,Western Australia,WA,-32.5582,115.719,3.0
6210,Dudley Park,Western Australia,WA,-32.5522,115.731,4.0
6210,Clifton,Western Australia,WA,-32.7699,115.6321,4.0
6210,Meadow Springs,Western Australia,WA,-32.4972,115.7533,4.0
6210,Mandurah East,Western Australia,WA,-32.5733,115.7613,3.0
6210,Silver Sands,Western Australia,WA,-32.5086,115.736,4.0
6210,Lakelands,Western Australia,WA,-32.4775,115.7557,4.0
6210,Furnissdale,Western Australia,WA,-32.5585,115.7604,4.0
6210,Mandurah North,Western Australia,WA,-32.5733,115.7613,3.0
6210,San Remo,Western Australia,WA,-32.4899,115.7447,4.0
6210,Coodanup,Western Australia,WA,-32.5519,115.7535,4.0
6210,Herron,Western Australia,WA,-32.7552,115.674,4.0
6210,Falcon,Western Australia,WA,-32.5824,115.662,4.0
6210,Dawesville,Western Australia,WA,-32.6323,115.629,4.0
6210,Barragup,Western Australia,WA,-32.5498,115.7796,4.0
6210,Stake Hill,Western Australia,WA,-32.4778,115.7942,4.0
6210,Halls Head,Western Australia,WA,-32.5431,115.6966,4.0
6210,Erskine,Western Australia,WA,-32.5572,115.7066,4.0
6210,Madora Bay,Western Australia,WA,-32.4695,115.7526,4.0
6211,Dawesville,Western Australia,WA,-32.6323,115.629,4.0
6211,Bouvard,Western Australia,WA,-32.7189,115.6389,4.0
6211,Clifton,Western Australia,WA,-32.7699,115.6321,4.0
6211,Herron,Western Australia,WA,-32.7552,115.674,4.0
6213,Marrinup,Western Australia,WA,-32.7,116.0167,4.0
6213,Dwellingup,Western Australia,WA,-32.7144,116.0622,4.0
6213,Etmilyn,Western Australia,WA,-32.7126,116.061,3.0
6213,Inglehope,Western Australia,WA,-32.7667,116.1667,4.0
6213,Banksiadale,Western Australia,WA,-32.65,116.0833,4.0
6213,Teesdale,Western Australia,WA,-32.7126,116.061,3.0
6213,Holyoake,Western Australia,WA,-32.7167,116.0833,4.0
6214,West Coolup,Western Australia,WA,-32.75,115.8667,4.0
6214,Coolup,Western Australia,WA,-32.75,115.8667,4.0
6214,Birchmont,Western Australia,WA,-32.7289,115.7752,3.0
6215,Waroona,Western Australia,WA,-32.8432,115.922,4.0
6215,Hamel,Western Australia,WA,-32.8741,115.927,4.0
6215,Lake Clifton,Western Australia,WA,-32.8134,115.6856,4.0
6215,Nanga Brook,Western Australia,WA,-32.8167,116.0667,4.0
6215,Wagerup,Western Australia,WA,-32.9102,115.8915,4.0
6215,Preston Beach,Western Australia,WA,-32.8668,115.6703,4.0
6218,Yarloop,Western Australia,WA,-32.9537,115.8969,4.0
6220,Hoffman,Western Australia,WA,-33.0367,115.9527,3.0
6220,Myalup,Western Australia,WA,-33.1021,115.692,4.0
6220,Cookernup,Western Australia,WA,-32.9833,115.8833,4.0
6220,Harvey,Western Australia,WA,-33.0799,115.8945,4.0
6220,Warawarrup,Western Australia,WA,-33.0367,115.9527,3.0
6220,Uduc,Western Australia,WA,-33.0493,115.8101,4.0
6221,Mornington,Western Australia,WA,-33.15,115.9333,4.0
6221,Wokalup,Western Australia,WA,-33.1167,115.8667,4.0
6223,Benger,Western Australia,WA,-33.1667,115.85,4.0
6224,Beela,Western Australia,WA,-33.1965,115.9656,3.0
6224,Brunswick,Western Australia,WA,-33.2324,115.8628,4.0
6225,Allanson,Western Australia,WA,-33.3359,116.0994,4.0
6225,Mumballup,Western Australia,WA,-33.5286,116.1133,4.0
6225,Palmer,Western Australia,WA,-31.4062,119.6815,4.0
6225,Mcalinden,Western Australia,WA,-33.578,116.2985,4.0
6225,Cardiff,Western Australia,WA,-33.4292,116.2078,4.0
6225,Shotts,Western Australia,WA,-33.3833,116.2667,4.0
6225,Lyalls Mill,Western Australia,WA,-33.2836,116.2116,3.0
6225,Bowelling,Western Australia,WA,-33.4167,116.5,4.0
6225,Noggerup,Western Australia,WA,-33.5833,116.1667,4.0
6225,Muja,Western Australia,WA,-33.2836,116.2116,3.0
6225,Buckingham,Western Australia,WA,-33.4,116.3333,4.0
6225,Collie,Western Australia,WA,-33.3621,116.1562,4.0
6225,Collie Burn,Western Australia,WA,-33.4,116.1833,4.0
6225,Mungalup,Western Australia,WA,-33.2836,116.2116,3.0
6225,Worsley,Western Australia,WA,-33.3069,116.0067,4.0
6225,Preston Settlement,Western Australia,WA,-33.4129,116.1578,3.0
6225,Yourdamung Lake,Western Australia,WA,-33.2072,116.2349,3.0
6225,Harris River,Western Australia,WA,-33.2836,116.2116,3.0
6226,Roelands,Western Australia,WA,-33.2833,115.8167,4.0
6227,Burekup,Western Australia,WA,-33.3071,115.8137,4.0
6228,Waterloo,Western Australia,WA,-33.3186,115.7567,1.0
6229,Picton East,Western Australia,WA,-33.3471,115.7016,3.0
6229,Picton,Western Australia,WA,-33.35,115.7,4.0
6230,Withers,Western Australia,WA,-33.3681,115.6305,4.0
6230,Dalyellup,Western Australia,WA,-33.4084,115.6151,4.0
6230,Gelorup,Western Australia,WA,-33.4051,115.6344,4.0
6230,Vittoria,Western Australia,WA,-33.3305,115.6659,4.0
6230,Glen Iris,Western Australia,WA,-33.3371,115.6743,4.0
6230,South Bunbury,Western Australia,WA,-33.3361,115.6403,3.0
6230,Pelican Point,Western Australia,WA,-33.3183,115.6929,4.0
6230,Bunbury,Western Australia,WA,-33.3271,115.6414,4.0
6230,East Bunbury,Western Australia,WA,-33.3363,115.6566,4.0
6230,College Grove,Western Australia,WA,-33.3759,115.6591,4.0
6230,Davenport,Western Australia,WA,-33.374,115.6852,4.0
6230,Carey Park,Western Australia,WA,-33.3488,115.6493,4.0
6230,Usher,Western Australia,WA,-33.3798,115.6292,4.0
6231,Bunbury,Western Australia,WA,-33.3271,115.6414,4.0
6232,Eaton,Western Australia,WA,-33.3166,115.705,4.0
6232,Millbridge,Western Australia,WA,-33.3062,115.735,4.0
6233,Parkfield,Western Australia,WA,-33.2139,115.7196,3.0
6233,Australind,Western Australia,WA,-33.2792,115.715,4.0
6233,Wellesley,Western Australia,WA,-33.2343,115.7526,4.0
6233,Leschenault,Western Australia,WA,-33.2452,115.7251,4.0
6233,Binningup,Western Australia,WA,-33.1483,115.6952,4.0
6236,Wellington Mill,Western Australia,WA,-33.4667,115.9,4.0
6236,Paradise,Western Australia,WA,-33.4403,115.8631,3.0
6236,Dardanup,Western Australia,WA,-33.3983,115.7518,4.0
6236,Wellington Forest,Western Australia,WA,-33.4403,115.8631,3.0
6236,Ferguson,Western Australia,WA,-33.4403,115.8631,3.0
6236,Dardanup West,Western Australia,WA,-33.3819,115.7017,3.0
6236,Crooked Brook,Western Australia,WA,-33.4403,115.8631,3.0
6236,Henty,Western Australia,WA,-33.4403,115.8631,3.0
6237,Stratham,Western Australia,WA,-33.4632,115.5862,4.0
6237,Elgin,Western Australia,WA,-33.5068,115.68,3.0
6237,Boyanup,Western Australia,WA,-33.4829,115.7284,4.0
6237,North Boyanup,Western Australia,WA,-33.4311,115.6889,3.0
6237,Gwindinup,Western Australia,WA,-33.5068,115.68,3.0
6237,The Plains,Western Australia,WA,-33.5068,115.68,3.0
6239,Beelerup,Western Australia,WA,-33.5756,115.8506,4.0
6239,Donnybrook,Western Australia,WA,-33.5713,115.8245,4.0
6239,Argyle,Western Australia,WA,-33.5458,115.7707,4.0
6239,Upper Capel,Western Australia,WA,-33.6486,115.8189,3.0
6239,Yabberup,Western Australia,WA,-33.5386,116.0125,3.0
6239,Thomson Brook,Western Australia,WA,-33.6087,115.9784,3.0
6239,Paynedale,Western Australia,WA,-33.6087,115.9784,3.0
6239,Queenwood,Western Australia,WA,-33.6087,115.9784,3.0
6239,Brookhampton,Western Australia,WA,-33.6087,115.9784,3.0
6239,Charley Creek,Western Australia,WA,-33.6087,115.9784,3.0
6239,Glen Mervyn,Western Australia,WA,-33.6087,115.9784,3.0
6240,Lowden,Western Australia,WA,-33.5344,115.9756,4.0
6243,Wilga West,Western Australia,WA,-33.6833,116.2333,4.0
6243,Wilga,Western Australia,WA,-33.6833,116.2333,4.0
6244,Mayanup,Western Australia,WA,-33.9355,116.4529,4.0
6244,Chowerup,Western Australia,WA,-34.0849,116.6746,4.0
6244,Boyup Brook,Western Australia,WA,-33.8343,116.3878,4.0
6244,Tonebridge,Western Australia,WA,-33.8918,116.524,3.0
6244,Dinninup,Western Australia,WA,-33.8141,116.5368,4.0
6244,Kulikup,Western Australia,WA,-33.8263,116.6771,4.0
6244,Trigwell,Western Australia,WA,-33.9035,116.5476,3.0
6244,Scotts Brook,Western Australia,WA,-33.8918,116.524,3.0
6251,Newlands,Western Australia,WA,-33.6667,115.8667,4.0
6251,Kirup,Western Australia,WA,-33.7,115.9,4.0
6251,Brazier,Western Australia,WA,-33.7636,115.8561,3.0
6252,Mullalyup,Western Australia,WA,-33.7333,115.9333,4.0
6253,Balingup,Western Australia,WA,-33.8,115.9667,4.0
6253,Southampton,Western Australia,WA,-33.7948,116.0503,3.0
6253,Grimwade,Western Australia,WA,-33.7948,116.0503,3.0
6254,Greenbushes,Western Australia,WA,-33.8497,116.0582,4.0
6254,North Greenbushes,Western Australia,WA,-33.8484,116.0569,3.0
6255,Benjinup,Western Australia,WA,-33.7667,116.3167,4.0
6255,Hester,Western Australia,WA,-33.9,116.15,4.0
6255,Bridgetown,Western Australia,WA,-33.9624,116.136,4.0
6255,Kangaroo Gully,Western Australia,WA,-33.9619,116.1986,3.0
6255,Catterick,Western Australia,WA,-33.9057,116.1308,3.0
6255,Winnejup,Western Australia,WA,-33.9057,116.1308,3.0
6255,Hester Brook,Western Australia,WA,-33.9057,116.1308,3.0
6256,Yornup,Western Australia,WA,-34.05,116.1667,4.0
6256,Sunnyside,Western Australia,WA,-34.0777,116.2364,3.0
6256,Glenlynn,Western Australia,WA,-34.0063,116.1535,4.0
6256,Maranup,Western Australia,WA,-34.0777,116.2364,3.0
6256,Wandillup,Western Australia,WA,-34.0777,116.2364,3.0
6256,Kingston,Western Australia,WA,-34.0777,116.2364,3.0
6258,Yanmah,Western Australia,WA,-34.1833,116.0167,4.0
6258,Wilgarrup,Western Australia,WA,-34.352,116.3659,3.0
6258,Palgarup,Western Australia,WA,-34.1625,116.1845,4.0
6258,Diamond Tree,Western Australia,WA,-34.352,116.3659,3.0
6258,Jardee,Western Australia,WA,-34.285,116.12,4.0
6258,Ringbark,Western Australia,WA,-34.352,116.3659,3.0
6258,Manjimup,Western Australia,WA,-34.2412,116.1456,4.0
6258,Linfarne,Western Australia,WA,-34.352,116.3659,3.0
6258,Balbarrup,Western Australia,WA,-34.2292,116.2017,4.0
6258,Smith Brook,Western Australia,WA,-34.352,116.3659,3.0
6258,Lake Muir,Western Australia,WA,-34.352,116.3659,3.0
6258,Dixvale,Western Australia,WA,-34.352,116.3659,3.0
6258,Quinninup,Western Australia,WA,-34.4355,116.2498,4.0
6258,Shannon River Mill,Western Australia,WA,-34.352,116.3659,3.0
6258,Deanmill,Western Australia,WA,-34.2647,116.0742,4.0
6258,Crowea,Western Australia,WA,-34.352,116.3659,3.0
6258,Upper Warren,Western Australia,WA,-34.352,116.3659,3.0
6258,Glenoran,Western Australia,WA,-34.352,116.3659,3.0
6258,Donnelly River,Western Australia,WA,-34.352,116.3659,3.0
6258,Middlesex,Western Australia,WA,-34.352,116.3659,3.0
6258,Mordalup,Western Australia,WA,-34.352,116.3659,3.0
6258,Dingup,Western Australia,WA,-34.2584,116.1878,3.0
6258,Nyamup,Western Australia,WA,-34.352,116.3659,3.0
6258,Perup,Western Australia,WA,-34.352,116.3659,3.0
6260,Eastbrook,Western Australia,WA,-34.4,116.1,4.0
6260,Pemberton,Western Australia,WA,-34.4431,116.0369,4.0
6260,Yeagarup,Western Australia,WA,-34.4216,116.0684,3.0
6260,Collins,Western Australia,WA,-34.4216,116.0684,3.0
6260,Biddelia,Western Australia,WA,-34.4447,115.9282,3.0
6260,Channybearup,Western Australia,WA,-34.4216,116.0684,3.0
6260,Callcup,Western Australia,WA,-34.4216,116.0684,3.0
6260,Beedelup,Western Australia,WA,-34.4216,116.0684,3.0
6260,Lake Jasper,Western Australia,WA,-34.4447,115.9282,3.0
6260,Peerabeelup,Western Australia,WA,-34.4447,115.9282,3.0
6262,Crowea,Western Australia,WA,-34.7331,116.0778,3.0
6262,Windy Harbour,Western Australia,WA,-34.8333,116.0333,4.0
6262,Northcliffe,Western Australia,WA,-34.6329,116.1224,4.0
6262,Boorara Brook,Western Australia,WA,-34.7331,116.0778,3.0
6262,Meerup,Western Australia,WA,-34.7331,116.0778,3.0
6262,Shannon,Western Australia,WA,-34.7331,116.0778,3.0
6271,Peppermint Grove Beach,Western Australia,WA,-33.5271,115.5065,4.0
6271,Capel,Western Australia,WA,-33.5581,115.5628,4.0
6271,Forrest Beach,Western Australia,WA,-33.5746,115.5801,3.0
6271,Capel River,Western Australia,WA,-33.5746,115.5801,3.0
6271,Stirling Estate,Western Australia,WA,-33.5746,115.5801,3.0
6275,Nannup,Western Australia,WA,-33.9787,115.7646,4.0
6275,Jarrahwood,Western Australia,WA,-33.8,115.6667,4.0
6275,Darradup,Western Australia,WA,-34.1358,115.6706,3.0
6275,Barrabup,Western Australia,WA,-34.1358,115.6706,3.0
6275,Carlotta,Western Australia,WA,-34.1358,115.6706,3.0
6275,Cundinup,Western Australia,WA,-34.1358,115.6706,3.0
6275,Scott River East,Western Australia,WA,-34.1358,115.6706,3.0
6275,Yoganup,Western Australia,WA,-34.1358,115.6706,3.0
6275,East Nannup,Western Australia,WA,-34.1358,115.6706,3.0
6275,Jalbarragup,Western Australia,WA,-34.1358,115.6706,3.0
6280,Carbunup River,Western Australia,WA,-33.7,115.1833,4.0
6280,Bovell,Western Australia,WA,-33.6801,115.361,4.0
6280,Busselton,Western Australia,WA,-33.6525,115.3455,4.0
6280,Broadwater,Western Australia,WA,-33.663,115.2842,4.0
6280,Yelverton,Western Australia,WA,-33.7505,115.1196,4.0
6280,Yoongarillup,Western Australia,WA,-33.7152,115.4268,4.0
6280,Ludlow,Western Australia,WA,-33.6,115.4667,4.0
6280,Kaloorup,Western Australia,WA,-33.7296,115.4072,3.0
6280,Vasse,Western Australia,WA,-33.6667,115.25,4.0
6280,Abbey,Western Australia,WA,-33.6636,115.2564,4.0
6280,Metricup,Western Australia,WA,-33.7755,115.1329,4.0
6280,Ruabon,Western Australia,WA,-33.7296,115.4072,3.0
6280,Ambergate,Western Australia,WA,-33.7373,115.3262,4.0
6280,Reinscourt,Western Australia,WA,-33.6535,115.4079,4.0
6280,Wonnerup,Western Australia,WA,-33.6333,115.4333,4.0
6280,West Busselton,Western Australia,WA,-33.6559,115.3227,3.0
6280,Yalyalup,Western Australia,WA,-33.675,115.4145,4.0
6280,Kealy,Western Australia,WA,-33.7296,115.4072,3.0
6280,Siesta Park,Western Australia,WA,-33.7296,115.4072,3.0
6280,Tutunup,Western Australia,WA,-33.7296,115.4072,3.0
6280,Anniebrook,Western Australia,WA,-33.6591,115.1726,4.0
6280,Kalgup,Western Australia,WA,-33.7296,115.4072,3.0
6280,North Jindong,Western Australia,WA,-33.7296,115.4072,3.0
6280,Hithergreen,Western Australia,WA,-33.7296,115.4072,3.0
6280,Walsall,Western Australia,WA,-33.7296,115.4072,3.0
6280,Jindong,Western Australia,WA,-33.7296,115.4072,3.0
6280,Sabina River,Western Australia,WA,-33.7296,115.4072,3.0
6280,Chapman Hill,Western Australia,WA,-33.7783,115.3272,3.0
6280,Boallia,Western Australia,WA,-33.7296,115.4072,3.0
6280,Wilyabrup,Western Australia,WA,-33.7956,115.0461,3.0
6280,Marybrook,Western Australia,WA,-33.6594,115.2,3.0
6280,Abba River,Western Australia,WA,-33.7296,115.4072,3.0
6280,Geographe,Western Australia,WA,-33.6397,115.3836,4.0
6280,Acton Park,Western Australia,WA,-33.7296,115.4072,3.0
6281,Quindalup,Western Australia,WA,-33.6356,115.149,4.0
6281,Dunsborough,Western Australia,WA,-33.6151,115.1056,4.0
6281,Eagle Bay,Western Australia,WA,-33.6164,115.0811,3.0
6281,Quedjinup,Western Australia,WA,-33.6206,115.0917,4.0
6281,Naturaliste,Western Australia,WA,-33.6164,115.0811,3.0
6282,Yallingup Siding,Western Australia,WA,-33.683,115.0977,4.0
6282,Yallingup,Western Australia,WA,-33.7,115.1,4.0
6284,Baudin,Western Australia,WA,-33.865,115.4242,3.0
6284,Cowaramup,Western Australia,WA,-33.8504,115.1038,4.0
6284,Gracetown,Western Australia,WA,-33.8673,114.9859,3.0
6284,Treeton,Western Australia,WA,-33.875,115.102,3.0
6285,Prevelly,Western Australia,WA,-33.9791,114.9943,4.0
6285,Rosa Glen,Western Australia,WA,-34.0152,115.2033,4.0
6285,Margaret River,Western Australia,WA,-33.9536,115.0739,4.0
6285,Osmington,Western Australia,WA,-33.921,115.206,3.0
6285,Bramley,Western Australia,WA,-33.9194,115.1135,4.0
6285,Schroeder,Western Australia,WA,-33.9504,115.3202,3.0
6285,Burnside,Western Australia,WA,-33.9369,115.0181,4.0
6285,Rosa Brook,Western Australia,WA,-33.95,115.1833,4.0
6285,Gnarabup,Western Australia,WA,-33.9919,114.9943,4.0
6286,Forest Grove,Western Australia,WA,-34.0667,115.0833,4.0
6286,Witchcliffe,Western Australia,WA,-34.0333,115.1,4.0
6286,Redgate,Western Australia,WA,-34.1242,115.0573,3.0
6286,Boranup,Western Australia,WA,-34.1242,115.0573,3.0
6288,Karridale,Western Australia,WA,-34.2167,115.0833,4.0
6288,Scott River,Western Australia,WA,-34.1742,115.2399,3.0
6288,Hamelin Bay,Western Australia,WA,-34.2264,115.0571,4.0
6288,Nillup,Western Australia,WA,-34.1742,115.2399,3.0
6288,Warner Glen,Western Australia,WA,-34.1742,115.2399,3.0
6288,Alexandra Bridge,Western Australia,WA,-34.1742,115.2399,3.0
6288,Courtenay,Western Australia,WA,-34.1742,115.2399,3.0
6290,Leeuwin,Western Australia,WA,-34.3455,115.1365,4.0
6290,Kudardup,Western Australia,WA,-34.2833,115.1,4.0
6290,East Augusta,Western Australia,WA,-34.0202,115.1211,4.0
6290,Molloy Island,Western Australia,WA,-34.2684,115.2097,3.0
6290,Augusta,Western Australia,WA,-34.3157,115.1592,4.0
6290,Deepdene,Western Australia,WA,-34.2528,115.1632,3.0
6302,Talbot West,Western Australia,WA,-32.0333,116.6833,4.0
6302,Gwambygine,Western Australia,WA,-31.9757,116.8063,4.0
6302,Burges,Western Australia,WA,-31.8167,116.7833,4.0
6302,St Ronans,Western Australia,WA,-31.9264,116.7354,3.0
6302,York,Western Australia,WA,-31.8881,116.7678,4.0
6302,Mount Observation,Western Australia,WA,-31.9264,116.7354,3.0
6302,Mount Hardey,Western Australia,WA,-31.9,116.8667,4.0
6302,Cold Harbour,Western Australia,WA,-31.9264,116.7354,3.0
6302,Malebelling,Western Australia,WA,-31.9264,116.7354,3.0
6302,Narraloggan,Western Australia,WA,-31.9264,116.7354,3.0
6302,Gilgering,Western Australia,WA,-32.0243,116.7984,3.0
6302,Wilberforce,Western Australia,WA,-31.9264,116.7354,3.0
6302,Flint,Western Australia,WA,-31.9264,116.7354,3.0
6302,Caljie,Western Australia,WA,-31.9264,116.7354,3.0
6302,Talbot,Western Australia,WA,-32.0333,116.6833,4.0
6302,Balladong,Western Australia,WA,-31.9264,116.7354,3.0
6302,Greenhills,Western Australia,WA,-31.9208,116.9643,4.0
6302,Daliak,Western Australia,WA,-31.9264,116.7354,3.0
6302,Inkpen,Western Australia,WA,-31.9264,116.7354,3.0
6302,Quellington,Western Australia,WA,-31.9264,116.7354,3.0
6302,Flynn,Western Australia,WA,-31.9264,116.7354,3.0
6302,Badgin,Western Australia,WA,-31.9264,116.7354,3.0
6302,Kauring,Western Australia,WA,-31.9264,116.7354,3.0
6304,Westdale,Western Australia,WA,-32.3134,116.6088,4.0
6304,Kokeby,Western Australia,WA,-32.2102,116.9712,4.0
6304,Bally Bally,Western Australia,WA,-32.1667,117.1,4.0
6304,Beverley,Western Australia,WA,-32.1084,116.9274,4.0
6304,East Beverley,Western Australia,WA,-32.0333,117.0167,4.0
6304,Morbinning,Western Australia,WA,-32.1,117.15,4.0
6304,Dale,Western Australia,WA,-32.0796,116.8083,4.0
6306,Brookton,Western Australia,WA,-32.3723,117.0105,4.0
6306,Jelcobine,Western Australia,WA,-32.362,117.0031,3.0
6306,Kweda,Western Australia,WA,-32.3667,117.4333,4.0
6306,Aldersyde,Western Australia,WA,-32.3747,117.2834,4.0
6306,Bulyee,Western Australia,WA,-32.3667,117.5167,4.0
6308,Springs,Western Australia,WA,-32.5363,116.8413,3.0
6308,Hastings,Western Australia,WA,-32.5363,116.8413,3.0
6308,Pingelly,Western Australia,WA,-32.5325,117.0824,4.0
6308,Dwarda,Western Australia,WA,-32.7667,116.6667,4.0
6308,East Pingelly,Western Australia,WA,-32.5103,117.1464,3.0
6308,Gillimanning,Western Australia,WA,-32.5363,116.8413,3.0
6308,West Pingelly,Western Australia,WA,-32.5363,116.8413,3.0
6308,Wandering,Western Australia,WA,-32.6833,116.6667,4.0
6308,Codjatotine,Western Australia,WA,-32.5363,116.8413,3.0
6308,Pumphreys Bridge,Western Australia,WA,-32.5363,116.8413,3.0
6309,Popanyinning,Western Australia,WA,-32.6667,117.1333,4.0
6309,Stratherne,Western Australia,WA,-32.6618,117.1292,3.0
6309,East Popanyinning,Western Australia,WA,-32.6329,117.2604,4.0
6309,West Popanyinning,Western Australia,WA,-32.6618,117.1292,3.0
6311,Yornaning,Western Australia,WA,-32.7333,117.15,4.0
6311,Contine,Western Australia,WA,-32.8667,116.9667,4.0
6311,Dryandra,Western Australia,WA,-32.7667,116.9667,4.0
6311,Wardering,Western Australia,WA,-32.7358,117.1593,3.0
6311,Cuballing,Western Australia,WA,-32.8196,117.1758,4.0
6311,Commodine,Western Australia,WA,-32.7358,117.1593,3.0
6311,Lol Gray,Western Australia,WA,-32.7358,117.1593,3.0
6311,Townsendale,Western Australia,WA,-32.7358,117.1593,3.0
6312,Yilliminning,Western Australia,WA,-32.8994,117.3744,4.0
6312,Narrogin Valley,Western Australia,WA,-32.9953,117.2623,3.0
6312,Nomans Lake,Western Australia,WA,-32.9256,117.5194,4.0
6312,Hillside,Western Australia,WA,-32.9953,117.2623,3.0
6312,Dumberning,Western Australia,WA,-33.0042,117.101,4.0
6312,Minigin,Western Australia,WA,-32.9953,117.2623,3.0
6312,Narrogin,Western Australia,WA,-32.9328,117.1776,4.0
6312,Boundain,Western Australia,WA,-32.95,117.3167,4.0
6312,Toolibin,Western Australia,WA,-32.946,117.6225,4.0
6313,Highbury,Western Australia,WA,-33.0667,117.25,4.0
6315,Piesseville,Western Australia,WA,-33.1909,117.2901,4.0
6315,Gundaring,Western Australia,WA,-33.3398,117.1803,3.0
6315,Jaloran,Western Australia,WA,-33.15,117.4333,4.0
6315,Dongolocking,Western Australia,WA,-33.1333,117.8167,4.0
6315,Lime Lake,Western Australia,WA,-33.3398,117.1803,3.0
6315,Ballaying,Western Australia,WA,-33.3064,117.5525,4.0
6315,Minding,Western Australia,WA,-33.3398,117.1803,3.0
6315,Collanilling,Western Australia,WA,-33.2667,117.5,4.0
6315,Wedgecarrup,Western Australia,WA,-33.3398,117.1803,3.0
6315,Wagin,Western Australia,WA,-33.3089,117.3433,4.0
6315,Arthur River,Western Australia,WA,-33.351,117.0318,4.0
6315,Cancanning,Western Australia,WA,-33.1333,117.5667,4.0
6316,Woodanilling,Western Australia,WA,-33.5667,117.4333,4.0
6316,Boyerine,Western Australia,WA,-33.5336,117.3382,3.0
6316,Cartmeticup,Western Australia,WA,-33.47,117.5175,4.0
6316,Glencoe,Western Australia,WA,-33.5336,117.3382,3.0
6316,Kenmare,Western Australia,WA,-33.5336,117.3382,3.0
6316,Westwood,Western Australia,WA,-33.5336,117.3382,3.0
6317,Badgebup,Western Australia,WA,-33.6333,117.9,4.0
6317,Datatine,Western Australia,WA,-33.4667,117.9167,4.0
6317,Ewlyamartup,Western Australia,WA,-33.7055,117.7372,4.0
6317,Moojebing,Western Australia,WA,-33.6483,117.6843,3.0
6317,Murdong,Western Australia,WA,-33.7577,117.5995,4.0
6317,Katanning,Western Australia,WA,-33.6879,117.5584,4.0
6317,Coyrecup,Western Australia,WA,-33.6781,117.83,4.0
6317,Pinwernying,Western Australia,WA,-33.6483,117.6843,3.0
6317,Marracoonda,Western Australia,WA,-33.65,117.4167,4.0
6317,Coblinine,Western Australia,WA,-33.6483,117.6843,3.0
6317,Carrolup,Western Australia,WA,-33.7435,117.3999,4.0
6317,South Datatine,Western Australia,WA,-33.6483,117.6843,3.0
6317,Bullock Hills,Western Australia,WA,-33.6483,117.6843,3.0
6317,South Glencoe,Western Australia,WA,-33.6483,117.6843,3.0
6318,Broomehill,Western Australia,WA,-33.843,117.6401,4.0
6318,Broomehill West,Western Australia,WA,-33.8785,117.6161,3.0
6318,Broomehill East,Western Australia,WA,-33.8785,117.6161,3.0
6318,Broomehill Village,Western Australia,WA,-33.8785,117.6161,3.0
6320,Tambellup,Western Australia,WA,-34.0433,117.6414,4.0
6320,Moonies Hill,Western Australia,WA,-34.0833,117.5167,4.0
6320,Wansbrough,Western Australia,WA,-34.1432,117.6715,4.0
6320,Lake Toolbrunup,Western Australia,WA,-34.1035,117.6981,3.0
6320,Bobalong,Western Australia,WA,-34.1035,117.6981,3.0
6320,Borderdale,Western Australia,WA,-34.1035,117.6981,3.0
6320,Dartnall,Western Australia,WA,-34.1035,117.6981,3.0
6321,Cranbrook,Western Australia,WA,-34.2976,117.5518,4.0
6322,Tenterden,Western Australia,WA,-34.362,117.5549,4.0
6323,Kendenup,Western Australia,WA,-34.4821,117.6253,4.0
6324,Takalarup,Western Australia,WA,-34.4793,117.8964,3.0
6324,Porongurup,Western Australia,WA,-34.65,117.9,4.0
6324,Denbarker,Western Australia,WA,-34.4793,117.8964,3.0
6324,Woogenellup,Western Australia,WA,-34.5167,117.8333,4.0
6324,Perillup,Western Australia,WA,-34.4793,117.8964,3.0
6324,Mount Barker,Western Australia,WA,-34.6308,117.6661,4.0
6324,Forest Hill,Western Australia,WA,-34.4793,117.8964,3.0
6324,South Stirling,Western Australia,WA,-34.4793,117.8964,3.0
6326,Narrikup,Western Australia,WA,-34.7723,117.7042,4.0
6327,Redmond,Western Australia,WA,-34.8667,117.6833,4.0
6327,Redmond West,Western Australia,WA,-34.8667,117.6833,4.0
6328,Mettler,Western Australia,WA,-34.8333,118.1667,3.0
6328,Manypeaks,Western Australia,WA,-34.8381,118.1698,4.0
6328,Palmdale,Western Australia,WA,-34.6048,118.4088,3.0
6328,Cape Riche,Western Australia,WA,-34.6048,118.4088,3.0
6328,Gnowellen,Western Australia,WA,-34.6048,118.4088,3.0
6328,Cheynes,Western Australia,WA,-34.6048,118.4088,3.0
6328,Green Range,Western Australia,WA,-34.6048,118.4088,3.0
6328,Wellstead,Western Australia,WA,-34.4952,118.6014,3.0
6328,Kojaneerup South,Western Australia,WA,-34.6048,118.4088,3.0
6330,Kalgan,Western Australia,WA,-34.8847,118.0131,4.0
6330,Napier,Western Australia,WA,-34.8333,118.0,4.0
6330,Mount Clarence,Western Australia,WA,-35.0253,117.9023,4.0
6330,Green Valley,Western Australia,WA,-34.9448,117.8359,3.0
6330,Torbay,Western Australia,WA,-35.0233,117.6606,4.0
6330,Milpara,Western Australia,WA,-34.9889,117.8707,4.0
6330,Lower King,Western Australia,WA,-34.9578,117.9383,4.0
6330,Lowlands,Western Australia,WA,-34.9448,117.8359,3.0
6330,Willyung,Western Australia,WA,-34.9433,117.8795,4.0
6330,Mckail,Western Australia,WA,-34.9853,117.8301,4.0
6330,Mount Elphinstone,Western Australia,WA,-35.0194,117.8518,4.0
6330,Collingwood Park,Western Australia,WA,-34.9448,117.8359,3.0
6330,Marbelup,Western Australia,WA,-34.9675,117.7333,4.0
6330,Orana,Western Australia,WA,-34.996,117.8592,4.0
6330,Yakamia,Western Australia,WA,-35.0013,117.8751,4.0
6330,Millbrook,Western Australia,WA,-34.9068,117.8726,4.0
6330,Frenchman Bay,Western Australia,WA,-35.0935,117.9491,4.0
6330,Bornholm,Western Australia,WA,-35.0606,117.5769,4.0
6330,Seppings,Western Australia,WA,-35.0099,117.9087,4.0
6330,Nanarup,Western Australia,WA,-34.9448,117.8359,3.0
6330,Mira Mar,Western Australia,WA,-35.0152,117.901,4.0
6330,Albany,Western Australia,WA,-35.0031,117.866,4.0
6330,West Cape Howe,Western Australia,WA,-35.0827,117.6255,4.0
6330,Nullaki,Western Australia,WA,-34.9448,117.8359,3.0
6330,Centennial Park,Western Australia,WA,-35.0153,117.8805,4.0
6330,Youngs Siding,Western Australia,WA,-35.0167,117.5167,4.0
6330,Big Grove,Western Australia,WA,-35.0808,117.879,4.0
6330,Sandpatch,Western Australia,WA,-34.9448,117.8359,3.0
6330,Lange,Western Australia,WA,-34.9914,117.8817,4.0
6330,Cuthbert,Western Australia,WA,-35.0158,117.7983,4.0
6330,King River,Western Australia,WA,-34.9344,117.9119,4.0
6330,Vancouver Peninsula,Western Australia,WA,-34.9448,117.8359,3.0
6330,Gledhow,Western Australia,WA,-35.0063,117.8269,4.0
6330,Collingwood Heights,Western Australia,WA,-34.9927,117.9207,4.0
6330,Lockyer,Western Australia,WA,-35.0057,117.8588,4.0
6330,Port Albany,Western Australia,WA,-34.9448,117.8359,3.0
6330,Mount Melville,Western Australia,WA,-35.0148,117.8689,4.0
6330,Bayonet Head,Western Australia,WA,-34.973,117.9345,4.0
6330,Emu Point,Western Australia,WA,-35.0,117.9381,4.0
6330,Little Grove,Western Australia,WA,-35.068,117.872,4.0
6330,Warrenup,Western Australia,WA,-34.9755,117.8472,4.0
6330,Spencer Park,Western Australia,WA,-35.0052,117.9001,4.0
6330,Elleker,Western Australia,WA,-35.0092,117.7303,4.0
6330,Robinson,Western Australia,WA,-35.0316,117.8408,4.0
6330,Kronkup,Western Australia,WA,-35.0506,117.6186,4.0
6330,Middleton Beach,Western Australia,WA,-35.0237,117.911,4.0
6330,Goode Beach,Western Australia,WA,-35.0887,117.9358,4.0
6330,Drome,Western Australia,WA,-34.9572,117.8109,4.0
6330,Walmsley,Western Australia,WA,-34.9739,117.903,4.0
6330,Torndirrup,Western Australia,WA,-35.0941,117.906,4.0
6331,Albany Dc,Western Australia,WA,-34.6956,117.882,1.0
6332,Albany,Western Australia,WA,-35.0031,117.866,4.0
6332,Albany Po,Western Australia,WA,-35.0031,117.866,3.0
6333,Kentdale,Western Australia,WA,-34.9,117.05,4.0
6333,Hay,Western Australia,WA,-34.8905,117.1188,3.0
6333,Parryville,Western Australia,WA,-34.9833,117.1833,4.0
6333,Denmark,Western Australia,WA,-34.9607,117.3532,4.0
6333,Nornalup,Western Australia,WA,-34.9917,116.8202,4.0
6333,Shadforth,Western Australia,WA,-34.9638,117.2692,4.0
6333,William Bay,Western Australia,WA,-34.8905,117.1188,3.0
6333,Mount Romance,Western Australia,WA,-34.8119,117.1347,3.0
6333,Ocean Beach,Western Australia,WA,-35.0202,117.3263,3.0
6333,Trent,Western Australia,WA,-34.9131,116.9396,3.0
6333,Tingledale,Western Australia,WA,-34.8905,117.1188,3.0
6333,Peaceful Bay,Western Australia,WA,-35.0225,116.9165,4.0
6333,Hazelvale,Western Australia,WA,-34.8905,117.1188,3.0
6333,Bow Bridge,Western Australia,WA,-34.8905,117.1188,3.0
6333,Mount Lindesay,Western Australia,WA,-34.8905,117.1188,3.0
6333,Kordabup,Western Australia,WA,-34.929,117.1486,4.0
6333,Scotsdale,Western Australia,WA,-34.9081,117.2825,3.0
6335,Kebaringup,Western Australia,WA,-34.0333,118.15,4.0
6335,Gnowangerup,Western Australia,WA,-33.937,118.009,4.0
6335,Pallinup,Western Australia,WA,-33.8664,118.1111,3.0
6335,Jackitup,Western Australia,WA,-33.8664,118.1111,3.0
6336,Needilup,Western Australia,WA,-33.95,118.8167,4.0
6336,Toompup,Western Australia,WA,-34.0133,118.4278,4.0
6336,Ongerup,Western Australia,WA,-33.9656,118.4869,4.0
6336,Mindarabin,Western Australia,WA,-33.8753,118.5061,3.0
6336,Mills Lake,Western Australia,WA,-33.8753,118.5061,3.0
6336,Cowalellup,Western Australia,WA,-33.8753,118.5061,3.0
6337,Jerramungup,Western Australia,WA,-33.9422,118.9173,4.0
6337,West Fitzgerald,Western Australia,WA,-33.9438,119.2324,3.0
6337,Jacup,Western Australia,WA,-33.8167,119.2667,4.0
6337,Gairdner,Western Australia,WA,-33.9438,119.2324,3.0
6337,Fitzgerald,Western Australia,WA,-33.9438,119.2324,3.0
6338,Bremer Bay,Western Australia,WA,-34.3925,119.3798,4.0
6338,Borden,Western Australia,WA,-34.0724,118.2721,4.0
6338,Nalyerlup,Western Australia,WA,-34.1703,118.7076,3.0
6338,North Stirlings,Western Australia,WA,-34.1703,118.7076,3.0
6338,Monjebup,Western Australia,WA,-34.1703,118.7076,3.0
6338,Boxwood Hill,Western Australia,WA,-34.3617,118.7467,4.0
6338,Magitup,Western Australia,WA,-34.1703,118.7076,3.0
6338,Stirling Range National Park,Western Australia,WA,-34.4044,118.0419,3.0
6338,Amelup,Western Australia,WA,-34.2385,118.2209,3.0
6341,Nyabing,Western Australia,WA,-33.5413,118.146,4.0
6343,Pingrup,Western Australia,WA,-33.5378,118.5122,4.0
6346,Ravensthorpe,Western Australia,WA,-33.583,120.0469,4.0
6346,Fitzgerald River National Park,Western Australia,WA,-34.0016,119.598,4.0
6346,Jerdacuttup,Western Australia,WA,-33.8964,120.213,4.0
6346,West River,Western Australia,WA,-33.4166,120.1755,3.0
6348,Hopetoun,Western Australia,WA,-33.9506,120.1264,4.0
6350,Nippering,Western Australia,WA,-33.295,117.638,4.0
6350,Dumbleyung,Western Australia,WA,-33.3126,117.7393,4.0
6350,Nairibin,Western Australia,WA,-33.2563,117.7554,3.0
6351,Moulyinning,Western Australia,WA,-33.2254,117.9269,4.0
6351,North Moulyinning,Western Australia,WA,-33.25,117.9333,3.0
6352,Kukerin,Western Australia,WA,-33.1833,118.0833,4.0
6352,Merilup,Western Australia,WA,-33.2667,118.1667,4.0
6352,North Kukerin,Western Australia,WA,-33.2087,118.0664,3.0
6352,South Kukerin,Western Australia,WA,-33.2087,118.0664,3.0
6353,Beenong,Western Australia,WA,-33.045,118.5853,4.0
6353,Kuender,Western Australia,WA,-32.95,118.5333,4.0
6353,North Lake Grace,Western Australia,WA,-32.95,118.4667,4.0
6353,Mallee Hill,Western Australia,WA,-32.9592,118.4872,3.0
6353,Lake Grace,Western Australia,WA,-33.1032,118.4646,4.0
6353,Neendaling,Western Australia,WA,-33.1167,118.3333,4.0
6353,Tarin Rock,Western Australia,WA,-33.1075,118.2308,4.0
6353,North Burngup,Western Australia,WA,-32.9592,118.4872,3.0
6353,Buniche,Western Australia,WA,-33.0039,118.766,4.0
6353,South Lake Grace,Western Australia,WA,-32.8333,119.5333,4.0
6355,Lake Biddy,Western Australia,WA,-33.0019,118.9292,4.0
6355,Lake Camm,Western Australia,WA,-32.9833,119.5833,4.0
6355,Varley,Western Australia,WA,-32.7667,119.45,4.0
6355,South Newdegate,Western Australia,WA,-33.0865,118.9698,3.0
6355,Newdegate,Western Australia,WA,-33.0939,119.0339,4.0
6355,Holt Rock,Western Australia,WA,-32.6722,119.406,4.0
6355,Mount Sheridan,Western Australia,WA,-33.0865,118.9698,3.0
6355,East Newdegate,Western Australia,WA,-33.0865,118.9698,3.0
6355,Magenta,Western Australia,WA,-33.0865,118.9698,3.0
6355,Dunn Rock,Western Australia,WA,-33.0865,118.9698,3.0
6355,Little Italy,Western Australia,WA,-33.0865,118.9698,3.0
6356,Lake King,Western Australia,WA,-33.0859,119.6755,4.0
6356,Mount Madden,Western Australia,WA,-33.2667,119.7833,4.0
6356,Hatter Hill,Western Australia,WA,-33.175,119.725,3.0
6357,Pingaring,Western Australia,WA,-32.7546,118.6278,4.0
6358,Karlgarin,Western Australia,WA,-32.4971,118.7098,4.0
6359,Hyden,Western Australia,WA,-32.45,118.8833,4.0
6359,Forrestania,Western Australia,WA,-32.4947,119.4469,3.0
6361,Tincurrin,Western Australia,WA,-32.9768,117.7739,4.0
6361,Harrismith,Western Australia,WA,-32.9357,117.8609,4.0
6363,Dudinin,Western Australia,WA,-32.8762,117.9053,4.0
6363,Walyurin,Western Australia,WA,-32.8483,117.9961,3.0
6365,Jilakin,Western Australia,WA,-32.6667,118.3333,4.0
6365,Kulin,Western Australia,WA,-32.6668,118.158,4.0
6365,Jitarning,Western Australia,WA,-32.7869,118.0047,4.0
6365,Kulin West,Western Australia,WA,-32.7164,118.2755,3.0
6367,Kondinin,Western Australia,WA,-32.4986,118.2653,4.0
6368,South Kumminin,Western Australia,WA,-32.2,118.3333,4.0
6369,Mount Walker,Western Australia,WA,-32.0823,118.7442,3.0
6369,Wadderin,Western Australia,WA,-31.994,118.4505,4.0
6369,West Holleton,Western Australia,WA,-31.95,119.0333,4.0
6369,Woolocutty,Western Australia,WA,-32.0823,118.7442,3.0
6369,Narembeen,Western Australia,WA,-32.0637,118.3957,4.0
6370,Wickepin,Western Australia,WA,-32.7816,117.503,4.0
6370,Kirk Rock,Western Australia,WA,-32.767,117.7208,3.0
6370,East Wickepin,Western Australia,WA,-32.7833,117.65,4.0
6370,Malyalling,Western Australia,WA,-32.7,117.5333,4.0
6370,Wogolin,Western Australia,WA,-32.767,117.7208,3.0
6372,Yealering,Western Australia,WA,-32.5921,117.6273,4.0
6373,Bullaring,Western Australia,WA,-32.4964,117.7453,4.0
6375,Bilbarin,Western Australia,WA,-32.2061,117.9529,4.0
6375,Corrigin,Western Australia,WA,-32.3338,117.8718,4.0
6375,Kurrenkutten,Western Australia,WA,-32.25,118.2167,4.0
6375,Gorge Rock,Western Australia,WA,-32.4567,117.9978,4.0
6375,Kunjin,Western Australia,WA,-32.3554,117.7709,4.0
6375,Adamsvale,Western Australia,WA,-32.3416,117.8368,3.0
6383,South Quairading,Western Australia,WA,-32.1667,117.4667,4.0
6383,Mount Stirling,Western Australia,WA,-32.0292,117.3523,3.0
6383,Balkuling,Western Australia,WA,-31.9812,117.1139,4.0
6383,Cubbine,Western Australia,WA,-32.0292,117.3523,3.0
6383,Doodenanning,Western Australia,WA,-31.8667,117.15,4.0
6383,Mawson,Western Australia,WA,-32.0292,117.3523,3.0
6383,Quairading,Western Australia,WA,-32.012,117.3955,4.0
6383,Dulbelling,Western Australia,WA,-32.05,117.2667,4.0
6383,Wamenusking,Western Australia,WA,-32.1258,117.5997,4.0
6383,Badjaling,Western Australia,WA,-31.9972,117.4989,4.0
6383,Yoting,Western Australia,WA,-31.9602,117.5914,4.0
6383,Dangin,Western Australia,WA,-32.05,117.3167,4.0
6384,Pantapin,Western Australia,WA,-31.9525,117.6572,4.0
6385,Kwolyin,Western Australia,WA,-31.9295,117.7501,4.0
6386,Shackleton,Western Australia,WA,-31.9325,117.8313,4.0
6390,Ranford,Western Australia,WA,-32.8,116.5,4.0
6390,Boddington,Western Australia,WA,-32.8007,116.4752,4.0
6390,Crossman,Western Australia,WA,-32.7833,116.6,4.0
6390,North Bannister,Western Australia,WA,-32.5833,116.4333,4.0
6390,Bannister,Western Australia,WA,-32.5833,116.4333,4.0
6390,Marradong,Western Australia,WA,-32.8631,116.4508,4.0
6390,Wuraming,Western Australia,WA,-32.8,116.2833,4.0
6390,Lower Hotham,Western Australia,WA,-32.817,116.4003,3.0
6390,Mount Wells,Western Australia,WA,-32.817,116.4003,3.0
6390,Upper Murray,Western Australia,WA,-32.817,116.4003,3.0
6390,Mount Cooke,Western Australia,WA,-32.817,116.4003,3.0
6391,Williams,Western Australia,WA,-33.028,116.8792,4.0
6391,Narrakine,Western Australia,WA,-33.0714,116.7281,3.0
6391,Congelin,Western Australia,WA,-32.8402,116.8854,4.0
6391,Tarwonga,Western Australia,WA,-33.0714,116.7281,3.0
6391,Quindanning,Western Australia,WA,-33.0466,116.5698,4.0
6391,Culbin,Western Australia,WA,-33.0714,116.7281,3.0
6391,Hillman River,Western Australia,WA,-32.2833,115.7636,4.0
6391,Boraning,Western Australia,WA,-33.0714,116.7281,3.0
6392,Meeking,Western Australia,WA,-33.3563,116.8259,3.0
6392,Bokal,Western Australia,WA,-33.4814,116.9005,4.0
6392,Boolading,Western Australia,WA,-33.4836,116.5773,3.0
6392,Darkan,Western Australia,WA,-33.3357,116.7443,4.0
6392,Dardadine,Western Australia,WA,-33.2333,116.8333,4.0
6393,Duranillin,Western Australia,WA,-33.5159,116.8072,4.0
6393,Moodiarrup,Western Australia,WA,-33.5167,116.725,3.0
6393,Cordering,Western Australia,WA,-33.4971,116.6572,4.0
6393,Trigwell,Western Australia,WA,-33.5167,116.725,3.0
6394,Muradup,Western Australia,WA,-33.8333,116.9833,4.0
6394,Orchid Valley,Western Australia,WA,-33.7898,116.8998,3.0
6394,Boscabel,Western Australia,WA,-33.6667,117.05,4.0
6394,Beaufort River,Western Australia,WA,-33.7898,116.8998,3.0
6394,Boilup,Western Australia,WA,-33.7898,116.8998,3.0
6394,Mokup,Western Australia,WA,-33.7778,116.9444,3.0
6394,Qualeup,Western Australia,WA,-33.8333,116.8,4.0
6394,Changerup,Western Australia,WA,-33.7898,116.8998,3.0
6395,Kojonup,Western Australia,WA,-33.8305,117.1595,4.0
6395,Mobrup,Western Australia,WA,-34.1257,116.9282,4.0
6395,Ryansbrook,Western Australia,WA,-34.0305,117.0231,3.0
6395,Jingalup,Western Australia,WA,-33.9667,117.0333,4.0
6395,Lumeah,Western Australia,WA,-33.9833,117.2333,4.0
6395,Cherry Tree Pool,Western Australia,WA,-33.75,117.2833,4.0
6396,Frankland,Western Australia,WA,-34.3667,117.0667,4.0
6396,Frankland River,Western Australia,WA,-34.3667,117.0667,4.0
6397,Rocky Gully,Western Australia,WA,-34.5105,117.0106,4.0
6398,Broke,Western Australia,WA,-34.796,116.5997,3.0
6398,North Walpole,Western Australia,WA,-34.7234,116.6612,4.0
6398,Walpole,Western Australia,WA,-34.976,116.7302,4.0
6401,Southern Brook,Western Australia,WA,-31.5451,116.8231,4.0
6401,Cunjardine,Western Australia,WA,-31.5588,116.7519,3.0
6401,Northam,Western Australia,WA,-31.6493,116.6742,4.0
6401,Spencers Brook,Western Australia,WA,-31.7366,116.6306,4.0
6401,Jennapullin,Western Australia,WA,-31.5329,116.7201,4.0
6401,Muluckine,Western Australia,WA,-31.6363,116.7491,3.0
6401,Rossmore,Western Australia,WA,-31.5588,116.7519,3.0
6401,Burlong,Western Australia,WA,-31.5588,116.7519,3.0
6401,Muresk,Western Australia,WA,-31.75,116.6667,4.0
6401,Irishtown,Western Australia,WA,-31.5588,116.7519,3.0
6401,Mokine,Western Australia,WA,-31.7441,116.5727,3.0
6401,Buckland,Western Australia,WA,-31.5588,116.7519,3.0
6401,Malabaine,Western Australia,WA,-31.5588,116.7519,3.0
6401,Meenaar,Western Australia,WA,-31.5588,116.7519,3.0
6401,Throssell,Western Australia,WA,-31.5588,116.7519,3.0
6401,Jennacubbine,Western Australia,WA,-31.4402,116.7247,4.0
6401,Wongamine,Western Australia,WA,-31.476,116.617,4.0
6401,Mumberkine,Western Australia,WA,-31.5588,116.7519,3.0
6403,Grass Valley,Western Australia,WA,-31.6373,116.7976,4.0
6405,Warding East,Western Australia,WA,-31.6254,117.0059,3.0
6405,Meckering,Western Australia,WA,-31.6277,117.0114,4.0
6405,Quelagetting,Western Australia,WA,-31.6254,117.0059,3.0
6405,Greenwoods Valley,Western Australia,WA,-31.6254,117.0059,3.0
6407,Youndegin,Western Australia,WA,-31.7885,117.3287,4.0
6407,Wyola West,Western Australia,WA,-31.5995,117.1561,3.0
6407,Cunderdin,Western Australia,WA,-31.654,117.2337,4.0
6407,Wyola,Western Australia,WA,-31.5995,117.1561,3.0
6407,Watercarrin,Western Australia,WA,-31.5995,117.1561,3.0
6407,Waeel,Western Australia,WA,-31.5995,117.1561,3.0
6409,South Tammin,Western Australia,WA,-31.8099,117.5363,4.0
6409,North Tammin,Western Australia,WA,-31.6167,117.5389,3.0
6409,Tammin,Western Australia,WA,-31.6667,117.5,4.0
6409,Doongin,Western Australia,WA,-31.6067,117.495,3.0
6409,Yorkrakine,Western Australia,WA,-31.3679,117.5858,4.0
6410,Mount Caroline,Western Australia,WA,-31.9586,117.5524,3.0
6410,Daadenning Creek,Western Australia,WA,-31.7667,117.7833,4.0
6410,North Kellerberrin,Western Australia,WA,-31.5,117.6833,4.0
6410,Bungulla,Western Australia,WA,-31.6238,117.5898,4.0
6410,Kellerberrin,Western Australia,WA,-31.6318,117.7198,4.0
6411,South Doodlakine,Western Australia,WA,-31.5822,117.8148,3.0
6411,Doodlakine,Western Australia,WA,-31.6092,117.8722,4.0
6412,Baandee,Western Australia,WA,-31.5832,117.9536,4.0
6412,North Baandee,Western Australia,WA,-31.5833,117.9667,3.0
6413,Hines Hill,Western Australia,WA,-31.5342,118.0748,4.0
6414,Nangeenan,Western Australia,WA,-31.5333,118.1667,4.0
6415,Merredin,Western Australia,WA,-31.4809,118.2745,4.0
6415,Goomarin,Western Australia,WA,-31.2444,118.4358,4.0
6415,Tandegin,Western Australia,WA,-31.4231,118.2344,3.0
6415,Norpa,Western Australia,WA,-31.584,118.4238,4.0
6415,Nokaning,Western Australia,WA,-31.3733,118.2183,4.0
6415,Korbel,Western Australia,WA,-31.6602,118.1489,4.0
6418,Yarding,Western Australia,WA,-31.9276,117.9851,4.0
6418,Bruce Rock,Western Australia,WA,-31.8805,118.1475,4.0
6419,Ardath,Western Australia,WA,-32.0325,118.0952,4.0
6420,Cramphorne,Western Australia,WA,-31.805,118.5601,4.0
6420,Muntadgin,Western Australia,WA,-31.7578,118.5619,4.0
6421,Burracoppin,Western Australia,WA,-31.3975,118.4815,4.0
6421,South Burracoppin,Western Australia,WA,-31.5667,118.1167,4.0
6421,Warralakin,Western Australia,WA,-31.0167,118.6051,4.0
6422,Walgoolan,Western Australia,WA,-31.3833,118.5667,4.0
6423,Warrachuppin,Western Australia,WA,-30.9683,118.6569,3.0
6423,Carrabin,Western Australia,WA,-31.3936,118.6719,4.0
6423,Westonia,Western Australia,WA,-31.3029,118.6962,4.0
6423,Boodarockin,Western Australia,WA,-31.0127,118.8046,4.0
6424,Bodallin,Western Australia,WA,-31.3766,118.8761,4.0
6424,South Bodallin,Western Australia,WA,-31.3667,118.8667,3.0
6424,North Bodallin,Western Australia,WA,-31.3667,118.8667,3.0
6425,Moorine Rock,Western Australia,WA,-31.3208,119.1267,4.0
6425,Dulyalbin,Western Australia,WA,-31.6054,119.034,3.0
6426,Parker Range,Western Australia,WA,-31.6333,119.5833,4.0
6426,Ghooli,Western Australia,WA,-31.2618,119.4568,4.0
6426,Holleton,Western Australia,WA,-31.95,119.0333,4.0
6426,Turkey Hill,Western Australia,WA,-31.7573,119.6086,3.0
6426,Marvel Loch,Western Australia,WA,-31.4678,119.4873,4.0
6426,Mount Hampton,Western Australia,WA,-31.7573,119.6086,3.0
6426,Southern Cross,Western Australia,WA,-31.2268,119.3238,4.0
6426,Mount Holland,Western Australia,WA,-31.7573,119.6086,3.0
6426,Yellowdine,Western Australia,WA,-31.2927,119.6532,4.0
6426,Corinthia,Western Australia,WA,-31.1171,119.234,4.0
6426,Mount Palmer,Western Australia,WA,-31.4062,119.6815,4.0
6426,Mount Jackson,Western Australia,WA,-31.7573,119.6086,3.0
6426,Skeleton Rock,Western Australia,WA,-31.7573,119.6086,3.0
6426,South Yilgarn,Western Australia,WA,-31.7573,119.6086,3.0
6427,Koolyanobbing,Western Australia,WA,-30.8212,119.5214,4.0
6428,Babakin,Western Australia,WA,-32.1264,118.0241,4.0
6429,Mount Burges,Western Australia,WA,-30.852,121.117,4.0
6429,Wallaroo,Western Australia,WA,-30.8763,120.5734,4.0
6429,Karramindie,Western Australia,WA,-31.4493,120.7804,3.0
6429,Londonderry,Western Australia,WA,-31.074,121.1228,4.0
6429,Victoria Rock,Western Australia,WA,-31.4493,120.7804,3.0
6429,Boorabbin,Western Australia,WA,-31.214,120.3101,4.0
6429,Coolgardie,Western Australia,WA,-30.9536,121.166,4.0
6429,Bullabulling,Western Australia,WA,-31.0135,120.871,4.0
6430,Kalgoorlie,Western Australia,WA,-30.7461,121.4742,4.0
6430,Karlkurla,Western Australia,WA,-30.8326,121.49,3.0
6430,West Lamington,Western Australia,WA,-30.7342,121.4616,4.0
6430,Binduli,Western Australia,WA,-30.8326,121.49,3.0
6430,Mullingar,Western Australia,WA,-30.7168,121.4746,4.0
6430,South Kalgoorlie,Western Australia,WA,-30.764,121.48,3.0
6430,Somerville,Western Australia,WA,-30.7698,121.4544,4.0
6430,West Kalgoorlie,Western Australia,WA,-30.8326,121.49,3.0
6430,Lamington,Western Australia,WA,-30.7342,121.4616,4.0
6430,Broadwood,Western Australia,WA,-30.7903,121.4549,4.0
6430,Hannans,Western Australia,WA,-30.7191,121.4548,4.0
6430,Yilkari,Western Australia,WA,-30.8326,121.49,3.0
6430,Piccadilly,Western Australia,WA,-30.7428,121.4642,4.0
6430,Williamstown,Western Australia,WA,-30.75,121.4833,4.0
6431,Kanowna,Western Australia,WA,-30.6117,121.6074,4.0
6431,Feysville,Western Australia,WA,-30.7126,123.8117,3.0
6431,Ora Banda,Western Australia,WA,-30.377,121.0619,4.0
6431,Boorara,Western Australia,WA,-30.8167,121.6333,4.0
6431,Kookynie,Western Australia,WA,-29.3317,121.4925,4.0
6431,Emu Flat,Western Australia,WA,-30.7126,123.8117,3.0
6431,Kurnalpi,Western Australia,WA,-30.5367,122.2306,4.0
6431,Lakewood,Western Australia,WA,-30.8,121.5333,4.0
6431,Trafalgar,Western Australia,WA,-30.7769,121.5122,4.0
6431,Plumridge Lakes,Western Australia,WA,-30.7126,123.8117,3.0
6431,Bulong,Western Australia,WA,-30.7484,121.7945,4.0
6431,Brown Hill,Western Australia,WA,-30.7667,121.5,4.0
6431,Warburton,Western Australia,WA,-30.5278,121.5963,3.0
6432,Boulder,Western Australia,WA,-30.782,121.4912,4.0
6432,Victory Heights,Western Australia,WA,-30.7788,121.4726,4.0
6432,Fimiston,Western Australia,WA,-30.7765,121.5119,3.0
6432,South Boulder,Western Australia,WA,-30.7917,121.4887,3.0
6433,Kalgoorlie,Western Australia,WA,-30.7461,121.4742,4.0
6433,Hannans,Western Australia,WA,-30.7191,121.4548,4.0
6433,Kalgoorlie Po,Western Australia,WA,-30.7326,121.4645,3.0
6433,Kalgoorlie DC,Western Australia,WA,-30.7326,121.4645,3.0
6433,Hannans Po,Western Australia,WA,-30.7326,121.4645,3.0
6434,Cundeelee,Western Australia,WA,-31.0505,123.2116,4.0
6434,Rawlinna,Western Australia,WA,-31.0115,125.3302,4.0
6434,Parkeston,Western Australia,WA,-30.8136,127.0639,3.0
6434,Forrest,Western Australia,WA,-30.851,128.1,4.0
6434,Zanthus,Western Australia,WA,-31.0351,123.5775,4.0
6436,Ularring,Western Australia,WA,-29.5567,124.3118,3.0
6436,Menzies,Western Australia,WA,-29.6939,121.0285,4.0
6437,Leinster,Western Australia,WA,-27.9203,120.6967,4.0
6437,Sir Samuel,Western Australia,WA,-27.9168,120.6938,3.0
6438,Leonora,Western Australia,WA,-28.8851,121.3307,4.0
6438,Lake Darlot,Western Australia,WA,-29.1845,121.8832,3.0
6440,Burtville,Western Australia,WA,-28.7706,122.6428,4.0
6440,Neale,Western Australia,WA,-26.5861,126.0718,3.0
6440,Laverton,Western Australia,WA,-28.6253,122.3994,4.0
6440,Bandya,Western Australia,WA,-26.5861,126.0718,3.0
6440,Beadell,Western Australia,WA,-26.5861,126.0718,3.0
6440,Lake Wells,Western Australia,WA,-26.5861,126.0718,3.0
6440,Cosmo Newbery,Western Australia,WA,-27.9962,122.8953,4.0
6442,Kambalda West,Western Australia,WA,-31.2017,121.6306,4.0
6442,Kambalda East,Western Australia,WA,-31.2017,121.6507,3.0
6442,Kambalda,Western Australia,WA,-31.2017,121.6708,4.0
6443,Higginsville,Western Australia,WA,-31.75,121.7167,4.0
6443,Norseman,Western Australia,WA,-32.1977,121.7787,4.0
6443,Fraser Range,Western Australia,WA,-32.0134,124.3774,3.0
6443,Widgiemooltha,Western Australia,WA,-31.4959,121.5787,4.0
6443,Balladonia,Western Australia,WA,-32.3458,123.62,4.0
6443,Madura,Western Australia,WA,-31.8995,127.0197,4.0
6443,Dundas,Western Australia,WA,-32.3872,121.7733,4.0
6443,Caiguna,Western Australia,WA,-32.2734,125.4939,4.0
6443,Cocklebiddy,Western Australia,WA,-32.037,126.091,4.0
6443,Mundrabilla,Western Australia,WA,-31.815,128.2273,4.0
6443,Eucla,Western Australia,WA,-32.0134,124.3774,3.0
6445,North Cascade,Western Australia,WA,-32.9695,121.2179,3.0
6445,Salmon Gums,Western Australia,WA,-32.9833,121.6333,4.0
6446,Grass Patch,Western Australia,WA,-33.2317,121.7222,4.0
6447,Lort River,Western Australia,WA,-33.45,121.7167,3.0
6447,Scaddan,Western Australia,WA,-33.4445,121.731,4.0
6447,Wittenoom Hills,Western Australia,WA,-33.45,121.7167,3.0
6447,Mount Ney,Western Australia,WA,-33.45,121.7167,3.0
6448,Gibson,Western Australia,WA,-33.6442,121.8157,4.0
6450,Chadwick,Western Australia,WA,-33.8394,121.8856,4.0
6450,Condingup,Western Australia,WA,-33.7564,122.5259,4.0
6450,Nulsen,Western Australia,WA,-33.857,121.875,4.0
6450,Coomalbidgup,Western Australia,WA,-33.7194,121.3606,4.0
6450,Neridup,Western Australia,WA,-33.2828,122.5813,3.0
6450,Dalyup,Western Australia,WA,-33.7191,121.598,4.0
6450,Monjingup,Western Australia,WA,-33.7532,121.7408,3.0
6450,Merivale,Western Australia,WA,-33.2828,122.5813,3.0
6450,Pink Lake,Western Australia,WA,-33.8516,121.8593,4.0
6450,Munglinup,Western Australia,WA,-33.2828,122.5813,3.0
6450,Windabout,Western Australia,WA,-33.8192,121.9204,3.0
6450,Esperance,Western Australia,WA,-33.8592,121.8916,4.0
6450,Castletown,Western Australia,WA,-33.8324,121.9156,4.0
6450,Bandy Creek,Western Australia,WA,-33.8278,121.9281,4.0
6450,West Beach,Western Australia,WA,-33.8746,121.8901,4.0
6450,Myrup,Western Australia,WA,-33.7911,121.9242,3.0
6450,Cascade,Western Australia,WA,-33.2828,122.5813,3.0
6450,Cape Le Grand,Western Australia,WA,-33.2828,122.5813,3.0
6450,Boyatup,Western Australia,WA,-33.2828,122.5813,3.0
6450,Beaumont,Western Australia,WA,-33.2828,122.5813,3.0
6450,Howick,Western Australia,WA,-33.2828,122.5813,3.0
6450,Sinclair,Western Australia,WA,-33.8623,121.8723,3.0
6450,East Munglinup,Western Australia,WA,-33.2828,122.5813,3.0
6452,Cape Arid,Western Australia,WA,-33.8667,121.9,1.0
6452,Israelite Bay,Western Australia,WA,-33.8667,121.9,1.0
6452,Buraminya,Western Australia,WA,-33.8667,121.9,1.0
6460,Ucarty West,Western Australia,WA,-31.215,116.7035,3.0
6460,Goomalling,Western Australia,WA,-31.3016,116.8253,4.0
6460,Karranadgin,Western Australia,WA,-31.2333,116.75,4.0
6460,Walyormouring,Western Australia,WA,-31.215,116.7035,3.0
6460,Hulongine,Western Australia,WA,-31.215,116.7035,3.0
6461,Dowerin,Western Australia,WA,-31.1937,117.0396,4.0
6461,Koomberkine,Western Australia,WA,-31.1,117.0333,4.0
6462,Minnivale,Western Australia,WA,-31.1383,117.1809,4.0
6462,Ucarty,Western Australia,WA,-30.9957,117.1834,3.0
6462,Hindmarsh,Western Australia,WA,-30.9957,117.1834,3.0
6463,Benjaberring,Western Australia,WA,-31.1471,117.4098,1.0
6465,Manmanning,Western Australia,WA,-30.8486,117.0977,4.0
6466,Cadoux,Western Australia,WA,-30.7694,117.1328,4.0
6467,Burakin,Western Australia,WA,-30.5246,117.1769,4.0
6468,Petrudor,Western Australia,WA,-30.0614,117.2011,3.0
6468,Kalannie,Western Australia,WA,-30.3625,117.1181,4.0
6468,Goodlands,Western Australia,WA,-30.0614,117.2011,3.0
6470,Kulja,Western Australia,WA,-30.4854,117.2775,4.0
6472,Tampu,Western Australia,WA,-30.4333,117.7417,3.0
6472,Remlap,Western Australia,WA,-30.0362,117.9778,3.0
6472,Cleary,Western Australia,WA,-30.4364,117.6438,4.0
6472,Karroun Hill,Western Australia,WA,-30.0362,117.9778,3.0
6472,Mouroubra,Western Australia,WA,-29.8015,117.7043,4.0
6472,Bimbijy,Western Australia,WA,-30.0362,117.9778,3.0
6472,Beacon,Western Australia,WA,-30.4485,117.863,4.0
6473,North Wialki,Western Australia,WA,-30.5744,118.0118,3.0
6473,Wialki,Western Australia,WA,-30.478,118.12,4.0
6475,Koorda,Western Australia,WA,-30.8256,117.4879,4.0
6475,Badgerin Rock,Western Australia,WA,-30.4589,117.4554,3.0
6475,Mollerin,Western Australia,WA,-30.455,117.5256,4.0
6475,Booralaming,Western Australia,WA,-30.4589,117.4554,3.0
6475,Dukin,Western Australia,WA,-30.9404,117.4303,4.0
6475,Newcarlbeon,Western Australia,WA,-30.4589,117.4554,3.0
6475,Lake Margarette,Western Australia,WA,-30.4589,117.4554,3.0
6476,Gabbin,Western Australia,WA,-30.8011,117.6788,4.0
6477,Bencubbin,Western Australia,WA,-30.8161,117.8614,4.0
6477,Welbungin,Western Australia,WA,-30.8285,117.9886,4.0
6479,Lake Brown,Western Australia,WA,-30.95,118.3333,4.0
6479,Dandanning,Western Australia,WA,-30.7281,118.3019,3.0
6479,Barbalin,Western Australia,WA,-30.7281,118.3019,3.0
6479,Mukinbudin,Western Australia,WA,-30.9141,118.2078,4.0
6479,Karloning,Western Australia,WA,-30.7281,118.3019,3.0
6479,Wattoning,Western Australia,WA,-30.7281,118.3019,3.0
6479,Elachbutting,Western Australia,WA,-30.7281,118.3019,3.0
6479,Bonnie Rock,Western Australia,WA,-30.5408,118.3649,4.0
6479,Wilgoyne,Western Australia,WA,-30.7281,118.3019,3.0
6480,Nukarni,Western Australia,WA,-31.2833,118.2,4.0
6484,Ennuin,Western Australia,WA,-30.9847,119.1143,3.0
6484,Bullfinch,Western Australia,WA,-30.9842,119.1085,4.0
6484,Lake Deborah,Western Australia,WA,-30.9847,119.1143,3.0
6485,Korrelocking,Western Australia,WA,-31.2037,117.4709,4.0
6485,Wyalkatchem,Western Australia,WA,-31.1806,117.3836,4.0
6485,Cowcowing,Western Australia,WA,-30.9983,117.4497,4.0
6485,Nalkain,Western Australia,WA,-31.0504,117.4197,4.0
6485,Nembudding,Western Australia,WA,-31.1949,117.5737,4.0
6487,Yelbeni,Western Australia,WA,-31.1703,117.6607,4.0
6487,South Yelbeni,Western Australia,WA,-31.2399,117.7926,3.0
6487,North Yelbeni,Western Australia,WA,-31.2399,117.7926,3.0
6488,Trayning,Western Australia,WA,-31.1169,117.7935,4.0
6488,South Trayning,Western Australia,WA,-31.2328,117.7928,4.0
6488,North Trayning,Western Australia,WA,-31.1117,117.7921,3.0
6489,North Kununoppin,Western Australia,WA,-31.043,117.8218,3.0
6489,South Kununoppin,Western Australia,WA,-31.043,117.8218,3.0
6489,Kununoppin,Western Australia,WA,-31.1117,117.9179,4.0
6490,Elabbin,Western Australia,WA,-31.2312,118.1443,4.0
6490,Nungarin,Western Australia,WA,-31.1864,118.104,4.0
6490,Chandler,Western Australia,WA,-31.253,118.0448,3.0
6490,Burran Rock,Western Australia,WA,-31.2553,117.9989,4.0
6490,Kwelkan,Western Australia,WA,-31.1447,117.9956,4.0
6490,Talgomine,Western Australia,WA,-31.253,118.0448,3.0
6501,Muchea,Western Australia,WA,-31.5821,115.9716,4.0
6502,Bindoon,Western Australia,WA,-31.3866,116.0966,4.0
6502,Bindoon Training Area,Western Australia,WA,-31.3894,116.0789,3.0
6503,Cullalla,Western Australia,WA,-31.2044,115.7501,3.0
6503,Gingin,Western Australia,WA,-31.3472,115.9043,4.0
6503,Wanerie,Western Australia,WA,-31.1985,115.4117,4.0
6503,Coonabidgee,Western Australia,WA,-31.2044,115.7501,3.0
6503,Yeal,Western Australia,WA,-31.2044,115.7501,3.0
6503,Granville,Western Australia,WA,-31.2044,115.7501,3.0
6503,Orange Springs,Western Australia,WA,-31.2044,115.7501,3.0
6503,Cowalla,Western Australia,WA,-31.2044,115.7501,3.0
6503,Bambun,Western Australia,WA,-31.2044,115.7501,3.0
6503,Breera,Western Australia,WA,-31.2044,115.7501,3.0
6503,Moondah,Western Australia,WA,-31.2044,115.7501,3.0
6503,Moore River National Park,Western Australia,WA,-31.2044,115.7501,3.0
6503,Mindarra,Western Australia,WA,-31.2044,115.7501,3.0
6503,Boonanarring,Western Australia,WA,-31.2044,115.7501,3.0
6503,Red Gully,Western Australia,WA,-31.2044,115.7501,3.0
6503,Beermullah,Western Australia,WA,-31.2044,115.7501,3.0
6503,Ginginup,Western Australia,WA,-31.3178,115.9083,3.0
6503,Muckenburra,Western Australia,WA,-31.3347,115.7819,3.0
6503,Neergabby,Western Australia,WA,-31.2995,115.6374,3.0
6503,Lennard Brook,Western Australia,WA,-31.2044,115.7501,3.0
6504,Mooliabeenee,Western Australia,WA,-31.3303,116.0212,4.0
6505,Wannamal,Western Australia,WA,-31.1597,116.056,4.0
6506,Mogumber,Western Australia,WA,-31.0403,116.0425,4.0
6507,Dandaragan,Western Australia,WA,-30.6762,115.7029,4.0
6507,Cooljarloo,Western Australia,WA,-30.7317,115.5874,3.0
6507,Cataby,Western Australia,WA,-30.7317,115.5874,3.0
6507,Yathroo,Western Australia,WA,-30.7317,115.5874,3.0
6507,Mimegarra,Western Australia,WA,-30.7317,115.5874,3.0
6507,Regans Ford,Western Australia,WA,-30.7317,115.5874,3.0
6509,New Norcia,Western Australia,WA,-30.9706,116.2125,4.0
6509,Waddington,Western Australia,WA,-30.85,116.25,4.0
6509,Yarawindah,Western Australia,WA,-30.9083,116.2333,3.0
6509,Glentromie,Western Australia,WA,-30.9083,116.2333,3.0
6510,Gillingarra,Western Australia,WA,-30.9378,116.0495,4.0
6510,Barberton,Western Australia,WA,-30.7274,116.0258,4.0
6510,Moora,Western Australia,WA,-30.64,116.0036,4.0
6510,Berkshire Valley,Western Australia,WA,-30.55,116.1667,4.0
6510,Koojan,Western Australia,WA,-30.805,116.0283,4.0
6510,Walebing,Western Australia,WA,-30.6945,116.2148,4.0
6511,Cervantes,Western Australia,WA,-30.4961,115.0672,4.0
6512,Coomberdale,Western Australia,WA,-30.4633,116.0393,4.0
6512,Namban,Western Australia,WA,-30.3803,116.046,4.0
6513,Gunyidi,Western Australia,WA,-30.3585,116.02,3.0
6513,Watheroo,Western Australia,WA,-30.2976,116.0572,4.0
6514,Green Head,Western Australia,WA,-30.0677,114.968,4.0
6514,Leeman,Western Australia,WA,-29.9494,114.9821,4.0
6515,Waddy Forest,Western Australia,WA,-30.0217,115.7621,3.0
6515,Coorow,Western Australia,WA,-29.8819,116.0226,4.0
6515,Marchagee,Western Australia,WA,-30.0543,116.074,4.0
6515,Eganu,Western Australia,WA,-30.0217,115.7621,3.0
6516,Jurien Bay,Western Australia,WA,-30.3059,115.0383,4.0
6517,Winchester,Western Australia,WA,-29.7737,115.9273,4.0
6517,Carnamah,Western Australia,WA,-29.6887,115.8859,4.0
6518,Warradarge,Western Australia,WA,-29.8242,115.2604,3.0
6518,Eneabba,Western Australia,WA,-29.8196,115.2659,4.0
6519,Three Springs,Western Australia,WA,-29.5336,115.7605,4.0
6519,Arrino,Western Australia,WA,-29.4435,115.63,4.0
6519,Womarden,Western Australia,WA,-29.5254,115.5772,3.0
6519,Arrowsmith East,Western Australia,WA,-29.5254,115.5772,3.0
6519,Kadathinni,Western Australia,WA,-29.5254,115.5772,3.0
6519,Dudawa,Western Australia,WA,-29.3861,115.7353,4.0
6521,Nambung,Western Australia,WA,-30.3427,115.662,1.0
6521,Badgingarra,Western Australia,WA,-30.3427,115.662,1.0
6521,Boothendarra,Western Australia,WA,-30.3427,115.662,1.0
6521,Grey,Western Australia,WA,-30.3427,115.662,1.0
6521,Hill River,Western Australia,WA,-30.3427,115.662,1.0
6522,Yandanooka,Western Australia,WA,-29.3121,115.5686,4.0
6522,Bundanoon,Western Australia,WA,-29.1579,115.4843,3.0
6522,Mingenew,Western Australia,WA,-29.1908,115.4416,4.0
6522,Holmwood,Western Australia,WA,-29.1579,115.4843,3.0
6522,Yarragadee,Western Australia,WA,-29.1579,115.4843,3.0
6522,Lockier,Western Australia,WA,-29.1579,115.4843,3.0
6522,Nangetty,Western Australia,WA,-29.1579,115.4843,3.0
6522,Mooriary,Western Australia,WA,-29.1579,115.4843,3.0
6522,Mount Budd,Western Australia,WA,-29.1579,115.4843,3.0
6522,Ikewa,Western Australia,WA,-29.1579,115.4843,3.0
6525,Irwin,Western Australia,WA,-29.2204,115.0801,4.0
6525,Port Denison,Western Australia,WA,-29.2833,114.9167,4.0
6525,Dongara,Western Australia,WA,-29.2582,114.9328,4.0
6525,Allanooka,Western Australia,WA,-29.3265,115.0917,3.0
6525,Mount Adams,Western Australia,WA,-29.3265,115.0917,3.0
6525,Milo,Western Australia,WA,-29.3265,115.0917,3.0
6525,Bookara,Western Australia,WA,-29.3265,115.0917,3.0
6525,Yardarino,Western Australia,WA,-29.3265,115.0917,3.0
6525,Arrowsmith,Western Australia,WA,-29.3265,115.0917,3.0
6525,Mount Horner,Western Australia,WA,-29.3265,115.0917,3.0
6525,Springfield,Western Australia,WA,-29.3265,115.0917,3.0
6525,Bonniefield,Western Australia,WA,-29.2058,114.9392,3.0
6528,South Greenough,Western Australia,WA,-28.9269,114.8997,3.0
6528,Walkaway,Western Australia,WA,-28.9412,114.8031,4.0
6528,Mount Hill,Western Australia,WA,-28.9269,114.8997,3.0
6530,Tarcoola Beach,Western Australia,WA,-28.81,114.6224,4.0
6530,Strathalbyn,Western Australia,WA,-28.7517,114.6458,4.0
6530,Woorree,Western Australia,WA,-28.7668,114.6581,4.0
6530,Wandina,Western Australia,WA,-28.8194,114.6346,4.0
6530,Rangeway,Western Australia,WA,-28.7866,114.6306,4.0
6530,Waggrakine,Western Australia,WA,-28.7188,114.6392,4.0
6530,Karloo,Western Australia,WA,-28.791,114.6411,4.0
6530,Beresford,Western Australia,WA,-28.7575,114.6196,4.0
6530,Utakarra,Western Australia,WA,-28.7833,114.65,4.0
6530,Sunset Beach,Western Australia,WA,-28.7191,114.623,4.0
6530,Webberton,Western Australia,WA,-28.7524,114.6322,4.0
6530,West End,Western Australia,WA,-28.7817,114.5793,4.0
6530,Beachlands,Western Australia,WA,-28.7857,114.6019,4.0
6530,Spalding,Western Australia,WA,-28.7352,114.6365,4.0
6530,Houtman Abrolhos,Western Australia,WA,-28.5586,113.7584,4.0
6530,Bluff Point,Western Australia,WA,-28.7374,114.6228,4.0
6530,Meru,Western Australia,WA,-28.8033,114.6864,4.0
6530,Moresby,Western Australia,WA,-28.7352,114.6724,4.0
6530,Wonthella,Western Australia,WA,-28.7669,114.6334,4.0
6530,Mahomets Flats,Western Australia,WA,-28.792,114.6133,4.0
6530,Mount Tarcoola,Western Australia,WA,-28.7986,114.6253,4.0
6530,Geraldton,Western Australia,WA,-28.779,114.6146,4.0
6531,Geraldton Po,Western Australia,WA,-28.779,114.6146,3.0
6531,Geraldton,Western Australia,WA,-28.779,114.6146,4.0
6532,Meadow,Western Australia,WA,-32.4972,115.7533,4.0
6532,Ajana,Western Australia,WA,-27.9558,114.6302,4.0
6532,Wandana,Western Australia,WA,-28.3989,115.0313,3.0
6532,Drummond Cove,Western Australia,WA,-28.6738,114.6128,4.0
6532,Eradu South,Western Australia,WA,-28.3989,115.0313,3.0
6532,Rudds Gully,Western Australia,WA,-28.8355,114.6416,4.0
6532,Yuna,Western Australia,WA,-28.3333,115.0,4.0
6532,Yetna,Western Australia,WA,-28.6102,114.6989,4.0
6532,Coburn,Western Australia,WA,-28.5613,114.747,3.0
6532,Moonyoonooka,Western Australia,WA,-28.781,114.727,4.0
6532,Deepdale,Western Australia,WA,-28.7864,114.6951,4.0
6532,Tamala,Western Australia,WA,-31.7061,115.7201,4.0
6532,Sandsprings,Western Australia,WA,-28.3989,115.0313,3.0
6532,Glenfield,Western Australia,WA,-28.6925,114.6214,4.0
6532,Northern Gully,Western Australia,WA,-28.7138,114.9087,4.0
6532,Nabawa,Western Australia,WA,-28.4995,114.7968,4.0
6532,Rockwell,Western Australia,WA,-28.346,114.925,4.0
6532,Narngulu,Western Australia,WA,-28.8205,114.6925,4.0
6532,Nerren Nerren,Western Australia,WA,-28.5613,114.747,3.0
6532,Kojarena,Western Australia,WA,-28.7224,114.8656,4.0
6532,Durawah,Western Australia,WA,-28.3989,115.0313,3.0
6532,Oakajee,Western Australia,WA,-28.5697,114.631,4.0
6532,Nolba,Western Australia,WA,-28.3667,114.8667,4.0
6532,Georgina,Western Australia,WA,-28.8775,114.7536,4.0
6532,Narra Tarra,Western Australia,WA,-28.7,114.7167,4.0
6532,Bootenal,Western Australia,WA,-28.8558,114.7275,4.0
6532,Toolonga,Western Australia,WA,-28.5613,114.747,3.0
6532,Dindiloa,Western Australia,WA,-28.4307,114.7895,4.0
6532,Binnu,Western Australia,WA,-28.0424,114.678,4.0
6532,Naraling,Western Australia,WA,-28.4,114.8333,4.0
6532,Howatharra,Western Australia,WA,-28.5333,114.6167,4.0
6532,Cape Burney,Western Australia,WA,-28.8675,114.6489,4.0
6532,Coolcalalaya,Western Australia,WA,-28.3989,115.0313,3.0
6532,Greenough,Western Australia,WA,-28.95,114.7333,4.0
6532,Bringo,Western Australia,WA,-28.7491,114.8439,4.0
6532,Wicherina,Western Australia,WA,-28.7178,115.0144,4.0
6532,Mount Erin,Western Australia,WA,-28.3989,115.0313,3.0
6532,Nanson,Western Australia,WA,-28.5788,114.7545,4.0
6532,Wicherina South,Western Australia,WA,-28.3989,115.0313,3.0
6532,West Binnu,Western Australia,WA,-28.0424,114.678,4.0
6532,South Yuna,Western Australia,WA,-28.3989,115.0313,3.0
6532,North Eradu,Western Australia,WA,-28.3989,115.0313,3.0
6532,Carrarang,Western Australia,WA,-28.5613,114.747,3.0
6532,Valentine,Western Australia,WA,-28.3989,115.0313,3.0
6532,Dartmoor,Western Australia,WA,-28.3989,115.0313,3.0
6532,Ellendale,Western Australia,WA,-28.3989,115.0313,3.0
6532,East Chapman,Western Australia,WA,-28.3989,115.0313,3.0
6532,White Peak,Western Australia,WA,-28.6359,114.6434,3.0
6532,Eradu,Western Australia,WA,-28.3989,115.0313,3.0
6532,Hickety,Western Australia,WA,-28.3989,115.0313,3.0
6532,Minnenooka,Western Australia,WA,-28.8244,114.9003,3.0
6532,Hamelin Pool,Western Australia,WA,-28.3989,115.0313,3.0
6532,Marrah,Western Australia,WA,-28.3989,115.0313,3.0
6532,Eurardy,Western Australia,WA,-28.3989,115.0313,3.0
6532,Burma Road,Western Australia,WA,-28.3989,115.0313,3.0
6532,Tibradden,Western Australia,WA,-28.3989,115.0313,3.0
6532,East Yuna,Western Australia,WA,-28.3989,115.0313,3.0
6532,Buller,Western Australia,WA,-28.3989,115.0313,3.0
6532,East Nabawa,Western Australia,WA,-28.3989,115.0313,3.0
6535,Ogilvie,Western Australia,WA,-28.15,114.6333,4.0
6535,Horrocks,Western Australia,WA,-28.3861,114.43,4.0
6535,Isseka,Western Australia,WA,-28.4333,114.6333,4.0
6535,Yallabatharra,Western Australia,WA,-28.1311,114.3442,3.0
6535,Gregory,Western Australia,WA,-28.1865,114.2533,4.0
6535,Bowes,Western Australia,WA,-28.3833,114.6667,4.0
6535,Northampton,Western Australia,WA,-28.3499,114.6382,4.0
6535,Alma,Western Australia,WA,-28.0013,114.8555,3.0
6535,East Bowes,Western Australia,WA,-28.0013,114.8555,3.0
6535,Sandy Gully,Western Australia,WA,-28.0013,114.8555,3.0
6536,Zuytdorp,Western Australia,WA,-27.6034,114.5223,3.0
6536,Kalbarri,Western Australia,WA,-27.7105,114.165,4.0
6536,Kalbarri National Park,Western Australia,WA,-27.6034,114.5223,3.0
6537,Denham,Western Australia,WA,-25.9287,113.5355,4.0
6537,Monkey Mia,Western Australia,WA,-25.794,113.718,4.0
6537,Francois Peron National Park,Western Australia,WA,-32.8167,116.0667,3.0
6537,Dirk Hartog Island,Western Australia,WA,-32.8167,116.0667,3.0
6537,Nanga,Western Australia,WA,-32.8167,116.0667,3.0
6537,Shark Bay,Western Australia,WA,-32.8167,116.0667,3.0
6537,Useless Loop,Western Australia,WA,-32.8167,116.0667,3.0
6556,Beechina,Western Australia,WA,-31.85,116.3167,4.0
6556,The Lakes,Western Australia,WA,-31.8745,116.3359,4.0
6556,Chidlow,Western Australia,WA,-31.8609,116.2724,4.0
6556,Malmalling,Western Australia,WA,-31.8473,116.3095,3.0
6556,Gorrie,Western Australia,WA,-31.8473,116.3095,3.0
6558,Wooroloo,Western Australia,WA,-31.8038,116.3131,4.0
6560,Wundowie,Western Australia,WA,-31.7616,116.3799,4.0
6562,Copley,Western Australia,WA,-31.835,116.4467,3.0
6562,Bakers Hill,Western Australia,WA,-31.7469,116.4587,4.0
6562,Woottating,Western Australia,WA,-31.835,116.4467,3.0
6564,Clackline,Western Australia,WA,-31.7333,116.5333,4.0
6566,Carani,Western Australia,WA,-30.9925,116.4053,4.0
6566,Culham,Western Australia,WA,-31.4167,116.4667,4.0
6566,West Toodyay,Western Australia,WA,-31.5333,116.4167,4.0
6566,Coondle,Western Australia,WA,-31.4818,116.4276,4.0
6566,Nunile,Western Australia,WA,-31.4304,116.4453,3.0
6566,Toodyay,Western Australia,WA,-31.5498,116.4674,4.0
6566,Katrine,Western Australia,WA,-31.4304,116.4453,3.0
6566,Bejoording,Western Australia,WA,-31.4,116.5,4.0
6566,Hoddys Well,Western Australia,WA,-31.4304,116.4453,3.0
6566,Dumbarton,Western Australia,WA,-31.5682,116.523,3.0
6567,Julimar,Western Australia,WA,-31.4779,116.2483,4.0
6567,Dewars Pool,Western Australia,WA,-31.4833,116.4333,4.0
6567,Moondyne,Western Australia,WA,-31.4812,116.2698,3.0
6568,Wattening,Western Australia,WA,-31.3333,116.5167,4.0
6568,Wyening,Western Australia,WA,-31.1887,116.4857,4.0
6568,Bolgart,Western Australia,WA,-31.2667,116.5,4.0
6569,Old Plains,Western Australia,WA,-31.0885,116.4488,3.0
6569,Calingiri,Western Australia,WA,-31.0916,116.4478,4.0
6571,Yerecoin,Western Australia,WA,-30.675,116.3667,1.0
6572,Piawaning,Western Australia,WA,-30.841,116.3884,4.0
6574,Gabalong,Western Australia,WA,-30.7214,116.389,4.0
6574,Bindi Bindi,Western Australia,WA,-30.6352,116.3587,4.0
6575,Miling,Western Australia,WA,-30.4897,116.3624,4.0
6603,Konnongorring,Western Australia,WA,-31.0833,116.7833,4.0
6603,Lake Hinds,Western Australia,WA,-30.7635,116.846,3.0
6603,Wongan Hills,Western Australia,WA,-30.8929,116.7193,4.0
6603,Lake Ninan,Western Australia,WA,-30.7635,116.846,3.0
6603,Mocardy,Western Australia,WA,-30.7635,116.846,3.0
6605,Kondut,Western Australia,WA,-30.7109,116.7732,4.0
6606,West Ballidu,Western Australia,WA,-30.5917,116.7691,3.0
6606,East Ballidu,Western Australia,WA,-30.6833,116.9,4.0
6606,Ballidu,Western Australia,WA,-30.5984,116.7703,4.0
6608,Pithara,Western Australia,WA,-30.3919,116.6688,4.0
6608,Marne,Western Australia,WA,-30.2704,116.643,3.0
6608,East Damboring,Western Australia,WA,-30.2704,116.643,3.0
6609,Dalwallinu,Western Australia,WA,-30.2805,116.6601,4.0
6609,Xantippe,Western Australia,WA,-30.0333,117.0333,4.0
6609,Nugadong,Western Australia,WA,-30.2039,116.6636,4.0
6612,Wubin,Western Australia,WA,-30.1065,116.6332,4.0
6612,Miamoon,Western Australia,WA,-29.1266,117.3905,3.0
6612,Paynes Find,Western Australia,WA,-29.2592,117.6893,4.0
6612,Jibberding,Western Australia,WA,-29.1266,117.3905,3.0
6613,Buntine,Western Australia,WA,-29.987,116.5713,4.0
6614,Maya,Western Australia,WA,-29.8849,116.5044,4.0
6616,Latham,Western Australia,WA,-29.7587,116.4457,4.0
6620,Rothsay,Western Australia,WA,-29.2833,116.8833,4.0
6620,Perenjori,Western Australia,WA,-29.4361,116.2856,4.0
6623,Pintharuka,Western Australia,WA,-29.094,115.982,4.0
6623,Koolanooka,Western Australia,WA,-29.271,116.0747,4.0
6623,Morawa,Western Australia,WA,-29.2134,116.0079,4.0
6623,Bunjil,Western Australia,WA,-29.653,116.3664,4.0
6623,Bowgada,Western Australia,WA,-29.3349,116.1743,4.0
6623,Gutha,Western Australia,WA,-28.994,115.946,4.0
6625,Merkanooka,Western Australia,WA,-29.1963,116.1275,1.0
6627,Canna,Western Australia,WA,-28.9002,115.8621,4.0
6628,Tardun,Western Australia,WA,-28.7937,115.7478,4.0
6630,Nerramyne,Western Australia,WA,-27.2164,115.966,3.0
6630,Murchison,Western Australia,WA,-26.8949,115.9575,4.0
6630,Woolgorong,Western Australia,WA,-27.2164,115.966,3.0
6630,Mullewa,Western Australia,WA,-28.5395,115.5117,4.0
6630,Nunierra,Western Australia,WA,-27.2164,115.966,3.0
6630,Wongoondy,Western Australia,WA,-27.2164,115.966,3.0
6630,Devils Creek,Western Australia,WA,-27.2164,115.966,3.0
6630,West Casuarinas,Western Australia,WA,-27.2164,115.966,3.0
6631,Pindar,Western Australia,WA,-28.4804,115.793,4.0
6632,Tenindewa,Western Australia,WA,-28.6178,115.3625,4.0
6632,Ambania,Western Australia,WA,-28.6965,115.1016,4.0
6635,Yalgoo,Western Australia,WA,-28.3436,116.6825,4.0
6635,South Murchison,Western Australia,WA,-27.3163,116.5712,3.0
6638,Mount Magnet,Western Australia,WA,-28.0648,117.849,4.0
6638,Paynesville,Western Australia,WA,-28.3061,118.822,3.0
6638,Daggar Hills,Western Australia,WA,-28.3061,118.822,3.0
6638,Cooladar Hill,Western Australia,WA,-28.4825,118.1683,3.0
6639,Sandstone,Western Australia,WA,-27.9868,119.2973,4.0
6640,Cue,Western Australia,WA,-27.424,117.8974,4.0
6640,East Murchison,Western Australia,WA,-26.8712,117.4493,3.0
6640,Weld Range,Western Australia,WA,-26.8712,117.4493,3.0
6640,Reedy,Western Australia,WA,-27.15,118.2667,4.0
6640,Lake Austin,Western Australia,WA,-26.8712,117.4493,3.0
6642,Peak Hill,Western Australia,WA,-25.6375,118.7244,4.0
6642,Capricorn,Western Australia,WA,-25.1448,118.5342,3.0
6642,Meekatharra,Western Australia,WA,-26.5952,118.4939,4.0
6642,Angelo River,Western Australia,WA,-25.1448,118.5342,3.0
6642,Karalundi,Western Australia,WA,-26.5952,118.4939,3.0
6642,Kumarina,Western Australia,WA,-25.1448,118.5342,3.0
6646,Wiluna,Western Australia,WA,-26.5921,120.224,4.0
6646,Lake Carnegie,Western Australia,WA,-25.3077,122.2496,3.0
6646,Little Sandy Desert,Western Australia,WA,-25.3077,122.2496,3.0
6701,Lyndon,Western Australia,WA,-24.161,114.4806,3.0
6701,Kingsford,Western Australia,WA,-24.8639,113.6955,4.0
6701,Gilroyd,Western Australia,WA,-20.5828,119.1891,3.0
6701,Talisker,Western Australia,WA,-20.5828,119.1891,3.0
6701,Wooramel,Western Australia,WA,-24.161,114.4806,3.0
6701,Coral Bay,Western Australia,WA,-23.1408,113.7763,4.0
6701,Yandoo Creek,Western Australia,WA,-24.161,114.4806,3.0
6701,Woodleigh,Western Australia,WA,-20.5828,119.1891,3.0
6701,South Plantations,Western Australia,WA,-24.8423,113.7632,3.0
6701,Morgantown,Western Australia,WA,-24.8765,113.6589,4.0
6701,Brown Range,Western Australia,WA,-24.8916,113.6985,4.0
6701,Bernier Island,Western Australia,WA,-24.161,114.4806,3.0
6701,South Carnarvon,Western Australia,WA,-24.8569,113.7148,4.0
6701,East Carnarvon,Western Australia,WA,-24.864,113.6777,4.0
6701,Carbla,Western Australia,WA,-26.1976,114.3872,4.0
6701,Inggarda,Western Australia,WA,-24.161,114.4806,3.0
6701,North Plantations,Western Australia,WA,-24.8447,113.7088,4.0
6701,Kennedy Range,Western Australia,WA,-24.161,114.4806,3.0
6701,Ningaloo,Western Australia,WA,-22.8361,113.8012,4.0
6701,Babbage Island,Western Australia,WA,-24.161,114.4806,3.0
6701,Brockman,Western Australia,WA,-24.8813,113.6536,4.0
6701,Yalardy,Western Australia,WA,-20.5828,119.1891,3.0
6701,Massey Bay,Western Australia,WA,-24.161,114.4806,3.0
6701,Mauds Landing,Western Australia,WA,-24.161,114.4806,3.0
6701,Macleod,Western Australia,WA,-24.161,114.4806,3.0
6701,Carnarvon,Western Australia,WA,-24.8826,113.6571,4.0
6701,Greys Plain,Western Australia,WA,-24.883,113.7018,3.0
6701,Dorre Island,Western Australia,WA,-24.161,114.4806,3.0
6701,Minilya,Western Australia,WA,-24.161,114.4806,3.0
6705,Gascoyne Junction,Western Australia,WA,-25.0499,115.2091,4.0
6705,East Lyons River,Western Australia,WA,-24.7255,116.3552,3.0
6705,West Lyons River,Western Australia,WA,-24.7255,116.3552,3.0
6705,Gascoyne River,Western Australia,WA,-25.0499,115.2091,4.0
6707,Exmouth,Western Australia,WA,-21.9306,114.1209,4.0
6707,Learmonth,Western Australia,WA,-22.25,114.0833,4.0
6707,Cape Range National Park,Western Australia,WA,-22.2143,113.9896,3.0
6707,North West Cape,Western Australia,WA,-21.882,114.1325,4.0
6707,Exmouth Gulf,Western Australia,WA,-22.2143,113.9896,3.0
6710,Onslow,Western Australia,WA,-21.6376,115.1122,4.0
6710,Talandji,Western Australia,WA,-22.5027,116.2032,3.0
6710,Peedamulla,Western Australia,WA,-22.5027,116.2032,3.0
6710,Yannarie,Western Australia,WA,-22.5027,116.2032,3.0
6710,Cane,Western Australia,WA,-22.5027,116.2032,3.0
6711,Thevenard Island,Western Australia,WA,-20.9833,116.6917,1.0
6712,Barrow Island,Western Australia,WA,-20.9833,116.6917,1.0
6713,Dampier,Western Australia,WA,-20.6627,116.7126,4.0
6713,Dampier Archipelago,Western Australia,WA,-20.668,116.7191,3.0
6714,Mulataga,Western Australia,WA,-20.7395,116.8774,4.0
6714,Karratha,Western Australia,WA,-20.7377,116.8463,4.0
6714,Baynton,Western Australia,WA,-20.7516,116.8014,4.0
6714,Karratha Industrial Estate,Western Australia,WA,-20.7678,116.8708,3.0
6714,Millars Well,Western Australia,WA,-20.7417,116.8173,4.0
6714,Pegs Creek,Western Australia,WA,-20.7383,116.8328,4.0
6714,Balla Balla,Western Australia,WA,-21.0631,116.4802,3.0
6714,Bulgarra,Western Australia,WA,-20.7258,116.8567,4.0
6714,Antonymyre,Western Australia,WA,-21.0631,116.4802,3.0
6714,Cleaverville,Western Australia,WA,-21.0631,116.4802,3.0
6714,Stove Hill,Western Australia,WA,-20.7574,116.8495,3.0
6714,Nickol,Western Australia,WA,-20.7456,116.7954,4.0
6714,Mount Anketell,Western Australia,WA,-21.0631,116.4802,3.0
6714,Sherlock,Western Australia,WA,-21.0631,116.4802,3.0
6714,Burrup,Western Australia,WA,-20.5901,116.796,4.0
6714,Cooya Pooya,Western Australia,WA,-21.0631,116.4802,3.0
6714,Gap Ridge,Western Australia,WA,-20.7461,116.7856,3.0
6714,Mardie,Western Australia,WA,-21.0631,116.4802,3.0
6714,Maitland,Western Australia,WA,-21.0631,116.4802,3.0
6714,Gnoorea,Western Australia,WA,-21.0631,116.4802,3.0
6716,Pannawonica,Western Australia,WA,-21.6392,116.3222,4.0
6716,Millstream,Western Australia,WA,-21.6374,116.3258,3.0
6716,Hamersley Range,Western Australia,WA,-21.6374,116.3258,3.0
6716,Fortescue,Western Australia,WA,-21.6374,116.3258,3.0
6718,Roebourne,Western Australia,WA,-20.7723,117.1465,4.0
6718,Whim Creek,Western Australia,WA,-20.8386,117.8314,4.0
6720,Wickham,Western Australia,WA,-20.6747,117.1378,4.0
6720,Cossack,Western Australia,WA,-20.7,117.2,4.0
6720,Point Samson,Western Australia,WA,-20.6289,117.1927,4.0
6721,Mundabullangana,Western Australia,WA,-20.929,118.6739,3.0
6721,Wedgefield,Western Australia,WA,-20.3609,118.5958,4.0
6721,Port Hedland,Western Australia,WA,-20.3121,118.6106,4.0
6721,Strelley,Western Australia,WA,-21.1167,119.05,4.0
6721,Indee,Western Australia,WA,-20.929,118.6739,3.0
6721,Redbank,Western Australia,WA,-20.3452,118.6296,4.0
6721,Pardoo,Western Australia,WA,-20.1086,119.5798,3.0
6721,Wallareenya,Western Australia,WA,-20.929,118.6739,3.0
6722,Boodarie,Western Australia,WA,-20.3675,118.5586,4.0
6722,Finucane,Western Australia,WA,-20.2977,118.569,4.0
6722,De Grey,Western Australia,WA,-20.4091,118.6091,3.0
6722,Pippingarra,Western Australia,WA,-20.4091,118.6091,3.0
6722,South Hedland,Western Australia,WA,-20.4066,118.6007,4.0
6723,Goldsworthy,Western Australia,WA,-20.35,119.5333,4.0
6725,Roebuck,Western Australia,WA,-18.1713,122.5012,4.0
6725,Minyirr,Western Australia,WA,-17.9813,122.2097,4.0
6725,Dampier Peninsula,Western Australia,WA,-16.9324,122.8656,4.0
6725,Lagrange,Western Australia,WA,-18.7056,121.9933,3.0
6725,Broome,Western Australia,WA,-17.9554,122.2392,4.0
6725,Gingerah,Western Australia,WA,-18.6605,122.4748,3.0
6725,Bilingurr,Western Australia,WA,-17.9091,122.2292,4.0
6725,Waterbank,Western Australia,WA,-17.4547,122.6775,3.0
6725,Djugun,Western Australia,WA,-17.9539,122.2279,4.0
6725,Eighty Mile Beach,Western Australia,WA,-19.2407,121.6133,4.0
6726,Cable Beach,Western Australia,WA,-17.961,122.2127,4.0
6728,Camballin,Western Australia,WA,-18.209,123.9018,4.0
6728,Kimbolton,Western Australia,WA,-20.4159,118.7072,3.0
6728,King Leopold Ranges,Western Australia,WA,-17.1099,125.4806,4.0
6728,Geegully Creek,Western Australia,WA,-20.4159,118.7072,3.0
6728,Derby,Western Australia,WA,-17.3029,123.6286,4.0
6728,Willare,Western Australia,WA,-20.4159,118.7072,3.0
6728,Meda,Western Australia,WA,-20.4159,118.7072,3.0
6728,St George Ranges,Western Australia,WA,-18.982,125.0087,4.0
6731,Cockatoo Island,Western Australia,WA,-20.5828,119.1891,1.0
6733,Koolan Island,Western Australia,WA,-21.0454,118.4324,1.0
6740,Prince Regent River,Western Australia,WA,-15.9162,126.8148,1.0
6740,Kalumburu,Western Australia,WA,-14.2872,126.6345,1.0
6740,Mitchell Plateau,Western Australia,WA,-15.9162,126.8148,1.0
6740,Oombulgurri,Western Australia,WA,-15.9162,126.8148,1.0
6740,Wyndham,Western Australia,WA,-15.4869,128.1243,4.0
6740,Drysdale River,Western Australia,WA,-15.9162,126.8148,1.0
6743,Lake Argyle,Western Australia,WA,-16.1088,128.7443,1.0
6743,Kununurra,Western Australia,WA,-15.7739,128.739,1.0
6743,Gibb,Western Australia,WA,-32.0844,119.0982,1.0
6743,Warmun,Western Australia,WA,-17.0338,128.2236,1.0
6743,Cambridge Gulf,Western Australia,WA,-17.4122,129.6861,1.0
6743,Durack,Western Australia,WA,-17.4122,129.6861,1.0
6751,Rocklea,Western Australia,WA,-32.8696,118.4233,3.0
6751,Tom Price,Western Australia,WA,-22.6939,117.7931,4.0
6751,Chichester,Western Australia,WA,-22.6856,117.7906,3.0
6751,Wittenoom,Western Australia,WA,-22.2404,118.3355,4.0
6751,Mulga Downs,Western Australia,WA,-22.6856,117.7906,3.0
6751,Nanutarra,Western Australia,WA,-22.6856,117.7906,3.0
6751,Innawanga,Western Australia,WA,-22.6856,117.7906,3.0
6751,Mount Sheila,Western Australia,WA,-22.6856,117.7906,3.0
6751,Karijini,Western Australia,WA,-22.6856,117.7906,3.0
6751,Juna Downs,Western Australia,WA,-22.6856,117.7906,3.0
6753,Newman,Western Australia,WA,-23.3564,119.7355,4.0
6754,Paraburdoo,Western Australia,WA,-23.2042,117.6697,4.0
6758,Nullagine,Western Australia,WA,-21.8897,120.1114,4.0
6760,Marble Bar,Western Australia,WA,-21.1707,119.7444,4.0
6761,Shay Gap,Western Australia,WA,-21.1707,119.7444,1.0
6762,Telfer,Western Australia,WA,-21.2117,123.2617,4.0
6765,Mount Hardman,Western Australia,WA,-21.1707,119.7444,3.0
6765,Fitzroy Crossing,Western Australia,WA,-18.1971,125.5666,4.0
6770,Sturt Creek,Western Australia,WA,-18.8386,128.1783,3.0
6770,Mueller Ranges,Western Australia,WA,-18.3983,126.8562,4.0
6770,Mcbeath,Western Australia,WA,-19.3668,127.5678,3.0
6770,Purnululu,Western Australia,WA,-19.3668,127.5678,3.0
6770,Tanami,Western Australia,WA,-19.3668,127.5678,3.0
6770,Halls Creek,Western Australia,WA,-19.3668,127.5678,3.0
6770,Ord River,Western Australia,WA,-17.3857,128.9207,3.0
6798,Christmas Island,Western Australia,WA,-10.4854,105.6365,1.0
6799,Home Island Cocos (Keeling) Islands,Western Australia,WA,-12.1352,96.8628,1.0
6799,West Island Cocos (Keeling) Islands,Western Australia,WA,-12.1352,96.8628,1.0
6800,Perth,Western Australia,WA,-31.9522,115.8614,4.0
6803,Northbridge,Western Australia,WA,-31.9478,115.8588,4.0
6809,Perth,Western Australia,WA,-31.9522,115.8614,4.0
6817,Perth,Western Australia,WA,-31.9522,115.8614,4.0
6820,Perth,Western Australia,WA,-31.9522,115.8614,4.0
6827,Perth,Western Australia,WA,-31.9522,115.8614,4.0
6830,Perth,Western Australia,WA,-31.9522,115.8614,4.0
6831,Perth St Georges Tce,Western Australia,WA,-31.9333,115.8333,1.0
6832,Perth Adelaide Tce,Western Australia,WA,-31.9522,115.8614,1.0
6832,Perth East St Georges Tce,Western Australia,WA,-31.9333,115.8333,1.0
6837,Perth,Western Australia,WA,-31.9522,115.8614,4.0
6838,Perth,Western Australia,WA,-31.9522,115.8614,4.0
6839,Perth,Western Australia,WA,-31.9522,115.8614,4.0
6840,Perth,Western Australia,WA,-31.9522,115.8614,4.0
6841,Perth,Western Australia,WA,-31.9522,115.8614,4.0
6842,Perth,Western Australia,WA,-31.9522,115.8614,4.0
6843,Perth,Western Australia,WA,-31.9522,115.8614,4.0
6844,Perth,Western Australia,WA,-31.9522,115.8614,4.0
6845,Perth,Western Australia,WA,-31.9522,115.8614,4.0
6846,Perth,Western Australia,WA,-31.9522,115.8614,4.0
6847,Perth,Western Australia,WA,-31.9522,115.8614,4.0
6848,Perth,Western Australia,WA,-31.9522,115.8614,4.0
6849,Perth Bc,Western Australia,WA,-31.9333,115.8333,1.0
6850,Cloisters Square Po,Western Australia,WA,-31.952,115.8607,1.0
6850,Cloisters Square,Western Australia,WA,-31.9333,115.8333,1.0
6865,Northbridge,Western Australia,WA,-31.9478,115.8588,4.0
6872,West Perth,Western Australia,WA,-31.949,115.842,4.0
6892,East Perth,Western Australia,WA,-31.9587,115.8711,4.0
6900,Leederville,Western Australia,WA,-31.9363,115.8419,4.0
6901,West Leederville,Western Australia,WA,-31.9414,115.8312,4.0
6902,Leederville,Western Australia,WA,-31.9363,115.8419,4.0
6903,Leederville,Western Australia,WA,-31.9363,115.8419,4.0
6904,Subiaco,Western Australia,WA,-31.9485,115.8268,4.0
6904,Subiaco Po,Western Australia,WA,-31.95,115.8,3.0
6905,Northlands,Western Australia,WA,-31.9722,115.8,1.0
6905,Northlands Po,Western Australia,WA,-31.9486,115.8275,1.0
6906,North Perth,Western Australia,WA,-31.9272,115.8528,4.0
6907,Nedlands,Western Australia,WA,-31.9818,115.8073,4.0
6909,Nedlands,Western Australia,WA,-31.9818,115.8073,4.0
6910,Claremont,Western Australia,WA,-31.9796,115.7823,4.0
6911,Cottesloe,Western Australia,WA,-32.0,115.7667,4.0
6912,Mosman Park,Western Australia,WA,-32.0054,115.7638,4.0
6913,Wembley,Western Australia,WA,-31.9333,115.8,4.0
6914,Balcatta,Western Australia,WA,-31.875,115.8284,4.0
6915,Mount Hawthorn,Western Australia,WA,-31.92,115.8351,4.0
6916,Osborne Park Dc,Western Australia,WA,-31.9802,115.7757,3.0
6916,Osborne Park,Western Australia,WA,-31.9007,115.8108,4.0
6917,Osborne Park,Western Australia,WA,-31.9007,115.8108,4.0
6918,Innaloo,Western Australia,WA,-31.8927,115.7951,4.0
6919,Joondalup Dc,Western Australia,WA,-31.9802,115.7757,1.0
6920,North Beach,Western Australia,WA,-31.863,115.7562,4.0
6921,Karrinyup,Western Australia,WA,-31.8723,115.7768,4.0
6922,Scarborough,Western Australia,WA,-31.8958,115.7643,4.0
6923,Hillarys,Western Australia,WA,-31.807,115.7405,4.0
6924,Greenwood,Western Australia,WA,-31.8272,115.8025,4.0
6925,Walliston Dc,Western Australia,WA,-31.9167,115.8556,1.0
6926,Kalamunda,Western Australia,WA,-31.9868,116.0704,1.0
6929,Mount Lawley,Western Australia,WA,-31.9344,115.8716,4.0
6931,Maylands,Western Australia,WA,-31.931,115.8949,4.0
6932,Inglewood,Western Australia,WA,-31.9166,115.8798,4.0
6933,Bayswater,Western Australia,WA,-31.9169,115.9178,4.0
6934,Bassendean,Western Australia,WA,-31.9091,115.9437,4.0
6935,Guildford,Western Australia,WA,-31.9,115.9667,4.0
6936,Midland Dc,Western Australia,WA,-31.9111,115.9333,1.0
6937,Tuart Hill,Western Australia,WA,-31.8981,115.8349,4.0
6938,Tuart Hill,Western Australia,WA,-31.8981,115.8349,4.0
6939,Tuart Hill,Western Australia,WA,-31.8981,115.8349,4.0
6940,Tuart Hill,Western Australia,WA,-31.8981,115.8349,4.0
6941,Mirrabooka,Western Australia,WA,-31.8596,115.8659,4.0
6942,Bassendean Dc,Western Australia,WA,-31.75,115.8,1.0
6943,Morley,Western Australia,WA,-31.8877,115.9099,4.0
6944,Malaga,Western Australia,WA,-31.8526,115.881,4.0
6945,Malaga Dc,Western Australia,WA,-31.75,115.8,1.0
6946,Wanneroo,Western Australia,WA,-31.75,115.8,4.0
6947,Wangara Dc,Western Australia,WA,-31.75,115.8,1.0
6951,South Perth,Western Australia,WA,-31.9833,115.8667,4.0
6952,Como,Western Australia,WA,-31.9912,115.8634,4.0
6953,Applecross,Western Australia,WA,-32.0167,115.8333,4.0
6954,Booragoon,Western Australia,WA,-32.0395,115.8337,4.0
6955,Willetton,Western Australia,WA,-32.0525,115.8878,4.0
6956,Melville,Western Australia,WA,-32.0404,115.8012,4.0
6957,Palmyra,Western Australia,WA,-32.045,115.7859,4.0
6958,Royal Australian Navy Warships,Western Australia,WA,-32.05,115.7667,1.0
6959,Fremantle,Western Australia,WA,-32.05,115.7667,4.0
6960,Myaree Bc,Western Australia,WA,-32.2833,115.7167,1.0
6961,Palmyra Dc,Western Australia,WA,-32.2833,115.7167,1.0
6963,Hamilton Hill,Western Australia,WA,-32.0845,115.7795,4.0
6964,Success,Western Australia,WA,-32.1428,115.85,4.0
6965,Bibra Lake Dc,Western Australia,WA,-32.2833,115.7167,1.0
6966,Kwinana,Western Australia,WA,-32.2301,115.7813,4.0
6967,Rockingham Dc,Western Australia,WA,-32.2833,115.7167,1.0
6968,Rockingham,Western Australia,WA,-32.2768,115.7298,4.0
6969,Rockingham Beach,Western Australia,WA,-32.2833,115.7167,1.0
6970,Canning Vale Dc,Western Australia,WA,-31.9919,115.8645,1.0
6979,Victoria Park,Western Australia,WA,-31.9762,115.9052,4.0
6980,Cannington,Western Australia,WA,-32.0167,115.95,4.0
6981,East Victoria Park,Western Australia,WA,-31.9889,115.9039,4.0
6982,Bentley,Western Australia,WA,-32.0,115.9167,4.0
6983,Bentley Dc,Western Australia,WA,-32.0048,115.9411,1.0
6984,Belmont,Western Australia,WA,-31.9435,115.9255,4.0
6985,Cloverdale,Western Australia,WA,-31.9628,115.9443,4.0
6986,Welshpool Dc,Western Australia,WA,-32.0048,115.9411,1.0
6987,Cannington,Western Australia,WA,-32.0167,115.95,4.0
6988,Thornlie,Western Australia,WA,-32.06,115.955,4.0
6989,Maddington,Western Australia,WA,-32.05,115.9833,4.0
6990,Gosnells,Western Australia,WA,-32.081,116.0054,4.0
6991,Kelmscott,Western Australia,WA,-32.1243,116.0259,4.0
6992,Armadale,Western Australia,WA,-32.1461,116.0093,4.0
6997,Kelmscott Dc,Western Australia,WA,-32.1167,116.0056,1.0
